RegionName,City,State,Precio_Actual,Clasificacion,Confianza_%,Datos_Clave,Latitude,Longitude
79703,Midland,TX,232597,Alto Potencial,90.2,Crecimiento24: 6.0% | Crecimiento25: 8.1% | Vacancia: 1.2% | Momentum: 8.1%,31.9721,-102.1369
79761,Odessa,TX,195921,Alto Potencial,89.3,Crecimiento24: 2.7% | Crecimiento25: 9.7% | Vacancia: 3.8% | Momentum: 9.8%,31.8579,-102.3523
79701,Midland,TX,208229,Alto Potencial,88.9,Crecimiento24: 3.0% | Crecimiento25: 10.0% | Vacancia: 3.5% | Momentum: 8.2%,31.9896,-102.0626
79762,Odessa,TX,246744,Alto Potencial,87.0,Crecimiento24: 5.2% | Crecimiento25: 6.7% | Vacancia: 3.8% | Momentum: 6.6%,31.889,-102.3548
78852,Eagle Pass,TX,221536,Alto Potencial,86.2,Crecimiento24: 8.1% | Crecimiento25: 8.3% | Vacancia: 3.2% | Momentum: 1.8%,28.7028,-100.4818
79764,Odessa,TX,214940,Alto Potencial,85.5,Crecimiento24: 1.9% | Crecimiento25: 7.4% | Vacancia: 2.6% | Momentum: 8.3%,31.8767,-102.4375
79758,Gardendale,TX,365993,Alto Potencial,83.8,Crecimiento24: 2.2% | Crecimiento25: 8.5% | Vacancia: 2.4% | Momentum: 5.4%,32.0245,-102.3572
79705,Midland,TX,343272,Alto Potencial,81.8,Crecimiento24: 3.9% | Crecimiento25: 4.5% | Vacancia: 3.3% | Momentum: 2.8%,32.0295,-102.0915
79763,Odessa,TX,195053,Alto Potencial,79.9,Crecimiento24: 1.0% | Crecimiento25: 10.1% | Vacancia: 4.1% | Momentum: 9.7%,31.8341,-102.4162
79766,Odessa,TX,283848,Alto Potencial,77.7,Crecimiento24: 0.2% | Crecimiento25: 8.9% | Vacancia: 1.3% | Momentum: 7.0%,31.7827,-102.3449
79707,Midland,TX,406361,Alto Potencial,75.5,Crecimiento24: 4.0% | Crecimiento25: 4.0% | Vacancia: 1.3% | Momentum: 1.9%,32.0199,-102.1476
79706,Midland,TX,374962,Alto Potencial,75.1,Crecimiento24: 5.0% | Crecimiento25: 4.5% | Vacancia: 2.9% | Momentum: 5.4%,31.8816,-102.0134
77701,Beaumont,TX,94874,Alto Potencial,61.6,Crecimiento24: -2.6% | Crecimiento25: 9.4% | Vacancia: 10.3% | Momentum: 6.3%,30.0688,-94.1039
78579,Progreso,TX,123746,Alto Potencial,58.5,Crecimiento24: 21.1% | Crecimiento25: 3.8% | Vacancia: 5.1% | Momentum: 1.9%,26.0922,-97.9533
79520,Hamlin,TX,110370,Alto Potencial,57.5,Crecimiento24: 2.6% | Crecimiento25: 7.9% | Vacancia: 8.7% | Momentum: -0.0%,32.8799,-100.128
77703,Beaumont,TX,87053,Alto Potencial,47.0,Crecimiento24: -2.5% | Crecimiento25: 9.6% | Vacancia: 8.2% | Momentum: 1.1%,30.1132,-94.1197
78574,La Homa,TX,189169,Estable,100.0,Crecimiento24: 10.2% | Crecimiento25: 3.2% | Vacancia: 2.2% | Momentum: -5.8%,26.3189,-98.3701
79915,El Paso,TX,163568,Estable,100.0,Crecimiento24: 6.0% | Crecimiento25: 5.0% | Vacancia: 3.5% | Momentum: -6.7%,31.7432,-106.3686
79904,El Paso,TX,183291,Estable,100.0,Crecimiento24: 6.4% | Crecimiento25: 4.2% | Vacancia: 3.8% | Momentum: -8.4%,31.8533,-106.4381
75238,Dallas,TX,615663,Estable,100.0,Crecimiento24: 6.9% | Crecimiento25: 5.0% | Vacancia: 3.2% | Momentum: -7.3%,32.877,-96.708
79922,El Paso,TX,391736,Estable,100.0,Crecimiento24: 7.4% | Crecimiento25: 7.1% | Vacancia: 7.3% | Momentum: -6.5%,31.8218,-106.5732
79930,El Paso,TX,177423,Estable,99.9,Crecimiento24: 7.5% | Crecimiento25: 4.0% | Vacancia: 7.3% | Momentum: -6.5%,31.8048,-106.4568
79902,El Paso,TX,269680,Estable,99.9,Crecimiento24: 8.7% | Crecimiento25: 3.4% | Vacancia: 5.9% | Momentum: -5.6%,31.7763,-106.4932
75218,Dallas,TX,546375,Estable,99.9,Crecimiento24: 5.7% | Crecimiento25: 2.9% | Vacancia: 3.0% | Momentum: -8.7%,32.8463,-96.6972
79935,El Paso,TX,235106,Estable,99.9,Crecimiento24: 5.9% | Crecimiento25: 3.6% | Vacancia: 2.5% | Momentum: -8.2%,31.7718,-106.3303
75244,Dallas,TX,693609,Estable,99.9,Crecimiento24: 5.9% | Crecimiento25: 4.8% | Vacancia: 5.2% | Momentum: -8.9%,32.9322,-96.8353
79936,El Paso,TX,214157,Estable,99.8,Crecimiento24: 6.5% | Crecimiento25: 3.6% | Vacancia: 1.1% | Momentum: -9.1%,31.7677,-106.3016
75214,Dallas,TX,797739,Estable,99.8,Crecimiento24: 4.3% | Crecimiento25: 5.4% | Vacancia: 5.2% | Momentum: -9.1%,32.8248,-96.7498
75205,Highland Park,TX,1955780,Estable,99.8,Crecimiento24: 7.2% | Crecimiento25: 6.8% | Vacancia: 4.6% | Momentum: -12.0%,32.826,-96.7843
79104,Amarillo,TX,106910,Estable,99.8,Crecimiento24: 5.0% | Crecimiento25: 2.9% | Vacancia: 5.3% | Momentum: -8.7%,35.1939,-101.7975
76055,Itasca,TX,214676,Estable,99.8,Crecimiento24: 2.5% | Crecimiento25: 4.8% | Vacancia: 4.4% | Momentum: -8.6%,32.1636,-97.146
78541,Edinburg,TX,205764,Estable,99.7,Crecimiento24: 4.9% | Crecimiento25: 2.7% | Vacancia: 3.8% | Momentum: -8.9%,26.4481,-98.2842
75604,Longview,TX,215956,Estable,99.7,Crecimiento24: 4.4% | Crecimiento25: 2.6% | Vacancia: 4.1% | Momentum: -6.6%,32.5251,-94.799
79903,El Paso,TX,173536,Estable,99.7,Crecimiento24: 9.2% | Crecimiento25: 6.6% | Vacancia: 5.8% | Momentum: -2.9%,31.7862,-106.4406
78576,Penitas,TX,155027,Estable,99.7,Crecimiento24: 10.9% | Crecimiento25: 4.1% | Vacancia: 1.8% | Momentum: -4.5%,26.278,-98.4469
76645,Hillsboro,TX,213402,Estable,99.7,Crecimiento24: 3.6% | Crecimiento25: 6.7% | Vacancia: 5.1% | Momentum: -7.5%,32.0149,-97.1198
78557,Hidalgo,TX,188812,Estable,99.7,Crecimiento24: 5.3% | Crecimiento25: 3.3% | Vacancia: 1.8% | Momentum: -9.0%,26.1028,-98.2536
79911,El Paso,TX,384783,Estable,99.7,Crecimiento24: 3.2% | Crecimiento25: 3.0% | Vacancia: 1.5% | Momentum: -12.0%,31.8925,-106.5426
78504,McAllen,TX,260150,Estable,99.6,Crecimiento24: 3.9% | Crecimiento25: 1.5% | Vacancia: 3.0% | Momentum: -11.3%,26.2556,-98.2303
78539,Edinburg,TX,240292,Estable,99.6,Crecimiento24: 3.6% | Crecimiento25: 2.0% | Vacancia: 3.9% | Momentum: -11.1%,26.2792,-98.1832
77803,Bryan,TX,203421,Estable,99.6,Crecimiento24: 4.6% | Crecimiento25: 2.0% | Vacancia: 2.5% | Momentum: -5.9%,30.6913,-96.3714
75229,Dallas,TX,699307,Estable,99.6,Crecimiento24: 4.6% | Crecimiento25: 6.1% | Vacancia: 2.5% | Momentum: -9.1%,32.8958,-96.8588
76109,Fort Worth,TX,648470,Estable,99.6,Crecimiento24: 5.0% | Crecimiento25: 6.1% | Vacancia: 5.8% | Momentum: -7.2%,32.7002,-97.3789
79015,Canyon,TX,289005,Estable,99.6,Crecimiento24: 2.9% | Crecimiento25: 3.1% | Vacancia: 3.9% | Momentum: -8.0%,34.9772,-101.9247
75001,Addison,TX,495055,Estable,99.6,Crecimiento24: 3.5% | Crecimiento25: 2.4% | Vacancia: 4.3% | Momentum: -9.8%,32.96,-96.8385
75693,White Oak,TX,239287,Estable,99.6,Crecimiento24: 3.0% | Crecimiento25: 4.2% | Vacancia: 6.0% | Momentum: -5.9%,32.5383,-94.8622
79928,Horizon City,TX,254105,Estable,99.6,Crecimiento24: 3.5% | Crecimiento25: 2.3% | Vacancia: 1.4% | Momentum: -12.5%,31.6631,-106.1401
79912,El Paso,TX,308237,Estable,99.5,Crecimiento24: 5.4% | Crecimiento25: 3.3% | Vacancia: 4.3% | Momentum: -9.3%,31.8383,-106.5364
79925,El Paso,TX,228158,Estable,99.5,Crecimiento24: 7.2% | Crecimiento25: 3.7% | Vacancia: 2.8% | Momentum: -6.1%,31.7814,-106.3613
77381,Spring,TX,537125,Estable,99.5,Crecimiento24: 5.6% | Crecimiento25: 5.0% | Vacancia: 1.5% | Momentum: -9.7%,30.1716,-95.4985
77096,Houston,TX,430838,Estable,99.5,Crecimiento24: 3.5% | Crecimiento25: 2.2% | Vacancia: 5.8% | Momentum: -4.9%,29.6722,-95.4861
77018,Houston,TX,528695,Estable,99.5,Crecimiento24: 3.6% | Crecimiento25: 3.0% | Vacancia: 4.1% | Momentum: -3.8%,29.8272,-95.4266
76034,Colleyville,TX,889193,Estable,99.5,Crecimiento24: 4.5% | Crecimiento25: 4.5% | Vacancia: 1.2% | Momentum: -12.5%,32.8872,-97.146
77808,Bryan,TX,419296,Estable,99.5,Crecimiento24: 5.8% | Crecimiento25: 2.9% | Vacancia: 3.5% | Momentum: -4.2%,30.8202,-96.3059
79849,San Elizario,TX,166480,Estable,99.5,Crecimiento24: 7.8% | Crecimiento25: 3.4% | Vacancia: 3.0% | Momentum: -7.0%,31.5508,-106.2507
75647,Gladewater,TX,206071,Estable,99.5,Crecimiento24: 2.9% | Crecimiento25: 3.6% | Vacancia: 4.7% | Momentum: -7.0%,32.5559,-94.932
75785,,TX,227849,Estable,99.5,Crecimiento24: 4.8% | Crecimiento25: 5.8% | Vacancia: 5.8% | Momentum: -6.5%,31.8136,-95.0965
76354,Burkburnett,TX,181105,Estable,99.5,Crecimiento24: 3.6% | Crecimiento25: 4.9% | Vacancia: 4.2% | Momentum: -8.5%,34.086,-98.5708
76557,Moody,TX,317021,Estable,99.5,Crecimiento24: 3.0% | Crecimiento25: 3.5% | Vacancia: 4.1% | Momentum: -13.9%,31.2533,-97.41
76051,Grapevine,TX,542467,Estable,99.4,Crecimiento24: 4.8% | Crecimiento25: 3.1% | Vacancia: 2.3% | Momentum: -10.5%,32.9328,-97.0808
78516,Alamo,TX,162103,Estable,99.4,Crecimiento24: 8.5% | Crecimiento25: 3.5% | Vacancia: 6.4% | Momentum: -7.8%,26.1906,-98.1164
78570,Mercedes,TX,135730,Estable,99.4,Crecimiento24: 13.1% | Crecimiento25: 4.1% | Vacancia: 5.1% | Momentum: -3.9%,26.1513,-97.9185
79821,Vinton,TX,208997,Estable,99.4,Crecimiento24: 7.0% | Crecimiento25: 3.2% | Vacancia: 2.4% | Momentum: -9.6%,31.9907,-106.5976
77479,Sugar Land,TX,540630,Estable,99.4,Crecimiento24: 4.3% | Crecimiento25: 3.5% | Vacancia: 1.2% | Momentum: -10.2%,29.5785,-95.6066
79924,El Paso,TX,187602,Estable,99.3,Crecimiento24: 7.6% | Crecimiento25: 4.1% | Vacancia: 2.3% | Momentum: -8.1%,31.9021,-106.4149
78542,Edinburg,TX,197635,Estable,99.3,Crecimiento24: 6.8% | Crecimiento25: 2.7% | Vacancia: 2.6% | Momentum: -9.0%,26.4661,-98.0695
77031,Houston,TX,260338,Estable,99.2,Crecimiento24: 4.0% | Crecimiento25: 1.5% | Vacancia: 5.3% | Momentum: -9.3%,29.6581,-95.5413
75209,Dallas,TX,1016747,Estable,99.2,Crecimiento24: 4.4% | Crecimiento25: 5.8% | Vacancia: 4.7% | Momentum: -10.4%,32.8456,-96.826
76367,,TX,184240,Estable,99.2,Crecimiento24: 2.1% | Crecimiento25: 4.6% | Vacancia: 2.7% | Momentum: -9.9%,33.9423,-98.6745
78526,Brownsville,TX,225110,Estable,99.1,Crecimiento24: 4.9% | Crecimiento25: 3.7% | Vacancia: 1.9% | Momentum: -12.3%,25.9717,-97.4699
77055,Houston,TX,602268,Estable,99.1,Crecimiento24: 4.1% | Crecimiento25: 3.6% | Vacancia: 3.7% | Momentum: -2.6%,29.7971,-95.4958
75248,Dallas,TX,619544,Estable,99.1,Crecimiento24: 5.5% | Crecimiento25: 4.3% | Vacancia: 4.3% | Momentum: -8.3%,32.9682,-96.7942
75839,Elkhart,TX,245141,Estable,99.1,Crecimiento24: 10.2% | Crecimiento25: 4.8% | Vacancia: 6.0% | Momentum: -7.0%,31.648,-95.5551
79934,El Paso,TX,240616,Estable,99.0,Crecimiento24: 4.7% | Crecimiento25: 2.2% | Vacancia: 3.8% | Momentum: -12.2%,31.9386,-106.4073
75022,Flower Mound,TX,771220,Estable,99.0,Crecimiento24: 3.3% | Crecimiento25: 3.1% | Vacancia: 1.1% | Momentum: -14.5%,33.0268,-97.1193
79836,Clint,TX,189683,Estable,99.0,Crecimiento24: 5.1% | Crecimiento25: 2.7% | Vacancia: 2.7% | Momentum: -8.1%,31.5494,-106.2038
76487,,TX,447950,Estable,99.0,Crecimiento24: 3.1% | Crecimiento25: 4.5% | Vacancia: 6.4% | Momentum: -8.9%,32.968,-97.8472
77861,Iola,TX,498483,Estable,99.0,Crecimiento24: 4.6% | Crecimiento25: 5.9% | Vacancia: 5.5% | Momentum: -6.5%,30.7326,-96.0911
75093,Plano,TX,753831,Estable,98.9,Crecimiento24: 5.7% | Crecimiento25: 2.2% | Vacancia: 2.6% | Momentum: -12.9%,33.0299,-96.7889
78573,Alton,TX,207128,Estable,98.9,Crecimiento24: 7.3% | Crecimiento25: 1.6% | Vacancia: 3.0% | Momentum: -7.4%,26.2937,-98.3008
75220,Dallas,TX,487639,Estable,98.9,Crecimiento24: 4.4% | Crecimiento25: 3.3% | Vacancia: 4.5% | Momentum: -11.6%,32.8681,-96.8622
77079,Houston,TX,678758,Estable,98.9,Crecimiento24: 7.0% | Crecimiento25: 5.1% | Vacancia: 4.3% | Momentum: -3.9%,29.7738,-95.598
75766,Jacksonville,TX,221454,Estable,98.9,Crecimiento24: 5.1% | Crecimiento25: 2.2% | Vacancia: 5.1% | Momentum: -10.1%,31.9618,-95.2703
75803,Palestine,TX,225240,Estable,98.9,Crecimiento24: 4.9% | Crecimiento25: 2.7% | Vacancia: 5.4% | Momentum: -10.0%,31.7571,-95.6545
75080,Richardson,TX,447254,Estable,98.8,Crecimiento24: 4.0% | Crecimiento25: 2.3% | Vacancia: 2.4% | Momentum: -9.5%,32.966,-96.7452
79108,Amarillo,TX,192574,Estable,98.8,Crecimiento24: 2.8% | Crecimiento25: 3.7% | Vacancia: 6.6% | Momentum: -8.2%,35.2779,-101.83
77461,Needville,TX,351533,Estable,98.8,Crecimiento24: 2.6% | Crecimiento25: 4.2% | Vacancia: 2.2% | Momentum: -7.0%,29.4117,-95.8273
77840,College Station,TX,276706,Estable,98.7,Crecimiento24: 5.8% | Crecimiento25: 2.0% | Vacancia: 6.6% | Momentum: -5.9%,30.6045,-96.3123
75019,Coppell,TX,625542,Estable,98.7,Crecimiento24: 3.6% | Crecimiento25: 4.3% | Vacancia: 1.0% | Momentum: -12.0%,32.9673,-96.9805
77043,Houston,TX,396607,Estable,98.7,Crecimiento24: 3.4% | Crecimiento25: 1.8% | Vacancia: 3.6% | Momentum: -7.2%,29.8052,-95.5607
78566,Los Fresnos,TX,215663,Estable,98.7,Crecimiento24: 4.2% | Crecimiento25: 4.0% | Vacancia: 4.3% | Momentum: -8.5%,26.1158,-97.4107
75965,Nacogdoches,TX,266213,Estable,98.7,Crecimiento24: 3.2% | Crecimiento25: 2.2% | Vacancia: 4.6% | Momentum: -9.4%,31.7195,-94.6168
78552,Harlingen,TX,220715,Estable,98.6,Crecimiento24: 4.1% | Crecimiento25: 2.1% | Vacancia: 5.8% | Momentum: -11.0%,26.1831,-97.7468
77401,Bellaire,TX,1090748,Estable,98.6,Crecimiento24: 5.9% | Crecimiento25: 5.8% | Vacancia: 3.0% | Momentum: -1.5%,29.7023,-95.4611
79536,Merkel,TX,178686,Estable,98.6,Crecimiento24: 1.1% | Crecimiento25: 5.1% | Vacancia: 5.5% | Momentum: -8.8%,32.4444,-99.9924
75423,Celeste,TX,368113,Estable,98.6,Crecimiento24: 2.9% | Crecimiento25: 3.3% | Vacancia: 4.6% | Momentum: -11.4%,33.2649,-96.2076
76270,Alvord,TX,495627,Estable,98.6,Crecimiento24: 7.3% | Crecimiento25: 5.9% | Vacancia: 7.4% | Momentum: -6.6%,33.4539,-97.7709
79107,Amarillo,TX,104077,Estable,98.5,Crecimiento24: 4.2% | Crecimiento25: 3.9% | Vacancia: 6.0% | Momentum: -9.7%,35.2309,-101.806
78599,Weslaco,TX,183189,Estable,98.5,Crecimiento24: 12.1% | Crecimiento25: 2.3% | Vacancia: 2.0% | Momentum: -6.8%,26.1595,-97.9908
76401,Stephenville,TX,316513,Estable,98.5,Crecimiento24: 2.9% | Crecimiento25: 4.2% | Vacancia: 4.9% | Momentum: -13.7%,32.2214,-98.2224
79106,Amarillo,TX,160237,Estable,98.5,Crecimiento24: 3.0% | Crecimiento25: 1.5% | Vacancia: 6.3% | Momentum: -10.1%,35.1977,-101.8949
77025,Houston,TX,477646,Estable,98.5,Crecimiento24: 2.5% | Crecimiento25: 0.9% | Vacancia: 4.9% | Momentum: -3.0%,29.6889,-95.4341
77382,Spring,TX,573880,Estable,98.4,Crecimiento24: 5.3% | Crecimiento25: 4.6% | Vacancia: 1.0% | Momentum: -10.3%,30.2106,-95.5257
76092,Southlake,TX,1237817,Estable,98.4,Crecimiento24: 3.8% | Crecimiento25: 5.6% | Vacancia: 1.4% | Momentum: -15.6%,32.9485,-97.1524
77904,Victoria,TX,274274,Estable,98.4,Crecimiento24: 2.0% | Crecimiento25: 2.2% | Vacancia: 3.6% | Momentum: -8.2%,28.8675,-96.999
79835,,TX,207031,Estable,98.4,Crecimiento24: 7.3% | Crecimiento25: 1.6% | Vacancia: 3.8% | Momentum: -9.5%,31.9344,-106.5929
75061,Irving,TX,305747,Estable,98.3,Crecimiento24: 3.1% | Crecimiento25: 1.2% | Vacancia: 2.4% | Momentum: -11.2%,32.8267,-96.9633
79907,El Paso,TX,169290,Estable,98.3,Crecimiento24: 7.1% | Crecimiento25: 4.5% | Vacancia: 2.6% | Momentum: -7.0%,31.7089,-106.3293
79927,Socorro,TX,194563,Estable,98.3,Crecimiento24: 6.2% | Crecimiento25: 3.3% | Vacancia: 1.7% | Momentum: -9.8%,31.6446,-106.2737
75701,Tyler,TX,224079,Estable,98.3,Crecimiento24: 5.8% | Crecimiento25: 1.2% | Vacancia: 6.5% | Momentum: -10.8%,32.3254,-95.2922
79932,El Paso,TX,313404,Estable,98.3,Crecimiento24: 4.5% | Crecimiento25: 2.7% | Vacancia: 2.5% | Momentum: -11.3%,31.8623,-106.5932
79110,Amarillo,TX,165127,Estable,98.3,Crecimiento24: 4.0% | Crecimiento25: 1.9% | Vacancia: 4.5% | Momentum: -9.2%,35.1545,-101.8641
76306,Wichita Falls,TX,138687,Estable,98.3,Crecimiento24: 2.7% | Crecimiento25: 4.0% | Vacancia: 7.2% | Momentum: -12.4%,33.9519,-98.5145
76462,Lipan,TX,490655,Estable,98.3,Crecimiento24: 5.7% | Crecimiento25: 4.7% | Vacancia: 2.8% | Momentum: -9.0%,32.5072,-97.9536
76225,Alvord,TX,362802,Estable,98.3,Crecimiento24: 2.8% | Crecimiento25: 3.7% | Vacancia: 3.1% | Momentum: -9.2%,33.3698,-97.6885
77845,College Station,TX,362338,Estable,98.2,Crecimiento24: 3.7% | Crecimiento25: 1.5% | Vacancia: 3.5% | Momentum: -6.3%,30.5118,-96.3171
77380,Spring,TX,379260,Estable,98.2,Crecimiento24: 3.9% | Crecimiento25: 1.7% | Vacancia: 4.0% | Momentum: -12.4%,30.1441,-95.4703
77802,Bryan,TX,277656,Estable,98.2,Crecimiento24: 5.3% | Crecimiento25: 2.1% | Vacancia: 3.7% | Momentum: -4.5%,30.6582,-96.3351
75707,Tyler,TX,307363,Estable,98.2,Crecimiento24: 4.2% | Crecimiento25: 0.9% | Vacancia: 6.0% | Momentum: -10.9%,32.3038,-95.1927
76305,,TX,240146,Estable,98.2,Crecimiento24: 3.0% | Crecimiento25: 3.8% | Vacancia: 6.5% | Momentum: -6.4%,33.9995,-98.3938
75038,Irving,TX,448832,Estable,98.1,Crecimiento24: 2.7% | Crecimiento25: 1.6% | Vacancia: 3.7% | Momentum: -12.7%,32.8653,-96.9905
79603,Abilene,TX,132546,Estable,98.1,Crecimiento24: 5.9% | Crecimiento25: 1.0% | Vacancia: 4.7% | Momentum: -6.5%,32.4679,-99.7619
77094,Houston,TX,564573,Estable,98.1,Crecimiento24: 3.7% | Crecimiento25: 5.0% | Vacancia: 1.5% | Momentum: -6.7%,29.7705,-95.7107
76272,,TX,471501,Estable,98.1,Crecimiento24: 1.8% | Crecimiento25: 6.9% | Vacancia: 5.2% | Momentum: -8.1%,33.5022,-97.2311
75225,University Park,TX,1895046,Estable,98.0,Crecimiento24: 8.1% | Crecimiento25: 8.4% | Vacancia: 3.5% | Momentum: -9.3%,32.8628,-96.7918
75662,Kilgore,TX,209372,Estable,97.9,Crecimiento24: 2.4% | Crecimiento25: 4.1% | Vacancia: 5.1% | Momentum: -6.5%,32.3836,-94.8653
79905,El Paso,TX,150505,Estable,97.9,Crecimiento24: 7.7% | Crecimiento25: 9.3% | Vacancia: 5.6% | Momentum: -2.5%,31.7674,-106.4304
76308,Wichita Falls,TX,214517,Estable,97.9,Crecimiento24: 2.2% | Crecimiento25: 3.8% | Vacancia: 4.7% | Momentum: -9.6%,33.8633,-98.534
75252,Dallas,TX,621524,Estable,97.8,Crecimiento24: 5.0% | Crecimiento25: 1.2% | Vacancia: 4.8% | Momentum: -12.1%,32.9968,-96.7921
75601,Longview,TX,203949,Estable,97.8,Crecimiento24: 2.6% | Crecimiento25: 3.2% | Vacancia: 4.9% | Momentum: -7.9%,32.5178,-94.7303
76302,Wichita Falls,TX,181896,Estable,97.8,Crecimiento24: 4.2% | Crecimiento25: 2.9% | Vacancia: 2.4% | Momentum: -9.9%,33.8643,-98.494
75035,Frisco,TX,678705,Estable,97.7,Crecimiento24: 3.3% | Crecimiento25: 1.7% | Vacancia: 1.3% | Momentum: -19.3%,33.1377,-96.7524
75063,Irving,TX,618090,Estable,97.7,Crecimiento24: 3.9% | Crecimiento25: 2.6% | Vacancia: 2.4% | Momentum: -13.2%,32.9247,-96.9598
78009,Castroville,TX,456497,Estable,97.7,Crecimiento24: 0.4% | Crecimiento25: 4.3% | Vacancia: 3.9% | Momentum: -7.9%,29.3553,-98.8824
77801,Bryan,TX,216563,Estable,97.6,Crecimiento24: 4.4% | Crecimiento25: 2.2% | Vacancia: 7.7% | Momentum: -6.5%,30.6327,-96.3662
76904,San Angelo,TX,320073,Estable,97.5,Crecimiento24: 2.8% | Crecimiento25: 2.8% | Vacancia: 4.0% | Momentum: -7.3%,31.4194,-100.48
77535,Dayton,TX,311479,Estable,97.5,Crecimiento24: 2.9% | Crecimiento25: 2.0% | Vacancia: 3.2% | Momentum: -6.8%,30.0102,-94.8787
77441,Fulshear,TX,544808,Estable,97.5,Crecimiento24: 2.4% | Crecimiento25: 2.5% | Vacancia: 1.5% | Momentum: -13.5%,29.7217,-95.8977
78575,Rancho Viejo,TX,276391,Estable,97.5,Crecimiento24: 2.4% | Crecimiento25: 3.3% | Vacancia: 4.4% | Momentum: -12.3%,26.0353,-97.5496
77872,North Zulch,TX,343732,Estable,97.5,Crecimiento24: 4.6% | Crecimiento25: 4.8% | Vacancia: 8.3% | Momentum: -12.3%,30.9285,-96.0925
75791,Whitehouse,TX,286901,Estable,97.4,Crecimiento24: 4.5% | Crecimiento25: 1.8% | Vacancia: 4.1% | Momentum: -10.8%,32.222,-95.2266
77363,,TX,326802,Estable,97.4,Crecimiento24: 0.8% | Crecimiento25: 3.7% | Vacancia: 5.6% | Momentum: -9.5%,30.2969,-95.8498
76648,Hubbard,TX,205062,Estable,97.4,Crecimiento24: 4.8% | Crecimiento25: 6.8% | Vacancia: 9.8% | Momentum: -5.0%,31.8436,-96.8
77494,Katy,TX,496242,Estable,97.3,Crecimiento24: 3.2% | Crecimiento25: 2.6% | Vacancia: 1.4% | Momentum: -14.0%,29.7404,-95.8304
78520,Brownsville,TX,183246,Estable,97.3,Crecimiento24: 7.2% | Crecimiento25: 1.4% | Vacancia: 4.0% | Momentum: -10.6%,25.9337,-97.5174
77478,Sugar Land,TX,429495,Estable,97.3,Crecimiento24: 4.0% | Crecimiento25: 2.9% | Vacancia: 1.2% | Momentum: -8.6%,29.6196,-95.607
75058,Gunter,TX,679207,Estable,97.3,Crecimiento24: 4.1% | Crecimiento25: 4.7% | Vacancia: 3.7% | Momentum: -14.4%,33.4495,-96.7341
75762,Flint,TX,308351,Estable,97.1,Crecimiento24: 3.2% | Crecimiento25: 1.0% | Vacancia: 6.3% | Momentum: -11.7%,32.2079,-95.3948
76271,Tioga,TX,399237,Estable,97.1,Crecimiento24: 1.9% | Crecimiento25: 3.1% | Vacancia: 2.0% | Momentum: -14.1%,33.4675,-96.9097
79601,Abilene,TX,187130,Estable,96.9,Crecimiento24: 2.1% | Crecimiento25: 2.7% | Vacancia: 6.0% | Momentum: -7.9%,32.4682,-99.7182
79103,Amarillo,TX,148030,Estable,96.9,Crecimiento24: 6.1% | Crecimiento25: 1.6% | Vacancia: 1.5% | Momentum: -8.6%,35.1751,-101.7976
78521,Brownsville,TX,166307,Estable,96.9,Crecimiento24: 7.3% | Crecimiento25: 4.9% | Vacancia: 2.4% | Momentum: -8.7%,25.9221,-97.4612
75650,Hallsville,TX,290658,Estable,96.8,Crecimiento24: 2.1% | Crecimiento25: 2.1% | Vacancia: 5.6% | Momentum: -6.9%,32.5073,-94.5333
76050,Grandview,TX,407592,Estable,96.8,Crecimiento24: 3.5% | Crecimiento25: 2.6% | Vacancia: 3.3% | Momentum: -12.1%,32.2704,-97.1792
79838,Fabens,TX,143464,Estable,96.7,Crecimiento24: 4.4% | Crecimiento25: 2.2% | Vacancia: 8.0% | Momentum: -6.0%,31.4745,-106.1589
75479,Savoy,TX,295012,Estable,96.7,Crecimiento24: 0.3% | Crecimiento25: 4.6% | Vacancia: 5.7% | Momentum: -10.5%,33.6066,-96.3502
75602,Longview,TX,129830,Estable,96.5,Crecimiento24: 1.2% | Crecimiento25: 4.5% | Vacancia: 6.3% | Momentum: -3.8%,32.4724,-94.7101
78559,La Feria,TX,172699,Estable,96.5,Crecimiento24: 3.0% | Crecimiento25: 1.8% | Vacancia: 7.7% | Momentum: -8.4%,26.1666,-97.8261
78572,Mission,TX,193424,Estable,96.4,Crecimiento24: 5.1% | Crecimiento25: 1.9% | Vacancia: 7.8% | Momentum: -10.5%,26.2159,-98.3253
78941,Flatonia,TX,444023,Estable,96.4,Crecimiento24: 1.5% | Crecimiento25: 5.6% | Vacancia: 13.6% | Momentum: -7.6%,29.7095,-97.0987
78560,La Joya,TX,156762,Estable,96.3,Crecimiento24: 7.1% | Crecimiento25: 3.1% | Vacancia: 7.3% | Momentum: -8.8%,26.2426,-98.4747
78947,Lexington,TX,404810,Estable,96.2,Crecimiento24: 1.1% | Crecimiento25: 3.8% | Vacancia: 5.5% | Momentum: -9.7%,30.4191,-97.0524
76239,Forestburg,TX,490222,Estable,96.1,Crecimiento24: 7.4% | Crecimiento25: 6.4% | Vacancia: 9.7% | Momentum: -6.8%,33.5398,-97.5848
75789,Troup,TX,282481,Estable,96.1,Crecimiento24: 2.2% | Crecimiento25: 2.1% | Vacancia: 3.9% | Momentum: -11.2%,32.1117,-95.1155
78593,Santa Rosa,TX,149207,Estable,96.1,Crecimiento24: 4.4% | Crecimiento25: 5.2% | Vacancia: 3.5% | Momentum: -4.4%,26.2555,-97.8257
77059,Houston,TX,467974,Estable,96.0,Crecimiento24: 2.3% | Crecimiento25: 2.2% | Vacancia: 0.9% | Momentum: -9.1%,29.5975,-95.1134
77426,Chappell Hill,TX,603350,Estable,96.0,Crecimiento24: 0.8% | Crecimiento25: 5.9% | Vacancia: 4.6% | Momentum: -11.4%,30.1833,-96.2347
75422,Campbell,TX,364941,Estable,95.8,Crecimiento24: 4.5% | Crecimiento25: 2.5% | Vacancia: 5.0% | Momentum: -11.9%,33.151,-95.9439
76905,San Angelo,TX,238942,Estable,95.7,Crecimiento24: 3.5% | Crecimiento25: 5.2% | Vacancia: 4.0% | Momentum: -6.0%,31.4647,-100.39
75287,Dallas,TX,483348,Estable,95.6,Crecimiento24: 3.1% | Crecimiento25: 0.7% | Vacancia: 4.8% | Momentum: -12.7%,33.0005,-96.8314
77035,Houston,TX,268788,Estable,95.5,Crecimiento24: 2.5% | Crecimiento25: 0.9% | Vacancia: 4.8% | Momentum: -7.1%,29.6518,-95.4854
76309,Wichita Falls,TX,130173,Estable,95.5,Crecimiento24: 4.9% | Crecimiento25: 1.8% | Vacancia: 7.2% | Momentum: -8.9%,33.8931,-98.5343
75028,Flower Mound,TX,547069,Estable,95.4,Crecimiento24: 2.4% | Crecimiento25: 1.7% | Vacancia: 0.8% | Momentum: -14.0%,33.0383,-97.0745
79045,Hereford,TX,172327,Estable,95.4,Crecimiento24: 1.4% | Crecimiento25: 5.6% | Vacancia: 5.9% | Momentum: -4.9%,34.837,-102.405
78596,Weslaco,TX,164283,Estable,95.3,Crecimiento24: 11.7% | Crecimiento25: 1.2% | Vacancia: 9.5% | Momentum: -6.3%,26.1694,-97.9887
78257,San Antonio,TX,875072,Estable,95.3,Crecimiento24: 4.1% | Crecimiento25: 1.4% | Vacancia: 10.1% | Momentum: -12.6%,29.6495,-98.6137
78537,Donna,TX,141667,Estable,95.2,Crecimiento24: 11.1% | Crecimiento25: 1.2% | Vacancia: 5.2% | Momentum: -8.2%,26.1671,-98.0529
75206,Dallas,TX,586385,Estable,95.2,Crecimiento24: 3.0% | Crecimiento25: 1.0% | Vacancia: 8.5% | Momentum: -9.5%,32.831,-96.7692
75056,The Colony,TX,512759,Estable,95.1,Crecimiento24: 2.7% | Crecimiento25: 1.8% | Vacancia: 2.0% | Momentum: -15.3%,33.094,-96.8836
77504,Pasadena,TX,266957,Estable,95.1,Crecimiento24: 2.0% | Crecimiento25: 2.1% | Vacancia: 3.9% | Momentum: -8.1%,29.6501,-95.1885
79347,Muleshoe,TX,142615,Estable,95.1,Crecimiento24: 3.6% | Crecimiento25: 5.5% | Vacancia: 7.5% | Momentum: -1.2%,34.2193,-102.7496
77430,Damon,TX,360242,Estable,95.1,Crecimiento24: 0.6% | Crecimiento25: 4.9% | Vacancia: 2.7% | Momentum: -7.4%,29.3014,-95.7036
78577,Pharr,TX,165475,Estable,95.0,Crecimiento24: 8.8% | Crecimiento25: 1.0% | Vacancia: 4.1% | Momentum: -9.3%,26.1771,-98.187
79938,El Paso,TX,245663,Estable,94.7,Crecimiento24: 3.1% | Crecimiento25: 0.9% | Vacancia: 1.2% | Momentum: -13.0%,31.8045,-105.9661
78538,Edcouch,TX,144396,Estable,94.6,Crecimiento24: 17.9% | Crecimiento25: 3.8% | Vacancia: 4.2% | Momentum: -2.9%,26.3328,-97.9622
75497,Yantis,TX,375520,Estable,94.6,Crecimiento24: 0.5% | Crecimiento25: 4.2% | Vacancia: 8.4% | Momentum: -12.7%,32.9257,-95.5311
77968,Inez,TX,369165,Estable,94.6,Crecimiento24: 2.8% | Crecimiento25: 2.6% | Vacancia: 4.6% | Momentum: -4.8%,28.8994,-96.8003
77450,Katy,TX,386245,Estable,94.5,Crecimiento24: 1.8% | Crecimiento25: 2.4% | Vacancia: 1.3% | Momentum: -13.5%,29.745,-95.7326
75672,Marshall,TX,207456,Estable,94.4,Crecimiento24: 2.3% | Crecimiento25: 4.3% | Vacancia: 5.9% | Momentum: -2.7%,32.5165,-94.3251
77024,Houston,TX,1252713,Estable,94.3,Crecimiento24: 4.7% | Crecimiento25: 8.6% | Vacancia: 6.6% | Momentum: -1.1%,29.7696,-95.5201
77517,,TX,381284,Estable,94.3,Crecimiento24: 1.1% | Crecimiento25: 3.1% | Vacancia: 1.8% | Momentum: -8.6%,29.3673,-95.1361
76252,Muenster,TX,334740,Estable,94.3,Crecimiento24: 0.2% | Crecimiento25: 6.6% | Vacancia: 3.9% | Momentum: -7.3%,33.6595,-97.3624
76433,Bluff Dale,TX,479537,Estable,94.3,Crecimiento24: 1.4% | Crecimiento25: 3.5% | Vacancia: 3.7% | Momentum: -15.0%,32.2884,-98.0539
75013,Allen,TX,686939,Estable,94.2,Crecimiento24: 2.3% | Crecimiento25: 1.3% | Vacancia: 2.1% | Momentum: -18.8%,33.1186,-96.6773
77080,Houston,TX,352720,Estable,94.2,Crecimiento24: 2.7% | Crecimiento25: 1.5% | Vacancia: 3.5% | Momentum: -7.1%,29.8159,-95.523
77008,Houston,TX,599169,Estable,94.2,Crecimiento24: 4.8% | Crecimiento25: 1.8% | Vacancia: 3.0% | Momentum: -2.8%,29.7991,-95.4118
79901,El Paso,TX,136445,Estable,94.2,Crecimiento24: 10.6% | Crecimiento25: 0.6% | Vacancia: 10.0% | Momentum: -4.2%,31.7584,-106.4783
76450,Graham,TX,208931,Estable,94.1,Crecimiento24: 2.8% | Crecimiento25: 2.2% | Vacancia: 5.6% | Momentum: -14.3%,33.0993,-98.5832
75424,,TX,473288,Estable,94.1,Crecimiento24: 1.9% | Crecimiento25: 4.0% | Vacancia: 2.5% | Momentum: -14.4%,33.3061,-96.3901
75230,Dallas,TX,989998,Estable,94.0,Crecimiento24: 3.4% | Crecimiento25: 5.9% | Vacancia: 6.0% | Momentum: -11.7%,32.8999,-96.7897
75082,Richardson,TX,569470,Estable,93.9,Crecimiento24: 2.7% | Crecimiento25: 1.0% | Vacancia: 1.7% | Momentum: -14.7%,32.9865,-96.686
76689,Valley Mills,TX,321743,Estable,93.9,Crecimiento24: 1.6% | Crecimiento25: 5.1% | Vacancia: 5.7% | Momentum: -11.8%,31.6599,-97.4935
75078,Prosper,TX,793477,Estable,93.8,Crecimiento24: 2.2% | Crecimiento25: 1.2% | Vacancia: 1.6% | Momentum: -22.1%,33.2362,-96.7954
78209,San Antonio,TX,470514,Estable,93.8,Crecimiento24: 3.4% | Crecimiento25: 0.5% | Vacancia: 7.2% | Momentum: -6.4%,29.4821,-98.4554
75182,Sunnyvale,TX,641599,Estable,93.8,Crecimiento24: 2.6% | Crecimiento25: 1.3% | Vacancia: 0.8% | Momentum: -14.4%,32.797,-96.5616
78940,Fayetteville,TX,613251,Estable,93.8,Crecimiento24: 3.1% | Crecimiento25: 4.1% | Vacancia: 14.7% | Momentum: -5.3%,29.8868,-96.6463
77486,West Columbia,TX,257059,Estable,93.7,Crecimiento24: 2.1% | Crecimiento25: 1.2% | Vacancia: 5.0% | Momentum: -6.0%,29.1408,-95.6694
76233,Collinsville,TX,386764,Estable,93.7,Crecimiento24: 1.9% | Crecimiento25: 3.1% | Vacancia: 0.9% | Momentum: -12.5%,33.558,-96.9014
78840,Del Rio,TX,214809,Estable,93.5,Crecimiento24: 2.3% | Crecimiento25: 4.7% | Vacancia: 4.0% | Momentum: -5.1%,29.4102,-100.8932
77477,Stafford,TX,285598,Estable,93.5,Crecimiento24: 2.6% | Crecimiento25: 1.0% | Vacancia: 3.0% | Momentum: -10.5%,29.6228,-95.5678
76457,Hico,TX,346115,Estable,93.5,Crecimiento24: 2.0% | Crecimiento25: 6.6% | Vacancia: 8.8% | Momentum: -10.5%,31.9597,-98.0249
76054,Hurst,TX,413788,Estable,93.4,Crecimiento24: 2.3% | Crecimiento25: 1.4% | Vacancia: 1.5% | Momentum: -12.1%,32.8558,-97.1755
76102,Fort Worth,TX,288265,Estable,93.4,Crecimiento24: 1.1% | Crecimiento25: 3.3% | Vacancia: 8.0% | Momentum: -7.7%,32.7589,-97.328
77864,Madisonville,TX,234532,Estable,93.3,Crecimiento24: 0.9% | Crecimiento25: 3.7% | Vacancia: 7.4% | Momentum: -14.2%,30.9533,-95.9091
79562,Tuscola,TX,367816,Estable,93.3,Crecimiento24: 1.8% | Crecimiento25: 2.6% | Vacancia: 1.4% | Momentum: -8.7%,32.235,-99.8244
75024,Plano,TX,657246,Estable,93.0,Crecimiento24: 2.8% | Crecimiento25: 1.9% | Vacancia: 3.5% | Momentum: -15.9%,33.0752,-96.7843
75605,Longview,TX,280483,Estable,93.0,Crecimiento24: 1.2% | Crecimiento25: 3.0% | Vacancia: 4.1% | Momentum: -9.0%,32.5547,-94.7767
77807,Bryan,TX,289664,Estable,93.0,Crecimiento24: 2.6% | Crecimiento25: 0.8% | Vacancia: 6.5% | Momentum: -6.4%,30.6711,-96.4799
76021,Bedford,TX,400768,Estable,92.9,Crecimiento24: 2.3% | Crecimiento25: 1.2% | Vacancia: 1.3% | Momentum: -12.3%,32.8536,-97.1358
77575,Liberty,TX,217507,Estable,92.9,Crecimiento24: 2.6% | Crecimiento25: 1.3% | Vacancia: 6.3% | Momentum: -6.2%,30.0946,-94.7378
75640,Diana,TX,283950,Estable,92.8,Crecimiento24: 0.8% | Crecimiento25: 4.4% | Vacancia: 1.9% | Momentum: -8.8%,32.7698,-94.7032
78956,Schulenburg,TX,377489,Estable,92.7,Crecimiento24: 0.5% | Crecimiento25: 3.8% | Vacancia: 12.6% | Momentum: -5.2%,29.6882,-96.9106
77005,Houston,TX,1596719,Estable,92.6,Crecimiento24: 4.3% | Crecimiento25: 8.1% | Vacancia: 2.2% | Momentum: -1.1%,29.7179,-95.4263
77659,Sour Lake,TX,262409,Estable,92.5,Crecimiento24: 0.9% | Crecimiento25: 3.6% | Vacancia: 4.4% | Momentum: -4.8%,30.1491,-94.3733
75472,,TX,259294,Estable,92.5,Crecimiento24: 1.1% | Crecimiento25: 4.2% | Vacancia: 10.4% | Momentum: -11.5%,32.9007,-95.8903
76638,Crawford,TX,488071,Estable,92.5,Crecimiento24: 2.2% | Crecimiento25: 1.9% | Vacancia: 2.4% | Momentum: -14.0%,31.5598,-97.39
76636,Covington,TX,365050,Estable,92.4,Crecimiento24: 3.0% | Crecimiento25: 6.2% | Vacancia: 2.8% | Momentum: -9.4%,32.1595,-97.2591
78056,Mico,TX,561253,Estable,92.2,Crecimiento24: -0.0% | Crecimiento25: 4.9% | Vacancia: 7.3% | Momentum: -11.3%,29.5441,-98.9231
79853,Tornillo,TX,163590,Estable,92.2,Crecimiento24: 4.9% | Crecimiento25: 0.9% | Vacancia: 2.4% | Momentum: -7.1%,31.4407,-106.0765
79508,Buffalo Gap,TX,233418,Estable,92.1,Crecimiento24: 2.9% | Crecimiento25: 2.6% | Vacancia: 5.0% | Momentum: -5.7%,32.2894,-99.8103
76240,Gainesville,TX,280391,Estable,92.1,Crecimiento24: 0.1% | Crecimiento25: 4.4% | Vacancia: 3.5% | Momentum: -11.3%,33.6547,-97.1583
76890,Zephyr,TX,375119,Estable,92.0,Crecimiento24: 0.4% | Crecimiento25: 6.8% | Vacancia: 9.1% | Momentum: -10.6%,31.6694,-98.8182
76088,Weatherford,TX,451747,Estable,92.0,Crecimiento24: 1.4% | Crecimiento25: 2.9% | Vacancia: 1.3% | Momentum: -10.5%,32.8478,-97.8606
76626,Blooming Grove,TX,242223,Estable,92.0,Crecimiento24: 2.8% | Crecimiento25: 8.6% | Vacancia: 11.6% | Momentum: -6.4%,32.0758,-96.701
76310,Wichita Falls,TX,243776,Estable,91.9,Crecimiento24: 1.2% | Crecimiento25: 3.1% | Vacancia: 3.2% | Momentum: -10.7%,33.8581,-98.5755
77566,Lake Jackson,TX,268617,Estable,91.8,Crecimiento24: 2.0% | Crecimiento25: 1.6% | Vacancia: 2.8% | Momentum: -5.4%,29.0393,-95.4401
75077,Highland Village,TX,499295,Estable,91.6,Crecimiento24: 2.1% | Crecimiento25: 1.7% | Vacancia: 1.0% | Momentum: -13.6%,33.0775,-97.0704
77905,Victoria,TX,258852,Estable,91.6,Crecimiento24: 1.6% | Crecimiento25: 2.5% | Vacancia: 4.7% | Momentum: -5.9%,28.7525,-97.0338
77498,Sugar Land,TX,329809,Estable,91.5,Crecimiento24: 2.2% | Crecimiento25: 0.9% | Vacancia: 2.3% | Momentum: -13.3%,29.6396,-95.65
75783,Quitman,TX,249045,Estable,91.3,Crecimiento24: 0.3% | Crecimiento25: 4.6% | Vacancia: 8.7% | Momentum: -11.1%,32.8049,-95.4302
76823,Bangs,TX,176314,Estable,91.3,Crecimiento24: 0.9% | Crecimiento25: 3.0% | Vacancia: 7.9% | Momentum: -11.8%,31.7503,-99.1568
75447,Ivanhoe,TX,377375,Estable,91.2,Crecimiento24: 0.5% | Crecimiento25: 3.5% | Vacancia: 3.3% | Momentum: -13.9%,33.7612,-96.1193
76627,Blum,TX,304922,Estable,91.1,Crecimiento24: 7.2% | Crecimiento25: 7.1% | Vacancia: 9.1% | Momentum: -4.1%,32.1052,-97.3652
75201,Dallas,TX,953673,Estable,91.0,Crecimiento24: 0.4% | Crecimiento25: 4.0% | Vacancia: 8.7% | Momentum: -7.3%,32.7904,-96.8044
76802,Early,TX,243729,Estable,90.6,Crecimiento24: -0.4% | Crecimiento25: 5.1% | Vacancia: 7.2% | Momentum: -9.9%,31.7874,-98.9229
77074,Houston,TX,224487,Estable,90.5,Crecimiento24: 3.1% | Crecimiento25: 0.7% | Vacancia: 6.2% | Momentum: -10.7%,29.6896,-95.5106
78543,Elsa,TX,118727,Estable,90.5,Crecimiento24: 18.3% | Crecimiento25: 5.2% | Vacancia: 2.9% | Momentum: -4.5%,26.2974,-97.9884
78013,Comfort,TX,557378,Estable,90.1,Crecimiento24: 1.7% | Crecimiento25: 2.9% | Vacancia: 8.4% | Momentum: -9.7%,29.9677,-98.905
79101,Amarillo,TX,108735,Estable,90.0,Crecimiento24: 2.4% | Crecimiento25: 3.4% | Vacancia: 7.2% | Momentum: -9.6%,35.2032,-101.8421
79119,Amarillo,TX,374047,Estable,89.9,Crecimiento24: 2.0% | Crecimiento25: 1.5% | Vacancia: 2.6% | Momentum: -9.8%,35.0642,-101.9743
75703,Tyler,TX,346989,Estable,89.5,Crecimiento24: 3.3% | Crecimiento25: 0.5% | Vacancia: 6.3% | Momentum: -11.3%,32.2768,-95.3031
75964,Nacogdoches,TX,197712,Estable,89.5,Crecimiento24: 4.3% | Crecimiento25: 0.6% | Vacancia: 3.6% | Momentum: -6.7%,31.6737,-94.6932
75771,Lindale,TX,310478,Estable,89.3,Crecimiento24: 2.7% | Crecimiento25: 0.6% | Vacancia: 7.7% | Momentum: -12.9%,32.5062,-95.4006
78589,San Juan,TX,178654,Estable,89.2,Crecimiento24: 8.9% | Crecimiento25: 0.6% | Vacancia: 2.5% | Momentum: -9.8%,26.2044,-98.1537
76624,,TX,345398,Estable,89.1,Crecimiento24: 0.0% | Crecimiento25: 4.2% | Vacancia: 4.9% | Momentum: -13.9%,31.661,-96.9882
75757,Bullard,TX,370883,Estable,89.0,Crecimiento24: 1.8% | Crecimiento25: 1.7% | Vacancia: 5.4% | Momentum: -12.5%,32.1095,-95.3342
75033,Frisco,TX,686936,Estable,88.7,Crecimiento24: 1.8% | Crecimiento25: 1.7% | Vacancia: 1.8% | Momentum: -19.7%,33.2559,-96.8853
75025,Plano,TX,578097,Estable,88.4,Crecimiento24: 3.0% | Crecimiento25: 1.1% | Vacancia: 1.1% | Momentum: -16.6%,33.0784,-96.7291
75034,Frisco,TX,697359,Estable,88.4,Crecimiento24: 2.8% | Crecimiento25: 0.8% | Vacancia: 3.2% | Momentum: -18.1%,33.1499,-96.8241
78215,San Antonio,TX,416744,Estable,88.3,Crecimiento24: 2.9% | Crecimiento25: 1.5% | Vacancia: 16.8% | Momentum: -5.9%,29.4413,-98.4793
78503,McAllen,TX,182468,Estable,88.2,Crecimiento24: 8.8% | Crecimiento25: 0.7% | Vacancia: 4.7% | Momentum: -9.8%,26.1771,-98.252
75706,Tyler,TX,258307,Estable,88.1,Crecimiento24: 2.7% | Crecimiento25: 0.7% | Vacancia: 9.3% | Momentum: -11.5%,32.4441,-95.331
77389,Spring,TX,502035,Estable,88.0,Crecimiento24: 0.5% | Crecimiento25: 3.7% | Vacancia: 1.2% | Momentum: -12.6%,30.1044,-95.5066
76039,Euless,TX,366449,Estable,87.9,Crecimiento24: 1.9% | Crecimiento25: 1.3% | Vacancia: 2.0% | Momentum: -12.5%,32.8582,-97.0832
75167,Waxahachie,TX,503112,Estable,87.9,Crecimiento24: 1.7% | Crecimiento25: 2.9% | Vacancia: 0.5% | Momentum: -13.0%,32.3773,-96.9162
79102,Amarillo,TX,149122,Estable,87.3,Crecimiento24: 1.5% | Crecimiento25: 2.9% | Vacancia: 6.2% | Momentum: -8.5%,35.1999,-101.8496
76901,,TX,214709,Estable,87.2,Crecimiento24: 2.4% | Crecimiento25: 2.6% | Vacancia: 4.6% | Momentum: -7.1%,31.4782,-100.4818
77077,Houston,TX,395626,Estable,87.1,Crecimiento24: 2.1% | Crecimiento25: 1.4% | Vacancia: 5.8% | Momentum: -7.3%,29.7477,-95.603
78248,San Antonio,TX,502763,Estable,86.9,Crecimiento24: 1.8% | Crecimiento25: 1.7% | Vacancia: 2.1% | Momentum: -11.5%,29.5894,-98.5201
78562,La Villa,TX,110644,Estable,86.9,Crecimiento24: 8.2% | Crecimiento25: 4.4% | Vacancia: 1.3% | Momentum: -10.0%,26.2999,-97.9247
77019,Houston,TX,692273,Estable,86.7,Crecimiento24: 2.5% | Crecimiento25: 1.7% | Vacancia: 6.5% | Momentum: -2.5%,29.7517,-95.4054
78586,San Benito,TX,152145,Estable,86.6,Crecimiento24: 0.6% | Crecimiento25: 5.1% | Vacancia: 3.1% | Momentum: -5.9%,26.1337,-97.6447
76801,Brownwood,TX,169156,Estable,86.4,Crecimiento24: -0.1% | Crecimiento25: 3.7% | Vacancia: 9.6% | Momentum: -7.5%,31.7754,-98.9915
78121,La Vernia,TX,494618,Estable,85.8,Crecimiento24: 0.7% | Crecimiento25: 3.1% | Vacancia: 1.5% | Momentum: -11.4%,29.3509,-98.113
76692,Whitney,TX,221290,Estable,85.8,Crecimiento24: 2.5% | Crecimiento25: 2.9% | Vacancia: 13.0% | Momentum: -10.0%,31.9713,-97.3463
75173,,TX,378833,Estable,85.8,Crecimiento24: 1.8% | Crecimiento25: 1.2% | Vacancia: 3.3% | Momentum: -15.6%,33.0593,-96.3877
77007,Houston,TX,529546,Estable,85.7,Crecimiento24: 2.8% | Crecimiento25: 0.3% | Vacancia: 4.9% | Momentum: -5.1%,29.7736,-95.4034
78933,Cat Spring,TX,632904,Estable,85.7,Crecimiento24: 1.8% | Crecimiento25: 5.5% | Vacancia: 12.1% | Momentum: -4.5%,29.7512,-96.39
76064,Maypearl,TX,365883,Estable,85.7,Crecimiento24: 0.5% | Crecimiento25: 2.9% | Vacancia: 1.1% | Momentum: -11.2%,32.2993,-97.0271
77873,Richards,TX,424236,Estable,85.7,Crecimiento24: -0.2% | Crecimiento25: 6.4% | Vacancia: 15.5% | Momentum: -8.4%,30.5796,-95.8959
75007,Carrollton,TX,413312,Estable,85.6,Crecimiento24: 2.6% | Crecimiento25: 0.6% | Vacancia: 1.6% | Momentum: -13.4%,33.0033,-96.882
75773,Mineola,TX,273923,Estable,85.3,Crecimiento24: 0.1% | Crecimiento25: 3.5% | Vacancia: 4.1% | Momentum: -12.6%,32.6661,-95.487
75010,Carrollton,TX,545276,Estable,84.6,Crecimiento24: 2.3% | Crecimiento25: 1.1% | Vacancia: 3.4% | Momentum: -14.6%,33.0304,-96.8777
75752,Athens,TX,343462,Estable,84.5,Crecimiento24: -1.2% | Crecimiento25: 5.0% | Vacancia: 6.8% | Momentum: -10.4%,32.2151,-95.79
78595,Sullivan City,TX,125784,Estable,84.5,Crecimiento24: 13.7% | Crecimiento25: 1.9% | Vacancia: 3.2% | Momentum: -10.2%,26.272,-98.5627
75603,Longview,TX,229270,Estable,84.4,Crecimiento24: -0.4% | Crecimiento25: 4.2% | Vacancia: 5.5% | Momentum: -6.0%,32.4264,-94.7117
77534,Danbury,TX,271939,Estable,84.4,Crecimiento24: 1.0% | Crecimiento25: 2.8% | Vacancia: 5.3% | Momentum: -5.0%,29.2291,-95.3435
76234,Decatur,TX,431951,Estable,84.3,Crecimiento24: 0.6% | Crecimiento25: 2.7% | Vacancia: 3.8% | Momentum: -11.2%,33.2351,-97.574
75645,,TX,267333,Estable,84.2,Crecimiento24: 1.1% | Crecimiento25: 2.9% | Vacancia: 3.4% | Momentum: -11.1%,32.6044,-94.8491
78934,Columbus,TX,306995,Estable,84.2,Crecimiento24: 1.2% | Crecimiento25: 6.5% | Vacancia: 11.9% | Momentum: -4.9%,29.7032,-96.5527
78583,Rio Hondo,TX,194158,Estable,84.2,Crecimiento24: -0.1% | Crecimiento25: 3.7% | Vacancia: 14.3% | Momentum: -9.8%,26.2339,-97.5513
78663,Round Mountain,TX,879985,Estable,84.1,Crecimiento24: 5.3% | Crecimiento25: 0.5% | Vacancia: 5.4% | Momentum: -19.9%,30.4429,-98.4365
76673,Mount Calm,TX,271888,Estable,84.1,Crecimiento24: 3.0% | Crecimiento25: 6.3% | Vacancia: 9.3% | Momentum: -5.8%,31.7575,-96.8944
75949,Huntington,TX,208434,Estable,84.0,Crecimiento24: 0.3% | Crecimiento25: 3.9% | Vacancia: 7.1% | Momentum: -7.5%,31.2837,-94.5662
77474,Sealy,TX,378431,Estable,83.8,Crecimiento24: 0.7% | Crecimiento25: 2.6% | Vacancia: 4.0% | Momentum: -8.1%,29.7826,-96.1592
76856,Mason,TX,366017,Estable,83.5,Crecimiento24: 0.8% | Crecimiento25: 10.0% | Vacancia: 16.5% | Momentum: -8.6%,30.7434,-99.2261
77027,Houston,TX,784373,Estable,83.1,Crecimiento24: 2.2% | Crecimiento25: 3.6% | Vacancia: 9.9% | Momentum: -1.7%,29.7396,-95.446
75440,Emory,TX,311037,Estable,82.7,Crecimiento24: 0.8% | Crecimiento25: 3.0% | Vacancia: 8.1% | Momentum: -10.2%,32.875,-95.7418
75486,Sumner,TX,288554,Estable,82.5,Crecimiento24: -0.6% | Crecimiento25: 6.1% | Vacancia: 1.0% | Momentum: -11.6%,33.7589,-95.6807
79124,Amarillo,TX,372727,Estable,82.4,Crecimiento24: 1.7% | Crecimiento25: 2.2% | Vacancia: 2.4% | Momentum: -9.7%,35.2703,-101.943
76044,Godley,TX,441984,Estable,82.1,Crecimiento24: -0.1% | Crecimiento25: 3.6% | Vacancia: 1.8% | Momentum: -13.3%,32.4282,-97.5349
75704,Tyler,TX,249278,Estable,81.6,Crecimiento24: 4.0% | Crecimiento25: 0.3% | Vacancia: 12.0% | Momentum: -11.9%,32.3738,-95.407
75110,Corsicana,TX,190738,Estable,81.4,Crecimiento24: 0.5% | Crecimiento25: 4.5% | Vacancia: 4.7% | Momentum: -13.0%,32.0868,-96.4762
78549,Hargill,TX,94990,Estable,80.8,Crecimiento24: 9.5% | Crecimiento25: 3.0% | Vacancia: 8.2% | Momentum: -5.0%,26.4671,-98.0393
75414,Bells,TX,371061,Estable,80.6,Crecimiento24: 0.3% | Crecimiento25: 3.4% | Vacancia: 5.8% | Momentum: -15.3%,33.6178,-96.4237
76262,Roanoke,TX,623677,Estable,80.5,Crecimiento24: 1.5% | Crecimiento25: 2.0% | Vacancia: 1.5% | Momentum: -15.3%,33.0211,-97.2127
76073,Paradise,TX,464657,Estable,80.4,Crecimiento24: 2.1% | Crecimiento25: 0.9% | Vacancia: 2.5% | Momentum: -12.7%,33.0826,-97.6974
77098,Houston,TX,686203,Estable,79.9,Crecimiento24: 2.9% | Crecimiento25: 2.1% | Vacancia: 6.9% | Momentum: -2.0%,29.735,-95.4118
76935,Christoval,TX,449283,Estable,79.7,Crecimiento24: 0.9% | Crecimiento25: 10.9% | Vacancia: 12.5% | Momentum: -4.0%,31.2346,-100.5203
76442,Comanche,TX,204280,Estable,79.1,Crecimiento24: -1.5% | Crecimiento25: 5.0% | Vacancia: 10.2% | Momentum: -10.1%,31.9116,-98.6082
75763,,TX,263526,Estable,78.8,Crecimiento24: 0.3% | Crecimiento25: 3.0% | Vacancia: 7.9% | Momentum: -14.4%,32.0535,-95.5163
76903,San Angelo,TX,162026,Estable,78.7,Crecimiento24: -0.6% | Crecimiento25: 6.6% | Vacancia: 6.5% | Momentum: -4.2%,31.4707,-100.4386
78004,Bergheim,TX,691379,Estable,78.6,Crecimiento24: 1.8% | Crecimiento25: 4.9% | Vacancia: 0.0% | Momentum: -9.9%,29.8274,-98.5753
76043,Glen Rose,TX,388136,Estable,78.4,Crecimiento24: 0.5% | Crecimiento25: 2.8% | Vacancia: 3.3% | Momentum: -13.5%,32.2298,-97.7629
75075,Plano,TX,471794,Estable,78.2,Crecimiento24: 5.0% | Crecimiento25: -0.4% | Vacancia: 2.7% | Momentum: -12.6%,33.025,-96.7397
76248,Keller,TX,583865,Estable,78.0,Crecimiento24: 1.2% | Crecimiento25: 2.0% | Vacancia: 0.8% | Momentum: -14.5%,32.9276,-97.2489
77831,Bedias,TX,341517,Estable,77.8,Crecimiento24: -1.2% | Crecimiento25: 5.2% | Vacancia: 14.8% | Momentum: -12.1%,30.7065,-95.9546
75039,Irving,TX,642864,Estable,77.7,Crecimiento24: 1.1% | Crecimiento25: 3.1% | Vacancia: 6.6% | Momentum: -12.7%,32.8697,-96.9389
79343,Lorenzo,TX,102876,Estable,77.6,Crecimiento24: -1.8% | Crecimiento25: 6.2% | Vacancia: 7.6% | Momentum: 5.3%,33.6666,-101.5277
76273,Whitesboro,TX,352843,Estable,77.1,Crecimiento24: 0.1% | Crecimiento25: 5.1% | Vacancia: 1.4% | Momentum: -11.9%,33.659,-96.879
77665,Winnie,TX,244546,Estable,77.0,Crecimiento24: -1.0% | Crecimiento25: 5.1% | Vacancia: 4.5% | Momentum: -3.0%,29.8157,-94.3395
77056,Houston,TX,663475,Estable,76.7,Crecimiento24: 2.7% | Crecimiento25: 2.8% | Vacancia: 10.9% | Momentum: -1.4%,29.7446,-95.4683
75961,Nacogdoches,TX,196931,Estable,76.7,Crecimiento24: 4.7% | Crecimiento25: 0.5% | Vacancia: 8.6% | Momentum: -5.6%,31.5611,-94.5
75490,Trenton,TX,396497,Estable,76.4,Crecimiento24: 1.4% | Crecimiento25: 2.5% | Vacancia: 4.6% | Momentum: -16.1%,33.4235,-96.3398
75081,Richardson,TX,397764,Estable,75.8,Crecimiento24: 2.7% | Crecimiento25: 1.2% | Vacancia: 1.8% | Momentum: -12.2%,32.9462,-96.7058
77584,Pearland,TX,387180,Estable,75.7,Crecimiento24: 0.9% | Crecimiento25: 2.4% | Vacancia: 2.2% | Momentum: -11.7%,29.5405,-95.3208
77032,Houston,TX,192382,Estable,75.3,Crecimiento24: 2.0% | Crecimiento25: 1.2% | Vacancia: 3.3% | Momentum: -12.1%,29.9368,-95.3299
79765,Odessa,TX,322770,Estable,75.1,Crecimiento24: 1.8% | Crecimiento25: 3.2% | Vacancia: 1.7% | Momentum: 2.3%,31.9375,-102.3944
77030,Houston,TX,533016,Estable,75.1,Crecimiento24: 2.8% | Crecimiento25: 1.3% | Vacancia: 10.4% | Momentum: -2.6%,29.7041,-95.401
75438,Dodd City,TX,350094,Estable,75.1,Crecimiento24: -0.3% | Crecimiento25: 3.8% | Vacancia: 2.3% | Momentum: -15.1%,33.5647,-96.0619
78942,Giddings,TX,300521,Estable,75.0,Crecimiento24: -0.1% | Crecimiento25: 3.2% | Vacancia: 6.4% | Momentum: -8.1%,30.1777,-96.9332
77830,Anderson,TX,535366,Estable,74.7,Crecimiento24: -0.3% | Crecimiento25: 4.7% | Vacancia: 6.7% | Momentum: -10.7%,30.5443,-96.0018
79525,Hawley,TX,247813,Estable,74.0,Crecimiento24: 3.4% | Crecimiento25: -0.0% | Vacancia: 2.9% | Momentum: -7.9%,32.6423,-99.9239
75109,,TX,396811,Estable,73.9,Crecimiento24: -0.5% | Crecimiento25: 4.1% | Vacancia: 6.9% | Momentum: -14.8%,31.9937,-96.4199
79019,Claude,TX,218119,Estable,73.9,Crecimiento24: 0.5% | Crecimiento25: 2.6% | Vacancia: 6.9% | Momentum: -8.1%,35.0967,-101.3813
79714,Andrews,TX,234937,Estable,73.7,Crecimiento24: -1.3% | Crecimiento25: 5.3% | Vacancia: 1.5% | Momentum: 0.4%,32.3201,-102.5409
75709,Tyler,TX,282604,Estable,73.5,Crecimiento24: 3.4% | Crecimiento25: -0.2% | Vacancia: 17.1% | Momentum: -12.6%,32.3078,-95.3956
78408,Corpus Christi,TX,91094,Estable,73.4,Crecimiento24: 1.9% | Crecimiento25: 1.7% | Vacancia: 8.3% | Momentum: 5.4%,27.7945,-97.4381
75770,,TX,354669,Estable,73.1,Crecimiento24: -0.3% | Crecimiento25: 4.3% | Vacancia: 10.2% | Momentum: -11.0%,32.1608,-95.5927
75144,Goodlow Park,TX,222014,Estable,73.0,Crecimiento24: -1.8% | Crecimiento25: 6.8% | Vacancia: 7.6% | Momentum: -13.0%,32.1275,-96.2298
78501,McAllen,TX,195372,Estable,72.8,Crecimiento24: 6.8% | Crecimiento25: -0.4% | Vacancia: 5.5% | Momentum: -11.1%,26.2154,-98.2359
76691,,TX,290760,Estable,71.7,Crecimiento24: 1.1% | Crecimiento25: 2.1% | Vacancia: 2.7% | Momentum: -14.8%,31.7754,-97.1258
79360,Seminole,TX,245626,Estable,70.4,Crecimiento24: 1.3% | Crecimiento25: 7.8% | Vacancia: 2.5% | Momentum: -0.5%,32.721,-102.6828
78377,Refugio,TX,148685,Estable,69.5,Crecimiento24: 2.8% | Crecimiento25: 4.1% | Vacancia: 12.4% | Momentum: 1.1%,28.3169,-97.2767
76458,Jacksboro,TX,205710,Estable,69.0,Crecimiento24: -15.1% | Crecimiento25: 23.3% | Vacancia: 9.0% | Momentum: -1.5%,33.2347,-98.1681
76444,De Leon,TX,197821,Estable,68.8,Crecimiento24: -0.7% | Crecimiento25: 3.8% | Vacancia: 6.8% | Momentum: -17.2%,32.1087,-98.5489
76687,Thornton,TX,315209,Estable,68.7,Crecimiento24: 3.2% | Crecimiento25: 3.7% | Vacancia: 23.8% | Momentum: -11.9%,31.4083,-96.5024
78405,Corpus Christi,TX,80161,Estable,68.3,Crecimiento24: -1.6% | Crecimiento25: 3.0% | Vacancia: 7.4% | Momentum: 8.3%,27.7762,-97.4271
77963,Goliad,TX,235559,Estable,68.0,Crecimiento24: -2.2% | Crecimiento25: 6.4% | Vacancia: 12.1% | Momentum: 3.0%,28.6993,-97.3783
77345,Houston,TX,412798,Estable,67.9,Crecimiento24: 1.6% | Crecimiento25: 1.4% | Vacancia: 1.5% | Momentum: -12.0%,30.0336,-95.261
75801,Palestine,TX,191447,Estable,67.4,Crecimiento24: 4.4% | Crecimiento25: -0.2% | Vacancia: 5.6% | Momentum: -11.3%,31.7588,-95.6342
79782,Stanton,TX,242759,Estable,67.0,Crecimiento24: -1.8% | Crecimiento25: 3.2% | Vacancia: 6.0% | Momentum: 3.1%,32.14,-101.8099
77868,Navasota,TX,271056,Estable,66.8,Crecimiento24: -0.5% | Crecimiento25: 4.1% | Vacancia: 4.5% | Momentum: -9.3%,30.3576,-96.0594
75702,Tyler,TX,141501,Estable,65.9,Crecimiento24: 6.3% | Crecimiento25: -0.3% | Vacancia: 7.5% | Momentum: -9.1%,32.362,-95.3117
76164,Fort Worth,TX,189764,Estable,65.8,Crecimiento24: -0.8% | Crecimiento25: 5.5% | Vacancia: 3.2% | Momentum: -13.4%,32.7811,-97.3546
75657,Jefferson,TX,168959,Estable,65.7,Crecimiento24: -4.7% | Crecimiento25: 10.8% | Vacancia: 15.0% | Momentum: -2.5%,32.8059,-94.3655
79843,Marfa,TX,312617,Estable,65.6,Crecimiento24: 5.9% | Crecimiento25: 1.5% | Vacancia: 16.3% | Momentum: -18.0%,30.293,-104.0848
77581,Pearland,TX,368651,Estable,65.3,Crecimiento24: 0.8% | Crecimiento25: 2.7% | Vacancia: 1.1% | Momentum: -10.4%,29.5617,-95.2721
78962,Weimar,TX,333160,Estable,63.0,Crecimiento24: 1.2% | Crecimiento25: 4.4% | Vacancia: 10.3% | Momentum: -2.1%,29.6787,-96.755
78631,Harper,TX,423064,Estable,61.8,Crecimiento24: -2.3% | Crecimiento25: 5.6% | Vacancia: 9.1% | Momentum: -8.8%,30.2816,-99.241
78363,Kingsville,TX,144108,Estable,61.0,Crecimiento24: -2.8% | Crecimiento25: 4.4% | Vacancia: 6.6% | Momentum: -1.9%,27.4229,-97.8407
79549,Snyder,TX,132606,Estable,59.8,Crecimiento24: -3.7% | Crecimiento25: 7.7% | Vacancia: 5.7% | Momentum: -0.3%,32.7451,-100.9175
75094,Murphy,TX,596978,Estable,59.3,Crecimiento24: 3.6% | Crecimiento25: 0.0% | Vacancia: 0.3% | Momentum: -17.2%,33.0148,-96.6189
79563,Tye,TX,123359,Estable,58.5,Crecimiento24: -4.8% | Crecimiento25: 8.8% | Vacancia: 11.1% | Momentum: -4.8%,32.4477,-99.8684
77434,Eagle Lake,TX,171476,Estable,58.3,Crecimiento24: -0.1% | Crecimiento25: 7.5% | Vacancia: 10.7% | Momentum: 2.9%,29.5842,-96.3354
79329,Idalou,TX,232999,Estable,55.2,Crecimiento24: 0.4% | Crecimiento25: 2.5% | Vacancia: 6.3% | Momentum: -8.0%,33.6504,-101.6786
75060,Irving,TX,295551,Estable,55.1,Crecimiento24: 3.9% | Crecimiento25: 0.4% | Vacancia: 1.8% | Momentum: -12.3%,32.8023,-96.9597
78045,Laredo,TX,280999,Estable,54.9,Crecimiento24: 0.4% | Crecimiento25: 2.5% | Vacancia: 1.4% | Momentum: -5.3%,27.6357,-99.5923
79065,Pampa,TX,105886,Estable,52.7,Crecimiento24: 7.6% | Crecimiento25: 0.4% | Vacancia: 9.0% | Momentum: 1.3%,35.538,-100.9579
78609,Buchanan Dam,TX,383414,Bajo Potencial,100.0,Crecimiento24: -8.8% | Crecimiento25: -4.0% | Vacancia: 19.1% | Momentum: -25.9%,30.7538,-98.4295
77046,Houston,TX,329738,Bajo Potencial,100.0,Crecimiento24: -5.4% | Crecimiento25: -6.6% | Vacancia: 9.5% | Momentum: -9.0%,29.733,-95.4306
76179,Fort Worth,TX,329679,Bajo Potencial,100.0,Crecimiento24: -4.3% | Crecimiento25: -1.7% | Vacancia: 1.3% | Momentum: -19.6%,32.9074,-97.4257
76028,Burleson,TX,343491,Bajo Potencial,100.0,Crecimiento24: -1.3% | Crecimiento25: 0.0% | Vacancia: 1.4% | Momentum: -16.4%,32.5316,-97.309
75211,Cockrell Hill,TX,235620,Bajo Potencial,100.0,Crecimiento24: -1.0% | Crecimiento25: 0.1% | Vacancia: 2.2% | Momentum: -15.4%,32.7319,-96.9057
76063,Mansfield,TX,442034,Bajo Potencial,100.0,Crecimiento24: -0.5% | Crecimiento25: -0.2% | Vacancia: 1.7% | Momentum: -15.8%,32.5773,-97.1416
76244,Fort Worth,TX,391564,Bajo Potencial,100.0,Crecimiento24: -2.3% | Crecimiento25: -0.8% | Vacancia: 2.0% | Momentum: -18.9%,32.931,-97.2843
77373,Spring,TX,248390,Bajo Potencial,100.0,Crecimiento24: -1.1% | Crecimiento25: -0.6% | Vacancia: 1.5% | Momentum: -16.6%,30.0532,-95.3773
78249,San Antonio,TX,305910,Bajo Potencial,100.0,Crecimiento24: -0.7% | Crecimiento25: -1.4% | Vacancia: 2.3% | Momentum: -14.8%,29.5612,-98.6117
77346,Atascocita,TX,316690,Bajo Potencial,100.0,Crecimiento24: -2.2% | Crecimiento25: -0.6% | Vacancia: 1.2% | Momentum: -15.7%,30.0042,-95.1728
75098,Wylie,TX,448079,Bajo Potencial,100.0,Crecimiento24: 0.4% | Crecimiento25: -1.1% | Vacancia: 1.8% | Momentum: -18.9%,33.0041,-96.5394
75068,Little Elm,TX,432328,Bajo Potencial,100.0,Crecimiento24: -2.4% | Crecimiento25: -1.1% | Vacancia: 1.1% | Momentum: -21.4%,33.1768,-96.9583
75067,Lewisville,TX,376599,Bajo Potencial,100.0,Crecimiento24: 0.8% | Crecimiento25: 0.5% | Vacancia: 2.4% | Momentum: -14.8%,33.0198,-96.9925
78254,San Antonio,TX,313225,Bajo Potencial,100.0,Crecimiento24: -3.1% | Crecimiento25: -1.7% | Vacancia: 1.1% | Momentum: -17.2%,29.5551,-98.7442
78253,San Antonio,TX,330517,Bajo Potencial,100.0,Crecimiento24: -4.5% | Crecimiento25: -1.6% | Vacancia: 2.7% | Momentum: -17.5%,29.4599,-98.7479
78745,Austin,TX,440989,Bajo Potencial,100.0,Crecimiento24: -7.1% | Crecimiento25: -5.1% | Vacancia: 2.3% | Momentum: -21.9%,30.2063,-97.7956
78640,Kyle,TX,319737,Bajo Potencial,100.0,Crecimiento24: -7.2% | Crecimiento25: -6.1% | Vacancia: 1.2% | Momentum: -27.9%,29.9966,-97.8335
77396,Humble,TX,263032,Bajo Potencial,100.0,Crecimiento24: -1.7% | Crecimiento25: 0.1% | Vacancia: 1.7% | Momentum: -15.2%,29.9507,-95.2622
75149,Mesquite,TX,247560,Bajo Potencial,100.0,Crecimiento24: 0.6% | Crecimiento25: -1.8% | Vacancia: 1.7% | Momentum: -17.3%,32.7678,-96.6082
78250,San Antonio,TX,246263,Bajo Potencial,100.0,Crecimiento24: -2.3% | Crecimiento25: -1.7% | Vacancia: 1.5% | Momentum: -15.9%,29.5054,-98.6688
78753,Austin,TX,368231,Bajo Potencial,100.0,Crecimiento24: -7.7% | Crecimiento25: -4.5% | Vacancia: 2.3% | Momentum: -21.3%,30.3649,-97.6827
75115,Desoto,TX,332545,Bajo Potencial,100.0,Crecimiento24: -1.2% | Crecimiento25: -0.5% | Vacancia: 1.9% | Momentum: -17.0%,32.6041,-96.8653
76137,Fort Worth,TX,325138,Bajo Potencial,100.0,Crecimiento24: -1.4% | Crecimiento25: -1.0% | Vacancia: 2.7% | Momentum: -18.5%,32.8664,-97.2891
78681,Round Rock,TX,500904,Bajo Potencial,100.0,Crecimiento24: -5.4% | Crecimiento25: -0.2% | Vacancia: 1.0% | Momentum: -22.4%,30.5083,-97.6789
78664,Round Rock,TX,357119,Bajo Potencial,100.0,Crecimiento24: -7.5% | Crecimiento25: -3.4% | Vacancia: 1.5% | Momentum: -25.9%,30.5145,-97.668
75216,Dallas,TX,183124,Bajo Potencial,100.0,Crecimiento24: -3.3% | Crecimiento25: -0.3% | Vacancia: 3.3% | Momentum: -17.7%,32.7086,-96.7955
75126,Forney,TX,327675,Bajo Potencial,100.0,Crecimiento24: -5.6% | Crecimiento25: -3.9% | Vacancia: 1.1% | Momentum: -21.8%,32.7491,-96.4598
78665,Round Rock,TX,425199,Bajo Potencial,100.0,Crecimiento24: -8.1% | Crecimiento25: -2.6% | Vacancia: 2.1% | Momentum: -26.7%,30.5145,-97.668
77044,Houston,TX,290436,Bajo Potencial,100.0,Crecimiento24: -1.7% | Crecimiento25: -0.3% | Vacancia: 1.8% | Momentum: -14.8%,29.8635,-95.1976
77469,Rosenberg,TX,349260,Bajo Potencial,100.0,Crecimiento24: -1.0% | Crecimiento25: 0.0% | Vacancia: 1.1% | Momentum: -15.7%,29.5511,-95.7329
78247,San Antonio,TX,284219,Bajo Potencial,100.0,Crecimiento24: -1.3% | Crecimiento25: -1.2% | Vacancia: 1.1% | Momentum: -15.0%,29.5855,-98.4071
78758,Austin,TX,395803,Bajo Potencial,100.0,Crecimiento24: -6.4% | Crecimiento25: -3.7% | Vacancia: 2.9% | Momentum: -18.0%,30.3764,-97.7078
75104,Cedar Hill,TX,316811,Bajo Potencial,100.0,Crecimiento24: -2.1% | Crecimiento25: -1.1% | Vacancia: 1.3% | Momentum: -18.2%,32.5885,-96.9438
78155,Seguin,TX,277103,Bajo Potencial,100.0,Crecimiento24: -3.0% | Crecimiento25: -3.1% | Vacancia: 3.2% | Momentum: -14.9%,29.5613,-97.9628
76133,Fort Worth,TX,266557,Bajo Potencial,100.0,Crecimiento24: -0.2% | Crecimiento25: -0.8% | Vacancia: 2.3% | Momentum: -16.7%,32.6526,-97.3758
77388,Spring,TX,301744,Bajo Potencial,100.0,Crecimiento24: -1.3% | Crecimiento25: 0.6% | Vacancia: 1.5% | Momentum: -15.1%,30.0505,-95.4695
76549,Killeen,TX,229732,Bajo Potencial,100.0,Crecimiento24: -2.4% | Crecimiento25: -1.4% | Vacancia: 3.1% | Momentum: -21.1%,31.0065,-97.841
78744,Austin,TX,356604,Bajo Potencial,100.0,Crecimiento24: -7.6% | Crecimiento25: -5.4% | Vacancia: 1.4% | Momentum: -25.2%,30.1876,-97.7472
76542,Killeen,TX,257831,Bajo Potencial,100.0,Crecimiento24: -2.4% | Crecimiento25: -0.8% | Vacancia: 2.1% | Momentum: -18.8%,31.0376,-97.6809
78748,Austin,TX,433815,Bajo Potencial,100.0,Crecimiento24: -7.2% | Crecimiento25: -4.1% | Vacancia: 2.2% | Momentum: -22.7%,30.1743,-97.8225
78223,San Antonio,TX,189802,Bajo Potencial,100.0,Crecimiento24: -4.9% | Crecimiento25: -3.3% | Vacancia: 3.8% | Momentum: -15.2%,29.3579,-98.4356
78704,Austin,TX,763462,Bajo Potencial,100.0,Crecimiento24: -11.1% | Crecimiento25: -6.2% | Vacancia: 4.3% | Momentum: -28.1%,30.2428,-97.7658
78227,San Antonio,TX,168886,Bajo Potencial,100.0,Crecimiento24: -5.9% | Crecimiento25: -1.7% | Vacancia: 3.2% | Momentum: -13.9%,29.4027,-98.6433
77493,Katy,TX,358122,Bajo Potencial,100.0,Crecimiento24: -1.6% | Crecimiento25: -0.8% | Vacancia: 2.4% | Momentum: -17.2%,29.8678,-95.8298
75165,Waxahachie,TX,353232,Bajo Potencial,100.0,Crecimiento24: -0.6% | Crecimiento25: -0.1% | Vacancia: 2.1% | Momentum: -15.6%,32.3808,-96.8374
77338,Humble,TX,235159,Bajo Potencial,100.0,Crecimiento24: -2.5% | Crecimiento25: -1.4% | Vacancia: 2.0% | Momentum: -17.4%,30.0041,-95.2825
76131,Saginaw,TX,343200,Bajo Potencial,100.0,Crecimiento24: -4.5% | Crecimiento25: -0.9% | Vacancia: 0.5% | Momentum: -20.0%,32.8632,-97.3377
76210,Corinth,TX,407309,Bajo Potencial,100.0,Crecimiento24: -0.7% | Crecimiento25: 0.3% | Vacancia: 0.8% | Momentum: -17.6%,33.1428,-97.0727
75050,Grand Prairie,TX,279981,Bajo Potencial,100.0,Crecimiento24: 1.0% | Crecimiento25: -0.3% | Vacancia: 1.7% | Momentum: -14.5%,32.7649,-97.0112
76513,Belton,TX,313554,Bajo Potencial,100.0,Crecimiento24: -2.4% | Crecimiento25: -1.2% | Vacancia: 2.2% | Momentum: -18.3%,31.0723,-97.472
78759,Austin,TX,670243,Bajo Potencial,100.0,Crecimiento24: -6.7% | Crecimiento25: -1.8% | Vacancia: 3.3% | Momentum: -19.7%,30.4036,-97.7526
78741,Austin,TX,358367,Bajo Potencial,100.0,Crecimiento24: -8.7% | Crecimiento25: -8.2% | Vacancia: 4.1% | Momentum: -24.2%,30.2315,-97.7223
76017,Arlington,TX,322687,Bajo Potencial,100.0,Crecimiento24: -0.5% | Crecimiento25: -0.4% | Vacancia: 1.8% | Momentum: -15.9%,32.6555,-97.1599
76502,Temple,TX,283645,Bajo Potencial,100.0,Crecimiento24: -5.4% | Crecimiento25: -1.4% | Vacancia: 2.4% | Momentum: -22.6%,31.071,-97.3898
77075,Houston,TX,254089,Bajo Potencial,100.0,Crecimiento24: 0.4% | Crecimiento25: 0.4% | Vacancia: 2.1% | Momentum: -12.9%,29.6223,-95.26
78233,San Antonio,TX,232980,Bajo Potencial,100.0,Crecimiento24: -2.5% | Crecimiento25: -2.2% | Vacancia: 2.0% | Momentum: -15.5%,29.5563,-98.3643
76108,Fort Worth,TX,292881,Bajo Potencial,100.0,Crecimiento24: -1.8% | Crecimiento25: -1.1% | Vacancia: 4.1% | Momentum: -17.8%,32.7822,-97.4969
78154,Schertz,TX,317526,Bajo Potencial,100.0,Crecimiento24: -3.1% | Crecimiento25: -1.7% | Vacancia: 1.7% | Momentum: -16.6%,29.579,-98.2778
78108,Cibolo,TX,337491,Bajo Potencial,100.0,Crecimiento24: -3.4% | Crecimiento25: -2.5% | Vacancia: 1.7% | Momentum: -16.8%,29.575,-98.228
78634,Hutto,TX,357973,Bajo Potencial,100.0,Crecimiento24: -8.0% | Crecimiento25: -2.8% | Vacancia: 0.9% | Momentum: -27.4%,30.5257,-97.5672
78610,Buda,TX,385981,Bajo Potencial,100.0,Crecimiento24: -6.6% | Crecimiento25: -5.1% | Vacancia: 0.9% | Momentum: -26.3%,30.0918,-97.8534
76227,Aubrey,TX,390861,Bajo Potencial,100.0,Crecimiento24: -3.5% | Crecimiento25: -1.5% | Vacancia: 1.3% | Momentum: -21.1%,33.292,-96.9879
78628,Georgetown,TX,497746,Bajo Potencial,100.0,Crecimiento24: -7.0% | Crecimiento25: -2.1% | Vacancia: 1.5% | Momentum: -24.8%,30.6411,-97.7511
78653,Manor,TX,342864,Bajo Potencial,100.0,Crecimiento24: -9.0% | Crecimiento25: -4.4% | Vacancia: 1.3% | Momentum: -29.4%,30.3388,-97.5323
79423,Lubbock,TX,230141,Bajo Potencial,100.0,Crecimiento24: -0.7% | Crecimiento25: -1.7% | Vacancia: 2.6% | Momentum: -12.2%,33.5146,-101.8795
78109,Converse,TX,252945,Bajo Potencial,100.0,Crecimiento24: -3.0% | Crecimiento25: -2.4% | Vacancia: 0.6% | Momentum: -17.7%,29.5173,-98.3217
76123,Fort Worth,TX,308037,Bajo Potencial,100.0,Crecimiento24: -4.2% | Crecimiento25: -2.2% | Vacancia: 1.2% | Momentum: -20.8%,32.6254,-97.3658
78237,San Antonio,TX,129049,Bajo Potencial,100.0,Crecimiento24: -7.5% | Crecimiento25: -3.9% | Vacancia: 3.1% | Momentum: -12.3%,29.4208,-98.5645
76522,Copperas Cove,TX,221177,Bajo Potencial,100.0,Crecimiento24: -1.5% | Crecimiento25: -0.7% | Vacancia: 2.2% | Momentum: -19.7%,31.2029,-97.9301
78244,San Antonio,TX,224750,Bajo Potencial,100.0,Crecimiento24: -3.3% | Crecimiento25: -3.7% | Vacancia: 1.4% | Momentum: -18.9%,29.4793,-98.3476
75087,Rockwall,TX,453910,Bajo Potencial,100.0,Crecimiento24: -0.9% | Crecimiento25: -0.2% | Vacancia: 1.9% | Momentum: -18.0%,32.9492,-96.4418
78218,San Antonio,TX,206232,Bajo Potencial,100.0,Crecimiento24: -2.5% | Crecimiento25: -3.0% | Vacancia: 1.9% | Momentum: -14.5%,29.4969,-98.4032
78028,Kerrville,TX,354869,Bajo Potencial,100.0,Crecimiento24: -0.7% | Crecimiento25: -1.3% | Vacancia: 4.4% | Momentum: -14.7%,30.0416,-99.1408
77073,Houston,TX,238763,Bajo Potencial,100.0,Crecimiento24: -2.4% | Crecimiento25: -1.1% | Vacancia: 2.1% | Momentum: -17.3%,30.0198,-95.4087
76180,North Richland Hills,TX,338211,Bajo Potencial,100.0,Crecimiento24: 1.0% | Crecimiento25: -0.2% | Vacancia: 2.4% | Momentum: -13.8%,32.84,-97.225
77583,Iowa Colony,TX,328783,Bajo Potencial,100.0,Crecimiento24: -3.4% | Crecimiento25: -0.3% | Vacancia: 3.1% | Momentum: -14.7%,29.4203,-95.4537
77066,Houston,TX,249250,Bajo Potencial,100.0,Crecimiento24: -0.6% | Crecimiento25: 0.3% | Vacancia: 1.2% | Momentum: -15.5%,29.961,-95.4947
75224,Dallas,TX,238343,Bajo Potencial,100.0,Crecimiento24: -1.2% | Crecimiento25: -0.0% | Vacancia: 2.2% | Momentum: -14.2%,32.7114,-96.8387
78626,Georgetown,TX,367705,Bajo Potencial,100.0,Crecimiento24: -7.9% | Crecimiento25: -2.1% | Vacancia: 2.3% | Momentum: -25.6%,30.633,-97.6707
77014,Houston,TX,253683,Bajo Potencial,100.0,Crecimiento24: -1.5% | Crecimiento25: 0.6% | Vacancia: 3.0% | Momentum: -15.7%,29.9796,-95.4625
78723,Austin,TX,507949,Bajo Potencial,100.0,Crecimiento24: -9.3% | Crecimiento25: -5.1% | Vacancia: 2.7% | Momentum: -18.7%,30.3085,-97.6849
76001,Arlington,TX,356625,Bajo Potencial,100.0,Crecimiento24: -1.3% | Crecimiento25: -0.8% | Vacancia: 0.9% | Momentum: -17.4%,32.6289,-97.1517
76002,Arlington,TX,346133,Bajo Potencial,100.0,Crecimiento24: -1.2% | Crecimiento25: -1.3% | Vacancia: 0.9% | Momentum: -17.8%,32.6255,-97.0784
78210,San Antonio,TX,162738,Bajo Potencial,100.0,Crecimiento24: -9.2% | Crecimiento25: -5.9% | Vacancia: 7.2% | Momentum: -16.5%,29.3977,-98.4658
75189,Royse City,TX,339026,Bajo Potencial,100.0,Crecimiento24: -5.2% | Crecimiento25: -2.8% | Vacancia: 1.5% | Momentum: -21.5%,32.9628,-96.3648
77047,Houston,TX,256730,Bajo Potencial,100.0,Crecimiento24: -0.7% | Crecimiento25: 0.1% | Vacancia: 1.4% | Momentum: -15.0%,29.6254,-95.375
78602,Bastrop,TX,362253,Bajo Potencial,100.0,Crecimiento24: -8.6% | Crecimiento25: -1.5% | Vacancia: 2.8% | Momentum: -25.3%,30.1388,-97.2921
78749,Austin,TX,573335,Bajo Potencial,100.0,Crecimiento24: -5.0% | Crecimiento25: -2.3% | Vacancia: 2.4% | Momentum: -20.6%,30.2166,-97.8508
78023,Helotes,TX,430677,Bajo Potencial,100.0,Crecimiento24: -1.7% | Crecimiento25: -0.2% | Vacancia: 1.1% | Momentum: -14.7%,29.6321,-98.7542
78242,San Antonio,TX,158947,Bajo Potencial,100.0,Crecimiento24: -5.0% | Crecimiento25: -2.5% | Vacancia: 1.8% | Momentum: -14.8%,29.3509,-98.6109
79416,Lubbock,TX,201449,Bajo Potencial,100.0,Crecimiento24: -0.4% | Crecimiento25: -1.7% | Vacancia: 4.3% | Momentum: -13.4%,33.5924,-101.9367
78217,San Antonio,TX,231375,Bajo Potencial,100.0,Crecimiento24: -1.5% | Crecimiento25: -2.5% | Vacancia: 4.3% | Momentum: -14.7%,29.5395,-98.4194
78229,San Antonio,TX,197538,Bajo Potencial,100.0,Crecimiento24: -0.9% | Crecimiento25: -4.8% | Vacancia: 7.8% | Momentum: -14.8%,29.5042,-98.5697
77301,Conroe,TX,238538,Bajo Potencial,100.0,Crecimiento24: -0.7% | Crecimiento25: -2.2% | Vacancia: 2.1% | Momentum: -14.6%,30.3125,-95.4527
76140,Everman,TX,253682,Bajo Potencial,100.0,Crecimiento24: -0.9% | Crecimiento25: -1.5% | Vacancia: 2.1% | Momentum: -17.1%,32.6192,-97.2735
77067,Houston,TX,219159,Bajo Potencial,100.0,Crecimiento24: 0.7% | Crecimiento25: -0.9% | Vacancia: 3.3% | Momentum: -14.3%,29.9547,-95.4522
78239,San Antonio,TX,224451,Bajo Potencial,100.0,Crecimiento24: -3.0% | Crecimiento25: -2.7% | Vacancia: 2.6% | Momentum: -16.2%,29.5182,-98.3627
76016,Arlington,TX,350294,Bajo Potencial,100.0,Crecimiento24: -0.0% | Crecimiento25: -0.6% | Vacancia: 1.8% | Momentum: -15.0%,32.6889,-97.1905
77530,Channelview,TX,214389,Bajo Potencial,100.0,Crecimiento24: -0.5% | Crecimiento25: -0.7% | Vacancia: 3.3% | Momentum: -14.3%,29.7914,-95.1317
77086,Houston,TX,223695,Bajo Potencial,100.0,Crecimiento24: 1.0% | Crecimiento25: -0.5% | Vacancia: 2.1% | Momentum: -14.4%,29.9227,-95.4939
76134,Fort Worth,TX,254432,Bajo Potencial,100.0,Crecimiento24: -0.3% | Crecimiento25: -1.0% | Vacancia: 1.9% | Momentum: -17.1%,32.6469,-97.3325
77020,Houston,TX,180645,Bajo Potencial,100.0,Crecimiento24: -3.1% | Crecimiento25: -1.8% | Vacancia: 3.9% | Momentum: -14.1%,29.7758,-95.3121
75181,Mesquite,TX,331684,Bajo Potencial,100.0,Crecimiento24: -2.8% | Crecimiento25: -1.0% | Vacancia: 1.3% | Momentum: -19.4%,32.7272,-96.5669
76012,Arlington,TX,343795,Bajo Potencial,100.0,Crecimiento24: 0.3% | Crecimiento25: 0.1% | Vacancia: 2.9% | Momentum: -14.8%,32.754,-97.1348
76036,Crowley,TX,325969,Bajo Potencial,100.0,Crecimiento24: -4.0% | Crecimiento25: -1.0% | Vacancia: 1.7% | Momentum: -18.7%,32.5814,-97.3703
78750,Austin,TX,605359,Bajo Potencial,100.0,Crecimiento24: -5.9% | Crecimiento25: -1.3% | Vacancia: 1.1% | Momentum: -19.6%,30.4224,-97.7967
77016,Houston,TX,171092,Bajo Potencial,100.0,Crecimiento24: -4.1% | Crecimiento25: -0.0% | Vacancia: 4.5% | Momentum: -14.9%,29.8579,-95.3032
75241,Dallas,TX,220240,Bajo Potencial,100.0,Crecimiento24: -0.2% | Crecimiento25: -1.1% | Vacancia: 2.8% | Momentum: -17.7%,32.6722,-96.7774
78238,San Antonio,TX,225171,Bajo Potencial,100.0,Crecimiento24: -1.6% | Crecimiento25: -2.0% | Vacancia: 4.4% | Momentum: -14.1%,29.451,-98.6169
76712,Woodway,TX,347279,Bajo Potencial,100.0,Crecimiento24: -0.1% | Crecimiento25: -0.1% | Vacancia: 2.8% | Momentum: -14.9%,31.5051,-97.2311
76049,Granbury,TX,407806,Bajo Potencial,100.0,Crecimiento24: -2.1% | Crecimiento25: 0.8% | Vacancia: 3.9% | Momentum: -15.7%,32.4488,-97.7285
78617,Del Valle,TX,305159,Bajo Potencial,100.0,Crecimiento24: -9.1% | Crecimiento25: -5.2% | Vacancia: 1.7% | Momentum: -28.3%,30.1745,-97.6134
77532,Crosby,TX,268610,Bajo Potencial,100.0,Crecimiento24: -1.0% | Crecimiento25: 0.2% | Vacancia: 4.7% | Momentum: -12.5%,29.9249,-95.0578
77039,Houston,TX,189167,Bajo Potencial,100.0,Crecimiento24: -0.6% | Crecimiento25: -0.0% | Vacancia: 2.3% | Momentum: -14.8%,29.9067,-95.3334
75180,Balch Springs,TX,230832,Bajo Potencial,100.0,Crecimiento24: -1.1% | Crecimiento25: 0.0% | Vacancia: 3.2% | Momentum: -16.0%,32.7287,-96.6228
78737,Austin,TX,795053,Bajo Potencial,100.0,Crecimiento24: -5.3% | Crecimiento25: -1.6% | Vacancia: 1.2% | Momentum: -24.2%,30.2107,-97.9427
78727,Austin,TX,471237,Bajo Potencial,100.0,Crecimiento24: -5.9% | Crecimiento25: -2.9% | Vacancia: 2.4% | Momentum: -18.4%,30.4254,-97.7195
76209,Denton,TX,304015,Bajo Potencial,100.0,Crecimiento24: -0.3% | Crecimiento25: 0.5% | Vacancia: 2.6% | Momentum: -15.5%,33.2346,-97.1131
75503,Texarkana,TX,249486,Bajo Potencial,100.0,Crecimiento24: 1.5% | Crecimiento25: -0.6% | Vacancia: 3.2% | Momentum: -10.4%,33.4669,-94.0774
78746,West Lake Hills,TX,1666366,Bajo Potencial,100.0,Crecimiento24: -5.1% | Crecimiento25: -3.3% | Vacancia: 3.2% | Momentum: -29.5%,30.2971,-97.8181
78757,Austin,TX,616974,Bajo Potencial,100.0,Crecimiento24: -8.5% | Crecimiento25: -3.8% | Vacancia: 2.5% | Momentum: -20.5%,30.3437,-97.7316
78728,Austin,TX,426595,Bajo Potencial,100.0,Crecimiento24: -5.8% | Crecimiento25: -3.5% | Vacancia: 3.5% | Momentum: -21.3%,30.4417,-97.6811
78633,Georgetown,TX,456327,Bajo Potencial,100.0,Crecimiento24: -6.3% | Crecimiento25: -3.3% | Vacancia: 1.5% | Momentum: -21.8%,30.7177,-97.7543
78222,San Antonio,TX,220719,Bajo Potencial,100.0,Crecimiento24: -3.8% | Crecimiento25: -1.4% | Vacancia: 3.9% | Momentum: -16.1%,29.3831,-98.396
77385,Conroe,TX,348775,Bajo Potencial,100.0,Crecimiento24: -1.9% | Crecimiento25: -0.4% | Vacancia: 2.4% | Momentum: -15.4%,30.1877,-95.4288
78731,Austin,TX,1001739,Bajo Potencial,100.0,Crecimiento24: -5.4% | Crecimiento25: -2.4% | Vacancia: 2.9% | Momentum: -21.4%,30.3471,-97.7609
76528,Gatesville,TX,236846,Bajo Potencial,100.0,Crecimiento24: -4.2% | Crecimiento25: 0.4% | Vacancia: 4.0% | Momentum: -16.6%,31.4177,-97.833
75254,Dallas,TX,310042,Bajo Potencial,100.0,Crecimiento24: -0.6% | Crecimiento25: -5.7% | Vacancia: 7.8% | Momentum: -16.2%,32.9503,-96.819
75212,Dallas,TX,251847,Bajo Potencial,100.0,Crecimiento24: -0.4% | Crecimiento25: 0.2% | Vacancia: 1.9% | Momentum: -15.5%,32.7829,-96.8714
78754,Austin,TX,381926,Bajo Potencial,100.0,Crecimiento24: -7.6% | Crecimiento25: -4.1% | Vacancia: 1.8% | Momentum: -25.9%,30.3423,-97.6673
75482,Sulphur Springs,TX,247887,Bajo Potencial,100.0,Crecimiento24: -4.3% | Crecimiento25: -4.2% | Vacancia: 4.6% | Momentum: -15.8%,33.1345,-95.5922
75159,Seagoville,TX,286335,Bajo Potencial,100.0,Crecimiento24: -1.6% | Crecimiento25: -0.3% | Vacancia: 2.3% | Momentum: -18.3%,32.6525,-96.558
78259,San Antonio,TX,404658,Bajo Potencial,100.0,Crecimiento24: -0.6% | Crecimiento25: -0.1% | Vacancia: 1.9% | Momentum: -15.2%,29.6283,-98.4445
76148,Watauga,TX,273526,Bajo Potencial,100.0,Crecimiento24: 0.6% | Crecimiento25: -1.2% | Vacancia: 1.3% | Momentum: -15.5%,32.8621,-97.2508
78702,Austin,TX,591141,Bajo Potencial,100.0,Crecimiento24: -9.4% | Crecimiento25: -7.8% | Vacancia: 4.8% | Momentum: -23.9%,30.2638,-97.7166
78644,Lockhart,TX,299799,Bajo Potencial,100.0,Crecimiento24: -5.2% | Crecimiento25: -3.5% | Vacancia: 2.9% | Momentum: -24.7%,29.8868,-97.6769
75407,Princeton,TX,325640,Bajo Potencial,100.0,Crecimiento24: -5.1% | Crecimiento25: -3.2% | Vacancia: 1.8% | Momentum: -22.9%,33.1555,-96.4981
78738,,TX,871322,Bajo Potencial,100.0,Crecimiento24: -7.4% | Crecimiento25: -3.7% | Vacancia: 2.0% | Momentum: -27.6%,30.3337,-97.9824
76052,Haslet,TX,407868,Bajo Potencial,100.0,Crecimiento24: -5.3% | Crecimiento25: -1.1% | Vacancia: 0.7% | Momentum: -19.1%,32.9557,-97.3372
76504,Temple,TX,194400,Bajo Potencial,100.0,Crecimiento24: -3.3% | Crecimiento25: 0.4% | Vacancia: 3.6% | Momentum: -18.1%,31.0917,-97.3648
75090,Sherman,TX,222625,Bajo Potencial,100.0,Crecimiento24: -0.4% | Crecimiento25: 0.5% | Vacancia: 3.4% | Momentum: -16.3%,33.6435,-96.6075
75253,Dallas,TX,266027,Bajo Potencial,100.0,Crecimiento24: -0.8% | Crecimiento25: -1.2% | Vacancia: 1.7% | Momentum: -18.8%,32.6833,-96.5964
78261,San Antonio,TX,447053,Bajo Potencial,100.0,Crecimiento24: -2.0% | Crecimiento25: -0.5% | Vacancia: 1.1% | Momentum: -16.5%,29.7055,-98.4191
79413,Lubbock,TX,191493,Bajo Potencial,100.0,Crecimiento24: -0.3% | Crecimiento25: -0.9% | Vacancia: 3.0% | Momentum: -12.2%,33.5466,-101.8871
75409,Anna,TX,369771,Bajo Potencial,100.0,Crecimiento24: -4.2% | Crecimiento25: -1.6% | Vacancia: 2.0% | Momentum: -22.3%,33.3445,-96.5639
76135,Fort Worth,TX,281672,Bajo Potencial,100.0,Crecimiento24: -0.8% | Crecimiento25: -1.2% | Vacancia: 2.8% | Momentum: -17.0%,32.8248,-97.4519
78703,Austin,TX,1292595,Bajo Potencial,100.0,Crecimiento24: -6.7% | Crecimiento25: -5.2% | Vacancia: 3.3% | Momentum: -25.1%,30.2907,-97.7648
75460,Paris,TX,127216,Bajo Potencial,100.0,Crecimiento24: -8.5% | Crecimiento25: 0.4% | Vacancia: 5.9% | Momentum: -15.5%,33.6581,-95.5379
78621,,TX,312803,Bajo Potencial,100.0,Crecimiento24: -8.6% | Crecimiento25: -3.3% | Vacancia: 2.8% | Momentum: -26.2%,30.3231,-97.3737
78214,San Antonio,TX,137535,Bajo Potencial,100.0,Crecimiento24: -8.0% | Crecimiento25: -4.6% | Vacancia: 3.2% | Momentum: -12.5%,29.3641,-98.4924
75134,Lancaster,TX,273514,Bajo Potencial,100.0,Crecimiento24: -0.1% | Crecimiento25: -1.2% | Vacancia: 0.6% | Momentum: -18.1%,32.6161,-96.783
78224,San Antonio,TX,203721,Bajo Potencial,100.0,Crecimiento24: -6.4% | Crecimiento25: -1.0% | Vacancia: 2.9% | Momentum: -13.9%,29.3374,-98.5393
75237,Dallas,TX,273642,Bajo Potencial,100.0,Crecimiento24: -0.0% | Crecimiento25: -1.6% | Vacancia: 5.0% | Momentum: -17.2%,32.659,-96.8765
78734,Lakeway,TX,638378,Bajo Potencial,100.0,Crecimiento24: -7.0% | Crecimiento25: -5.3% | Vacancia: 5.0% | Momentum: -24.4%,30.3705,-97.9427
75142,Kaufman,TX,291021,Bajo Potencial,100.0,Crecimiento24: -3.2% | Crecimiento25: 0.2% | Vacancia: 2.7% | Momentum: -16.4%,32.546,-96.2852
78015,Fair Oaks Ranch,TX,594328,Bajo Potencial,100.0,Crecimiento24: -1.8% | Crecimiento25: 0.1% | Vacancia: 1.6% | Momentum: -16.2%,29.7327,-98.6646
77028,Houston,TX,166743,Bajo Potencial,100.0,Crecimiento24: -4.9% | Crecimiento25: -0.1% | Vacancia: 5.0% | Momentum: -15.1%,29.8297,-95.2879
76177,,TX,384010,Bajo Potencial,100.0,Crecimiento24: -3.9% | Crecimiento25: -1.0% | Vacancia: 3.5% | Momentum: -19.1%,32.9448,-97.3124
77551,Galveston,TX,265126,Bajo Potencial,100.0,Crecimiento24: 0.9% | Crecimiento25: -4.2% | Vacancia: 8.9% | Momentum: -19.3%,29.2766,-94.8303
78133,Canyon Lake,TX,398405,Bajo Potencial,100.0,Crecimiento24: -3.1% | Crecimiento25: -2.5% | Vacancia: 8.8% | Momentum: -21.1%,29.9112,-98.2374
78747,Austin,TX,390789,Bajo Potencial,100.0,Crecimiento24: -6.9% | Crecimiento25: -5.2% | Vacancia: 1.2% | Momentum: -25.5%,30.1204,-97.7433
76541,Killeen,TX,124762,Bajo Potencial,100.0,Crecimiento24: -5.0% | Crecimiento25: 0.6% | Vacancia: 9.4% | Momentum: -22.2%,31.1164,-97.7278
78732,Austin,TX,823945,Bajo Potencial,100.0,Crecimiento24: -6.9% | Crecimiento25: -3.4% | Vacancia: 1.5% | Momentum: -27.6%,30.3752,-97.9007
76266,Sanger,TX,364646,Bajo Potencial,100.0,Crecimiento24: -1.1% | Crecimiento25: 0.1% | Vacancia: 1.8% | Momentum: -15.7%,33.3563,-97.1814
75137,Duncanville,TX,286981,Bajo Potencial,100.0,Crecimiento24: 0.3% | Crecimiento25: -0.5% | Vacancia: 2.0% | Momentum: -15.3%,32.6347,-96.9113
76574,Taylor,TX,297699,Bajo Potencial,100.0,Crecimiento24: -5.5% | Crecimiento25: -2.5% | Vacancia: 3.3% | Momentum: -23.2%,30.5708,-97.4094
78620,Dripping Springs,TX,698342,Bajo Potencial,100.0,Crecimiento24: -6.0% | Crecimiento25: -3.2% | Vacancia: 1.9% | Momentum: -25.1%,30.2268,-98.1029
76103,Fort Worth,TX,223124,Bajo Potencial,100.0,Crecimiento24: -0.2% | Crecimiento25: -0.4% | Vacancia: 3.7% | Momentum: -15.1%,32.747,-97.2604
78654,Marble Falls,TX,426955,Bajo Potencial,100.0,Crecimiento24: -5.4% | Crecimiento25: -1.5% | Vacancia: 9.3% | Momentum: -21.3%,30.5784,-98.2751
78735,,TX,836415,Bajo Potencial,100.0,Crecimiento24: -6.1% | Crecimiento25: -0.9% | Vacancia: 2.8% | Momentum: -20.0%,30.249,-97.8414
78752,Austin,TX,419151,Bajo Potencial,100.0,Crecimiento24: -10.0% | Crecimiento25: -5.1% | Vacancia: 2.2% | Momentum: -21.4%,30.3316,-97.7004
75249,Dallas,TX,295994,Bajo Potencial,100.0,Crecimiento24: 0.1% | Crecimiento25: -1.3% | Vacancia: 0.7% | Momentum: -16.1%,32.636,-96.9493
77447,Hockley,TX,311134,Bajo Potencial,100.0,Crecimiento24: -2.9% | Crecimiento25: 0.2% | Vacancia: 2.5% | Momentum: -14.3%,30.0729,-95.8104
76501,Temple,TX,195890,Bajo Potencial,100.0,Crecimiento24: -3.3% | Crecimiento25: -1.5% | Vacancia: 4.7% | Momentum: -19.0%,31.0895,-97.3343
78219,San Antonio,TX,176617,Bajo Potencial,100.0,Crecimiento24: -2.1% | Crecimiento25: -1.2% | Vacancia: 3.8% | Momentum: -12.7%,29.4492,-98.3446
75474,,TX,245710,Bajo Potencial,100.0,Crecimiento24: -0.5% | Crecimiento25: 0.7% | Vacancia: 5.6% | Momentum: -15.1%,32.8983,-96.1261
76086,Weatherford,TX,277768,Bajo Potencial,100.0,Crecimiento24: 0.0% | Crecimiento25: -1.2% | Vacancia: 4.3% | Momentum: -14.7%,32.7549,-97.7899
78676,Wimberley,TX,556654,Bajo Potencial,100.0,Crecimiento24: -6.3% | Crecimiento25: -1.5% | Vacancia: 5.2% | Momentum: -21.5%,30.0265,-98.1123
77587,South Houston,TX,197600,Bajo Potencial,100.0,Crecimiento24: -1.1% | Crecimiento25: -0.5% | Vacancia: 3.2% | Momentum: -15.0%,29.6601,-95.2258
76118,Fort Worth,TX,325750,Bajo Potencial,100.0,Crecimiento24: -0.1% | Crecimiento25: 0.0% | Vacancia: 3.1% | Momentum: -15.8%,32.8013,-97.1952
78220,San Antonio,TX,159891,Bajo Potencial,100.0,Crecimiento24: -5.4% | Crecimiento25: -3.7% | Vacancia: 4.0% | Momentum: -17.0%,29.4106,-98.4128
75402,Greenville,TX,276924,Bajo Potencial,100.0,Crecimiento24: -2.2% | Crecimiento25: -1.1% | Vacancia: 3.7% | Momentum: -17.3%,33.1047,-96.0927
79412,Lubbock,TX,123602,Bajo Potencial,100.0,Crecimiento24: -1.9% | Crecimiento25: -2.6% | Vacancia: 4.1% | Momentum: -14.1%,33.5463,-101.8577
75156,Payne Springs,TX,291057,Bajo Potencial,100.0,Crecimiento24: -4.9% | Crecimiento25: -0.5% | Vacancia: 14.4% | Momentum: -18.2%,32.2972,-96.1184
75143,,TX,279455,Bajo Potencial,100.0,Crecimiento24: -4.3% | Crecimiento25: 0.7% | Vacancia: 11.2% | Momentum: -17.7%,32.2486,-96.2161
78642,Liberty Hill,TX,508983,Bajo Potencial,100.0,Crecimiento24: -6.8% | Crecimiento25: -1.7% | Vacancia: 1.7% | Momentum: -25.6%,30.663,-97.9316
78163,Bulverde,TX,464018,Bajo Potencial,100.0,Crecimiento24: -3.7% | Crecimiento25: -1.7% | Vacancia: 2.5% | Momentum: -16.4%,29.7767,-98.4626
78751,Austin,TX,619192,Bajo Potencial,100.0,Crecimiento24: -6.2% | Crecimiento25: -4.1% | Vacancia: 4.1% | Momentum: -18.4%,30.3093,-97.7242
75203,Dallas,TX,208742,Bajo Potencial,100.0,Crecimiento24: -2.5% | Crecimiento25: -0.9% | Vacancia: 4.9% | Momentum: -18.6%,32.746,-96.807
76707,Waco,TX,145336,Bajo Potencial,100.0,Crecimiento24: -1.3% | Crecimiento25: -0.7% | Vacancia: 6.9% | Momentum: -16.5%,31.5527,-97.1588
75054,Grand Prairie,TX,497079,Bajo Potencial,100.0,Crecimiento24: -1.5% | Crecimiento25: 0.0% | Vacancia: 0.4% | Momentum: -16.9%,32.5907,-97.0405
78252,San Antonio,TX,248317,Bajo Potencial,100.0,Crecimiento24: -3.3% | Crecimiento25: -2.3% | Vacancia: 1.4% | Momentum: -17.8%,29.346,-98.6464
78264,San Antonio,TX,215389,Bajo Potencial,100.0,Crecimiento24: -7.3% | Crecimiento25: -3.1% | Vacancia: 4.8% | Momentum: -11.9%,29.1733,-98.4723
75951,Jasper,TX,166776,Bajo Potencial,100.0,Crecimiento24: -10.6% | Crecimiento25: -4.8% | Vacancia: 8.4% | Momentum: -14.6%,30.8673,-93.9977
75454,Melissa,TX,462362,Bajo Potencial,100.0,Crecimiento24: -1.9% | Crecimiento25: -1.1% | Vacancia: 1.0% | Momentum: -22.9%,33.2841,-96.574
78225,San Antonio,TX,125318,Bajo Potencial,100.0,Crecimiento24: -6.2% | Crecimiento25: -4.9% | Vacancia: 3.0% | Momentum: -12.4%,29.3875,-98.5245
78726,Austin,TX,726643,Bajo Potencial,100.0,Crecimiento24: -4.7% | Crecimiento25: -1.2% | Vacancia: 1.0% | Momentum: -22.1%,30.43,-97.8326
78611,Burnet,TX,418587,Bajo Potencial,100.0,Crecimiento24: -6.5% | Crecimiento25: -1.0% | Vacancia: 12.7% | Momentum: -23.4%,30.7766,-98.2642
78669,Spicewood,TX,738636,Bajo Potencial,100.0,Crecimiento24: -6.5% | Crecimiento25: -2.7% | Vacancia: 10.8% | Momentum: -25.6%,30.3899,-98.0539
78204,San Antonio,TX,185703,Bajo Potencial,100.0,Crecimiento24: -6.3% | Crecimiento25: -7.3% | Vacancia: 9.7% | Momentum: -11.2%,29.4059,-98.5078
78733,Austin,TX,1158245,Bajo Potencial,100.0,Crecimiento24: -4.0% | Crecimiento25: -1.6% | Vacancia: 2.9% | Momentum: -24.4%,30.3314,-97.8666
78736,Austin,TX,615495,Bajo Potencial,100.0,Crecimiento24: -5.6% | Crecimiento25: -2.4% | Vacancia: 2.4% | Momentum: -19.5%,30.2444,-97.916
78387,Sinton,TX,149579,Bajo Potencial,100.0,Crecimiento24: -8.7% | Crecimiento25: -1.1% | Vacancia: 6.5% | Momentum: -7.1%,28.0339,-97.5196
78701,Austin,TX,702095,Bajo Potencial,100.0,Crecimiento24: -9.4% | Crecimiento25: -7.2% | Vacancia: 6.3% | Momentum: -21.9%,30.2713,-97.7426
75979,Woodville,TX,147264,Bajo Potencial,100.0,Crecimiento24: -6.9% | Crecimiento25: 1.5% | Vacancia: 11.8% | Momentum: -10.7%,30.7752,-94.4155
75551,Atlanta,TX,172636,Bajo Potencial,100.0,Crecimiento24: -6.4% | Crecimiento25: -1.5% | Vacancia: 5.8% | Momentum: -16.2%,33.109,-94.1646
78756,Austin,TX,712450,Bajo Potencial,100.0,Crecimiento24: -8.5% | Crecimiento25: -3.0% | Vacancia: 2.8% | Momentum: -20.4%,30.3223,-97.739
78202,San Antonio,TX,167858,Bajo Potencial,100.0,Crecimiento24: -9.1% | Crecimiento25: -6.6% | Vacancia: 10.0% | Momentum: -18.2%,29.4275,-98.4601
76537,Jarrell,TX,266418,Bajo Potencial,100.0,Crecimiento24: -10.6% | Crecimiento25: -5.6% | Vacancia: 1.5% | Momentum: -29.7%,30.8119,-97.5942
78721,Austin,TX,452069,Bajo Potencial,100.0,Crecimiento24: -7.0% | Crecimiento25: -6.0% | Vacancia: 3.3% | Momentum: -21.3%,30.2721,-97.6868
79364,,TX,130315,Bajo Potencial,100.0,Crecimiento24: -2.1% | Crecimiento25: -0.4% | Vacancia: 5.2% | Momentum: -9.5%,33.4373,-101.6435
78730,Austin,TX,1121168,Bajo Potencial,100.0,Crecimiento24: -5.5% | Crecimiento25: -2.0% | Vacancia: 3.0% | Momentum: -24.6%,30.3607,-97.8241
78112,Elmendorf,TX,232485,Bajo Potencial,100.0,Crecimiento24: -4.9% | Crecimiento25: -0.3% | Vacancia: 1.7% | Momentum: -11.6%,29.2308,-98.372
75114,Crandall,TX,270084,Bajo Potencial,100.0,Crecimiento24: -2.9% | Crecimiento25: -5.4% | Vacancia: 1.4% | Momentum: -20.7%,32.6279,-96.4558
78834,Carrizo Springs,TX,137790,Bajo Potencial,100.0,Crecimiento24: -2.2% | Crecimiento25: -2.1% | Vacancia: 9.7% | Momentum: -4.2%,28.5278,-99.8635
76571,Salado,TX,526805,Bajo Potencial,100.0,Crecimiento24: -2.2% | Crecimiento25: 0.3% | Vacancia: 1.7% | Momentum: -19.3%,30.9494,-97.533
76655,Lorena,TX,346542,Bajo Potencial,100.0,Crecimiento24: -0.5% | Crecimiento25: -0.1% | Vacancia: 1.7% | Momentum: -16.8%,31.4093,-97.2302
75135,Caddo Mills,TX,332333,Bajo Potencial,100.0,Crecimiento24: -3.0% | Crecimiento25: -0.1% | Vacancia: 1.8% | Momentum: -16.6%,33.0683,-96.2391
78639,Kingsland,TX,452921,Bajo Potencial,100.0,Crecimiento24: -6.8% | Crecimiento25: -2.5% | Vacancia: 18.2% | Momentum: -23.7%,30.6662,-98.4475
78648,Luling,TX,235232,Bajo Potencial,100.0,Crecimiento24: -6.0% | Crecimiento25: -2.2% | Vacancia: 3.6% | Momentum: -19.0%,29.6826,-97.6499
76060,Kennedale,TX,389610,Bajo Potencial,100.0,Crecimiento24: -0.8% | Crecimiento25: 0.2% | Vacancia: 2.9% | Momentum: -15.0%,32.6432,-97.2139
76661,Marlin,TX,101339,Bajo Potencial,100.0,Crecimiento24: -9.5% | Crecimiento25: -3.3% | Vacancia: 10.5% | Momentum: -11.0%,31.3036,-96.8889
78605,Bertram,TX,444953,Bajo Potencial,100.0,Crecimiento24: -2.9% | Crecimiento25: -1.4% | Vacancia: 3.2% | Momentum: -21.9%,30.7411,-98.0529
79411,Lubbock,TX,102859,Bajo Potencial,100.0,Crecimiento24: -1.2% | Crecimiento25: -2.9% | Vacancia: 9.1% | Momentum: -15.4%,33.5704,-101.8626
78226,San Antonio,TX,142505,Bajo Potencial,100.0,Crecimiento24: -5.0% | Crecimiento25: -5.1% | Vacancia: 10.5% | Momentum: -15.1%,29.393,-98.5511
76579,Troy,TX,266613,Bajo Potencial,100.0,Crecimiento24: -2.1% | Crecimiento25: -1.5% | Vacancia: 3.2% | Momentum: -18.5%,31.1759,-97.2852
76825,Brady,TX,127144,Bajo Potencial,100.0,Crecimiento24: -9.7% | Crecimiento25: -7.2% | Vacancia: 12.4% | Momentum: -20.9%,31.1509,-99.3372
78722,Austin,TX,593603,Bajo Potencial,100.0,Crecimiento24: -7.8% | Crecimiento25: -3.4% | Vacancia: 1.4% | Momentum: -19.1%,30.2893,-97.715
79088,Tulia,TX,95921,Bajo Potencial,100.0,Crecimiento24: -10.4% | Crecimiento25: -3.6% | Vacancia: 7.4% | Momentum: -17.3%,34.5583,-101.8039
75559,De Kalb,TX,205871,Bajo Potencial,100.0,Crecimiento24: -3.4% | Crecimiento25: -5.8% | Vacancia: 11.3% | Momentum: -14.7%,33.5087,-94.6163
78052,Lytle,TX,281646,Bajo Potencial,100.0,Crecimiento24: -6.4% | Crecimiento25: -1.9% | Vacancia: 5.9% | Momentum: -13.7%,29.2366,-98.7945
78619,Driftwood,TX,944065,Bajo Potencial,100.0,Crecimiento24: -5.1% | Crecimiento25: -1.5% | Vacancia: 0.9% | Momentum: -26.8%,30.1072,-98.0327
76559,Nolanville,TX,310340,Bajo Potencial,100.0,Crecimiento24: -1.5% | Crecimiento25: -0.3% | Vacancia: 3.1% | Momentum: -17.6%,31.0833,-97.5941
78164,Yorktown,TX,214600,Bajo Potencial,100.0,Crecimiento24: -3.8% | Crecimiento25: -7.4% | Vacancia: 15.4% | Momentum: -9.9%,28.9892,-97.5121
78208,San Antonio,TX,179318,Bajo Potencial,100.0,Crecimiento24: -5.0% | Crecimiento25: -7.8% | Vacancia: 11.1% | Momentum: -15.2%,29.44,-98.459
75166,Lavon,TX,377376,Bajo Potencial,100.0,Crecimiento24: -4.9% | Crecimiento25: -3.4% | Vacancia: 0.0% | Momentum: -21.9%,33.0139,-96.4377
75426,Clarksville,TX,123596,Bajo Potencial,100.0,Crecimiento24: -10.4% | Crecimiento25: -2.8% | Vacancia: 12.4% | Momentum: -12.4%,33.6236,-95.0461
76950,Sonora,TX,172742,Bajo Potencial,100.0,Crecimiento24: -7.9% | Crecimiento25: 0.6% | Vacancia: 16.0% | Momentum: -7.5%,30.5558,-100.6307
79521,Haskell,TX,98154,Bajo Potencial,100.0,Crecimiento24: -4.2% | Crecimiento25: -8.0% | Vacancia: 18.8% | Momentum: -16.2%,33.158,-99.7309
76071,Newark,TX,313918,Bajo Potencial,100.0,Crecimiento24: -2.0% | Crecimiento25: -1.4% | Vacancia: 3.2% | Momentum: -16.2%,33.007,-97.4923
75569,Nash,TX,158823,Bajo Potencial,100.0,Crecimiento24: -2.4% | Crecimiento25: -5.0% | Vacancia: 3.3% | Momentum: -12.4%,33.4344,-94.1219
76430,Albany,TX,174690,Bajo Potencial,100.0,Crecimiento24: -9.4% | Crecimiento25: -2.1% | Vacancia: 6.3% | Momentum: -14.2%,32.719,-99.3196
75163,Trinidad,TX,328664,Bajo Potencial,100.0,Crecimiento24: -2.0% | Crecimiento25: -2.0% | Vacancia: 19.0% | Momentum: -18.4%,32.1383,-96.0831
75643,,TX,192442,Bajo Potencial,100.0,Crecimiento24: -8.7% | Crecimiento25: -0.9% | Vacancia: 17.3% | Momentum: -12.4%,32.0334,-94.38
76265,Saint Jo,TX,266655,Bajo Potencial,100.0,Crecimiento24: -12.6% | Crecimiento25: -3.1% | Vacancia: 13.5% | Momentum: -21.4%,33.744,-97.5568
76475,Strawn,TX,320274,Bajo Potencial,100.0,Crecimiento24: -6.0% | Crecimiento25: -2.4% | Vacancia: 37.0% | Momentum: -16.8%,32.5945,-98.4995
78656,Maxwell,TX,278533,Bajo Potencial,100.0,Crecimiento24: -7.6% | Crecimiento25: -5.2% | Vacancia: 0.4% | Momentum: -23.0%,29.8953,-97.8144
76554,Little River Academy,TX,214648,Bajo Potencial,100.0,Crecimiento24: -1.1% | Crecimiento25: -0.8% | Vacancia: 4.2% | Momentum: -16.8%,30.9863,-97.3586
75929,Broaddus,TX,200371,Bajo Potencial,100.0,Crecimiento24: -12.0% | Crecimiento25: -3.8% | Vacancia: 48.7% | Momentum: -13.2%,31.2952,-94.2156
78623,Blanco,TX,498153,Bajo Potencial,100.0,Crecimiento24: -2.1% | Crecimiento25: -0.4% | Vacancia: 5.3% | Momentum: -19.4%,29.9627,-98.2088
75040,Garland,TX,291280,Bajo Potencial,99.9,Crecimiento24: 1.1% | Crecimiento25: 0.1% | Vacancia: 1.7% | Momentum: -15.7%,32.9227,-96.6248
75043,Garland,TX,301537,Bajo Potencial,99.9,Crecimiento24: 1.1% | Crecimiento25: -0.8% | Vacancia: 2.3% | Momentum: -15.4%,32.8565,-96.5999
75227,Dallas,TX,237963,Bajo Potencial,99.9,Crecimiento24: 0.3% | Crecimiento25: 0.3% | Vacancia: 2.3% | Momentum: -14.7%,32.7672,-96.6836
75044,Garland,TX,352774,Bajo Potencial,99.9,Crecimiento24: 1.0% | Crecimiento25: -0.8% | Vacancia: 1.1% | Momentum: -14.8%,32.9522,-96.6654
78414,Corpus Christi,TX,309616,Bajo Potencial,99.9,Crecimiento24: -1.6% | Crecimiento25: -0.1% | Vacancia: 2.7% | Momentum: -10.4%,27.677,-97.365
77571,La Porte,TX,255962,Bajo Potencial,99.9,Crecimiento24: 0.4% | Crecimiento25: 0.3% | Vacancia: 1.6% | Momentum: -10.3%,29.6884,-95.0513
75089,Rowlett,TX,392314,Bajo Potencial,99.9,Crecimiento24: 0.3% | Crecimiento25: -1.0% | Vacancia: 1.6% | Momentum: -18.2%,32.9346,-96.5544
76014,Arlington,TX,261957,Bajo Potencial,99.9,Crecimiento24: 0.4% | Crecimiento25: -0.2% | Vacancia: 1.6% | Momentum: -15.6%,32.6954,-97.0876
75036,Frisco,TX,583140,Bajo Potencial,99.9,Crecimiento24: 0.8% | Crecimiento25: -1.3% | Vacancia: 0.5% | Momentum: -20.4%,33.1499,-96.8241
76018,Arlington,TX,295666,Bajo Potencial,99.9,Crecimiento24: -0.5% | Crecimiento25: -0.8% | Vacancia: 1.1% | Momentum: -16.8%,32.6548,-97.092
78212,San Antonio,TX,282603,Bajo Potencial,99.9,Crecimiento24: -3.6% | Crecimiento25: -3.2% | Vacancia: 7.6% | Momentum: -10.6%,29.4388,-98.4935
75048,Sachse,TX,453532,Bajo Potencial,99.9,Crecimiento24: 0.8% | Crecimiento25: 0.0% | Vacancia: 0.3% | Momentum: -17.6%,32.9643,-96.6012
76104,Fort Worth,TX,188865,Bajo Potencial,99.9,Crecimiento24: -2.0% | Crecimiento25: 1.6% | Vacancia: 8.5% | Momentum: -15.4%,32.7256,-97.3184
77085,Houston,TX,235011,Bajo Potencial,99.9,Crecimiento24: 0.2% | Crecimiento25: 0.0% | Vacancia: 1.1% | Momentum: -14.8%,29.6218,-95.4819
76015,Arlington,TX,283450,Bajo Potencial,99.9,Crecimiento24: 0.4% | Crecimiento25: -0.1% | Vacancia: 2.8% | Momentum: -15.1%,32.6931,-97.1347
75442,Farmersville,TX,364309,Bajo Potencial,99.9,Crecimiento24: -1.4% | Crecimiento25: 1.1% | Vacancia: 2.6% | Momentum: -16.2%,33.1659,-96.3686
75633,Carthage,TX,189530,Bajo Potencial,99.9,Crecimiento24: -2.2% | Crecimiento25: -0.4% | Vacancia: 10.2% | Momentum: -8.0%,32.1544,-94.3527
79772,Pecos,TX,172515,Bajo Potencial,99.9,Crecimiento24: -26.2% | Crecimiento25: -5.5% | Vacancia: 6.6% | Momentum: -15.1%,31.4467,-103.5791
78076,Zapata,TX,140353,Bajo Potencial,99.9,Crecimiento24: -10.5% | Crecimiento25: -0.5% | Vacancia: 10.1% | Momentum: -4.2%,26.8897,-99.2506
79556,Sweetwater,TX,107965,Bajo Potencial,99.9,Crecimiento24: -9.7% | Crecimiento25: -4.3% | Vacancia: 9.4% | Momentum: -6.1%,32.4726,-100.3979
78390,Taft,TX,143331,Bajo Potencial,99.9,Crecimiento24: -7.3% | Crecimiento25: -8.3% | Vacancia: 10.4% | Momentum: -3.6%,27.9765,-97.3966
76567,Rockdale,TX,243609,Bajo Potencial,99.9,Crecimiento24: -1.7% | Crecimiento25: 0.7% | Vacancia: 5.9% | Momentum: -15.7%,30.6583,-97.0079
76424,Breckenridge,TX,142038,Bajo Potencial,99.9,Crecimiento24: -17.9% | Crecimiento25: -5.8% | Vacancia: 10.9% | Momentum: -22.1%,32.7532,-98.9099
77879,Somerville,TX,205495,Bajo Potencial,99.9,Crecimiento24: -6.7% | Crecimiento25: 0.2% | Vacancia: 17.2% | Momentum: -7.7%,30.4076,-96.5358
76821,Ballinger,TX,137161,Bajo Potencial,99.9,Crecimiento24: -3.3% | Crecimiento25: -1.7% | Vacancia: 9.9% | Momentum: -7.1%,31.7468,-99.9589
79731,Crane,TX,188494,Bajo Potencial,99.9,Crecimiento24: -2.6% | Crecimiento25: -2.5% | Vacancia: 3.1% | Momentum: -8.6%,31.3969,-102.3544
77984,Shiner,TX,303337,Bajo Potencial,99.9,Crecimiento24: -2.4% | Crecimiento25: 1.5% | Vacancia: 9.5% | Momentum: -14.2%,29.428,-97.164
79373,Tahoka,TX,146492,Bajo Potencial,99.9,Crecimiento24: -7.6% | Crecimiento25: -4.6% | Vacancia: 8.1% | Momentum: -5.9%,33.1988,-101.822
79014,Canadian,TX,164039,Bajo Potencial,99.9,Crecimiento24: -10.6% | Crecimiento25: 1.8% | Vacancia: 9.3% | Momentum: -5.5%,35.9045,-100.3841
75417,Bogata,TX,179446,Bajo Potencial,99.9,Crecimiento24: -4.5% | Crecimiento25: -4.6% | Vacancia: 10.0% | Momentum: -12.9%,33.4699,-95.1937
75631,,TX,202477,Bajo Potencial,99.9,Crecimiento24: -6.6% | Crecimiento25: -0.6% | Vacancia: 8.1% | Momentum: -10.2%,32.2452,-94.4555
75554,Avery,TX,206385,Bajo Potencial,99.9,Crecimiento24: -4.8% | Crecimiento25: -1.9% | Vacancia: 9.0% | Momentum: -13.9%,33.5339,-94.7867
78207,San Antonio,TX,108598,Bajo Potencial,99.8,Crecimiento24: -5.5% | Crecimiento25: -4.3% | Vacancia: 3.8% | Momentum: -12.0%,29.4229,-98.526
78201,San Antonio,TX,182064,Bajo Potencial,99.8,Crecimiento24: -7.1% | Crecimiento25: -3.4% | Vacancia: 4.9% | Momentum: -12.3%,29.4711,-98.5356
77034,Houston,TX,223475,Bajo Potencial,99.8,Crecimiento24: 0.6% | Crecimiento25: -0.4% | Vacancia: 4.8% | Momentum: -12.5%,29.6364,-95.2216
77340,Huntsville,TX,276045,Bajo Potencial,99.8,Crecimiento24: -3.7% | Crecimiento25: 0.1% | Vacancia: 6.1% | Momentum: -12.8%,30.6448,-95.5798
76013,Pantego,TX,317221,Bajo Potencial,99.8,Crecimiento24: 0.3% | Crecimiento25: -0.2% | Vacancia: 3.0% | Momentum: -14.8%,32.7199,-97.1442
77357,New Caney,TX,268566,Bajo Potencial,99.8,Crecimiento24: -3.2% | Crecimiento25: -1.5% | Vacancia: 4.3% | Momentum: -14.0%,30.1579,-95.198
77327,Dayton,TX,210286,Bajo Potencial,99.8,Crecimiento24: -0.8% | Crecimiento25: -1.2% | Vacancia: 5.2% | Momentum: -8.3%,30.33,-95.0202
75088,,TX,371075,Bajo Potencial,99.8,Crecimiento24: 0.2% | Crecimiento25: -0.9% | Vacancia: 1.0% | Momentum: -17.5%,32.9031,-96.5472
77022,Houston,TX,220477,Bajo Potencial,99.8,Crecimiento24: 0.0% | Crecimiento25: 0.3% | Vacancia: 6.1% | Momentum: -10.4%,29.8299,-95.3769
77550,Galveston,TX,309421,Bajo Potencial,99.8,Crecimiento24: -1.5% | Crecimiento25: -4.7% | Vacancia: 17.9% | Momentum: -22.3%,29.2983,-94.793
77051,Houston,TX,193591,Bajo Potencial,99.8,Crecimiento24: -2.3% | Crecimiento25: -2.6% | Vacancia: 4.8% | Momentum: -13.5%,29.6579,-95.3688
76207,Denton,TX,370038,Bajo Potencial,99.8,Crecimiento24: -2.5% | Crecimiento25: -0.1% | Vacancia: 1.5% | Momentum: -17.1%,33.2285,-97.1813
77423,Pattison,TX,381262,Bajo Potencial,99.8,Crecimiento24: -0.8% | Crecimiento25: 0.4% | Vacancia: 3.2% | Momentum: -13.7%,29.8072,-95.9755
78255,San Antonio,TX,541284,Bajo Potencial,99.8,Crecimiento24: 0.1% | Crecimiento25: 0.5% | Vacancia: 1.7% | Momentum: -15.5%,29.6701,-98.6873
77306,Conroe,TX,232516,Bajo Potencial,99.8,Crecimiento24: -3.0% | Crecimiento25: -2.0% | Vacancia: 2.5% | Momentum: -14.9%,30.2277,-95.2851
78645,Lago Vista,TX,436896,Bajo Potencial,99.8,Crecimiento24: -8.7% | Crecimiento25: -4.3% | Vacancia: 6.6% | Momentum: -27.2%,30.449,-97.9669
76384,Vernon,TX,96256,Bajo Potencial,99.8,Crecimiento24: -4.5% | Crecimiento25: -5.8% | Vacancia: 8.8% | Momentum: -7.5%,34.1491,-99.303
76084,,TX,388426,Bajo Potencial,99.8,Crecimiento24: -3.4% | Crecimiento25: -1.2% | Vacancia: 1.3% | Momentum: -16.9%,32.433,-97.1087
78063,Pipe Creek,TX,322043,Bajo Potencial,99.8,Crecimiento24: -4.3% | Crecimiento25: -0.9% | Vacancia: 8.1% | Momentum: -15.0%,29.6796,-98.9484
78652,Austin,TX,487536,Bajo Potencial,99.8,Crecimiento24: -6.4% | Crecimiento25: -3.4% | Vacancia: 0.2% | Momentum: -22.7%,30.1238,-97.8393
79382,Wolfforth,TX,256664,Bajo Potencial,99.8,Crecimiento24: -0.6% | Crecimiento25: -1.0% | Vacancia: 2.1% | Momentum: -12.0%,33.5059,-102.0091
77554,Galveston,TX,572498,Bajo Potencial,99.8,Crecimiento24: -3.4% | Crecimiento25: -2.1% | Vacancia: 55.7% | Momentum: -21.9%,29.2243,-94.9637
78124,Marion,TX,354795,Bajo Potencial,99.8,Crecimiento24: -1.5% | Crecimiento25: -1.6% | Vacancia: 2.9% | Momentum: -13.3%,29.5683,-98.1517
79512,Colorado City,TX,95218,Bajo Potencial,99.8,Crecimiento24: -17.6% | Crecimiento25: 0.4% | Vacancia: 12.9% | Momentum: -11.5%,32.3987,-100.8609
78119,Kenedy,TX,177076,Bajo Potencial,99.8,Crecimiento24: -18.2% | Crecimiento25: -0.6% | Vacancia: 8.0% | Momentum: -5.1%,28.8046,-97.8456
77547,Galena Park,TX,167564,Bajo Potencial,99.8,Crecimiento24: -0.8% | Crecimiento25: -3.1% | Vacancia: 2.0% | Momentum: -13.5%,29.7392,-95.24
75972,San Augustine,TX,182785,Bajo Potencial,99.8,Crecimiento24: -12.7% | Crecimiento25: -4.4% | Vacancia: 15.7% | Momentum: -8.7%,31.5152,-94.1326
77565,Kemah,TX,380008,Bajo Potencial,99.8,Crecimiento24: -0.6% | Crecimiento25: 0.4% | Vacancia: 4.5% | Momentum: -11.2%,29.5236,-95.0276
78401,Corpus Christi,TX,105308,Bajo Potencial,99.8,Crecimiento24: -15.9% | Crecimiento25: -10.1% | Vacancia: 13.1% | Momentum: -11.9%,27.7941,-97.403
78022,George West,TX,252660,Bajo Potencial,99.8,Crecimiento24: -1.4% | Crecimiento25: -0.5% | Vacancia: 10.5% | Momentum: -2.3%,28.3204,-98.1162
78069,Somerset,TX,228086,Bajo Potencial,99.8,Crecimiento24: -3.8% | Crecimiento25: 0.2% | Vacancia: 4.0% | Momentum: -9.1%,29.2205,-98.6678
77871,Normangee,TX,311652,Bajo Potencial,99.8,Crecimiento24: -2.2% | Crecimiento25: 0.2% | Vacancia: 13.2% | Momentum: -13.8%,31.0705,-96.125
78373,Port Aransas,TX,555920,Bajo Potencial,99.8,Crecimiento24: -3.3% | Crecimiento25: -6.7% | Vacancia: 121.2% | Momentum: -33.5%,27.7707,-97.1051
77095,Houston,TX,333871,Bajo Potencial,99.7,Crecimiento24: 0.1% | Crecimiento25: 0.7% | Vacancia: 1.4% | Momentum: -14.7%,29.8941,-95.6481
77099,Houston,TX,220425,Bajo Potencial,99.7,Crecimiento24: 1.4% | Crecimiento25: 0.1% | Vacancia: 2.9% | Momentum: -14.5%,29.6709,-95.5866
79424,Lubbock,TX,288781,Bajo Potencial,99.7,Crecimiento24: 0.2% | Crecimiento25: -0.5% | Vacancia: 2.3% | Momentum: -10.9%,33.5159,-101.9344
77502,Pasadena,TX,212143,Bajo Potencial,99.7,Crecimiento24: 0.1% | Crecimiento25: -0.2% | Vacancia: 2.2% | Momentum: -11.1%,29.6789,-95.1982
77087,Houston,TX,189591,Bajo Potencial,99.7,Crecimiento24: -4.0% | Crecimiento25: -1.8% | Vacancia: 3.6% | Momentum: -15.2%,29.6876,-95.3011
79072,Plainview,TX,119999,Bajo Potencial,99.7,Crecimiento24: -5.7% | Crecimiento25: -1.2% | Vacancia: 6.8% | Momentum: -10.9%,34.1962,-101.7259
76208,Denton,TX,420489,Bajo Potencial,99.7,Crecimiento24: -1.6% | Crecimiento25: -0.1% | Vacancia: 2.4% | Momentum: -17.1%,33.2117,-97.0612
76111,Fort Worth,TX,224144,Bajo Potencial,99.7,Crecimiento24: -0.8% | Crecimiento25: 1.0% | Vacancia: 4.2% | Momentum: -14.7%,32.7824,-97.3003
79414,Lubbock,TX,153779,Bajo Potencial,99.7,Crecimiento24: -0.1% | Crecimiento25: -0.9% | Vacancia: 4.5% | Momentum: -11.9%,33.5497,-101.9187
76247,Justin,TX,418575,Bajo Potencial,99.7,Crecimiento24: -1.8% | Crecimiento25: -0.1% | Vacancia: 1.9% | Momentum: -18.0%,33.0734,-97.3093
77378,Willis,TX,245507,Bajo Potencial,99.7,Crecimiento24: -2.3% | Crecimiento25: -1.9% | Vacancia: 1.4% | Momentum: -13.4%,30.4441,-95.4506
75215,Dallas,TX,182764,Bajo Potencial,99.7,Crecimiento24: -3.4% | Crecimiento25: -3.3% | Vacancia: 5.4% | Momentum: -21.5%,32.7582,-96.7623
79401,Lubbock,TX,148483,Bajo Potencial,99.7,Crecimiento24: -3.2% | Crecimiento25: -1.5% | Vacancia: 11.5% | Momentum: -12.5%,33.5865,-101.8606
75140,Grand Saline,TX,234706,Bajo Potencial,99.7,Crecimiento24: -1.4% | Crecimiento25: 0.4% | Vacancia: 5.6% | Momentum: -10.7%,32.6635,-95.7064
78026,Jourdanton,TX,234683,Bajo Potencial,99.7,Crecimiento24: -3.7% | Crecimiento25: -1.5% | Vacancia: 6.2% | Momentum: -10.9%,28.903,-98.544
75228,Dallas,TX,291713,Bajo Potencial,99.6,Crecimiento24: 0.2% | Crecimiento25: -0.4% | Vacancia: 4.4% | Momentum: -13.4%,32.825,-96.6784
77082,Houston,TX,260670,Bajo Potencial,99.6,Crecimiento24: -0.0% | Crecimiento25: -0.6% | Vacancia: 3.3% | Momentum: -13.5%,29.7223,-95.6285
78228,San Antonio,TX,175380,Bajo Potencial,99.6,Crecimiento24: -5.8% | Crecimiento25: -2.3% | Vacancia: 3.8% | Momentum: -13.5%,29.4589,-98.5699
77042,Houston,TX,281312,Bajo Potencial,99.6,Crecimiento24: 1.0% | Crecimiento25: -1.1% | Vacancia: 5.3% | Momentum: -9.1%,29.7404,-95.5589
78216,San Antonio,TX,291059,Bajo Potencial,99.6,Crecimiento24: 1.1% | Crecimiento25: -1.5% | Vacancia: 6.0% | Momentum: -10.6%,29.5334,-98.4975
76706,Waco,TX,244566,Bajo Potencial,99.6,Crecimiento24: 0.8% | Crecimiento25: 0.1% | Vacancia: 5.2% | Momentum: -15.0%,31.5171,-97.1198
77049,Houston,TX,246633,Bajo Potencial,99.6,Crecimiento24: -0.2% | Crecimiento25: 0.0% | Vacancia: 1.7% | Momentum: -14.1%,29.8235,-95.1848
77304,Conroe,TX,332584,Bajo Potencial,99.6,Crecimiento24: -1.8% | Crecimiento25: -0.7% | Vacancia: 1.7% | Momentum: -13.9%,30.3217,-95.5285
76543,Killeen,TX,179932,Bajo Potencial,99.6,Crecimiento24: -0.6% | Crecimiento25: 0.0% | Vacancia: 5.3% | Momentum: -18.8%,31.1172,-97.6651
76110,Fort Worth,TX,217780,Bajo Potencial,99.6,Crecimiento24: -2.0% | Crecimiento25: -0.8% | Vacancia: 5.0% | Momentum: -13.8%,32.7065,-97.3375
76114,River Oaks,TX,234056,Bajo Potencial,99.6,Crecimiento24: 1.0% | Crecimiento25: -0.7% | Vacancia: 3.5% | Momentum: -14.2%,32.7796,-97.3928
77356,Montgomery,TX,366013,Bajo Potencial,99.6,Crecimiento24: -0.2% | Crecimiento25: -0.1% | Vacancia: 6.7% | Momentum: -15.7%,30.4411,-95.7097
75160,Terrell,TX,265576,Bajo Potencial,99.6,Crecimiento24: 0.0% | Crecimiento25: -0.4% | Vacancia: 1.7% | Momentum: -16.3%,32.7515,-96.2831
75116,Duncanville,TX,276940,Bajo Potencial,99.6,Crecimiento24: 1.1% | Crecimiento25: -0.0% | Vacancia: 2.4% | Momentum: -15.3%,32.6587,-96.9114
77026,Houston,TX,156987,Bajo Potencial,99.6,Crecimiento24: -1.9% | Crecimiento25: -4.0% | Vacancia: 7.4% | Momentum: -12.7%,29.7972,-95.3288
76520,Cameron,TX,227325,Bajo Potencial,99.6,Crecimiento24: -4.9% | Crecimiento25: 1.2% | Vacancia: 4.8% | Momentum: -10.8%,30.8527,-96.9766
76437,Cisco,TX,159596,Bajo Potencial,99.6,Crecimiento24: -5.0% | Crecimiento25: -5.0% | Vacancia: 8.3% | Momentum: -16.9%,32.38,-98.9865
76448,Eastland,TX,175259,Bajo Potencial,99.6,Crecimiento24: -2.6% | Crecimiento25: -3.5% | Vacancia: 15.1% | Momentum: -13.4%,32.3994,-98.8071
76259,Ponder,TX,381662,Bajo Potencial,99.6,Crecimiento24: -1.4% | Crecimiento25: 0.6% | Vacancia: 0.2% | Momentum: -16.1%,33.1774,-97.2848
77962,Ganado,TX,222792,Bajo Potencial,99.6,Crecimiento24: -4.5% | Crecimiento25: 1.7% | Vacancia: 7.2% | Momentum: -5.9%,29.0308,-96.5031
79311,Abernathy,TX,164614,Bajo Potencial,99.6,Crecimiento24: -1.5% | Crecimiento25: 0.2% | Vacancia: 4.7% | Momentum: -8.3%,33.85,-101.8611
75973,Shelbyville,TX,258334,Bajo Potencial,99.6,Crecimiento24: -5.9% | Crecimiento25: 1.8% | Vacancia: 16.2% | Momentum: -6.2%,31.7131,-93.9698
75846,,TX,297695,Bajo Potencial,99.6,Crecimiento24: -6.1% | Crecimiento25: 3.5% | Vacancia: 17.4% | Momentum: -12.3%,31.3739,-96.1918
76366,Holliday,TX,195547,Bajo Potencial,99.6,Crecimiento24: -3.5% | Crecimiento25: 1.0% | Vacancia: 6.0% | Momentum: -11.8%,33.8162,-98.6951
77975,Moulton,TX,232746,Bajo Potencial,99.6,Crecimiento24: -6.7% | Crecimiento25: -0.7% | Vacancia: 13.4% | Momentum: -14.5%,29.57,-97.1031
75555,Bivins,TX,187183,Bajo Potencial,99.6,Crecimiento24: -5.2% | Crecimiento25: 1.3% | Vacancia: 9.2% | Momentum: -12.6%,32.966,-94.1404
76671,Whitney,TX,210979,Bajo Potencial,99.6,Crecimiento24: -4.1% | Crecimiento25: 2.5% | Vacancia: 18.1% | Momentum: -17.2%,32.0195,-97.5608
77449,Katy,TX,278858,Bajo Potencial,99.5,Crecimiento24: -1.2% | Crecimiento25: 0.0% | Vacancia: 1.2% | Momentum: -17.2%,29.8323,-95.736
77084,Houston,TX,274553,Bajo Potencial,99.5,Crecimiento24: -0.7% | Crecimiento25: 0.1% | Vacancia: 2.6% | Momentum: -16.0%,29.844,-95.6623
78641,Leander,TX,454868,Bajo Potencial,99.5,Crecimiento24: -8.8% | Crecimiento25: -2.6% | Vacancia: 0.9% | Momentum: -28.6%,30.5835,-97.8575
75150,Mesquite,TX,266003,Bajo Potencial,99.5,Crecimiento24: 1.3% | Crecimiento25: -1.6% | Vacancia: 3.5% | Momentum: -15.4%,32.8154,-96.6307
78240,San Antonio,TX,266075,Bajo Potencial,99.5,Crecimiento24: -1.4% | Crecimiento25: -1.2% | Vacancia: 5.2% | Momentum: -14.5%,29.5189,-98.6006
78251,San Antonio,TX,267833,Bajo Potencial,99.5,Crecimiento24: -2.7% | Crecimiento25: -2.1% | Vacancia: 1.6% | Momentum: -16.8%,29.4597,-98.6555
77093,Houston,TX,174845,Bajo Potencial,99.5,Crecimiento24: -2.2% | Crecimiento25: -0.8% | Vacancia: 2.9% | Momentum: -14.0%,29.8617,-95.3403
78582,Rio Grande City,TX,136789,Bajo Potencial,99.5,Crecimiento24: -3.7% | Crecimiento25: -6.7% | Vacancia: 5.3% | Momentum: -4.3%,26.3942,-98.8104
75154,Red Oak,TX,356912,Bajo Potencial,99.5,Crecimiento24: -0.4% | Crecimiento25: 0.1% | Vacancia: 1.1% | Momentum: -15.2%,32.5185,-96.8071
78221,San Antonio,TX,177348,Bajo Potencial,99.5,Crecimiento24: -6.1% | Crecimiento25: -2.9% | Vacancia: 4.3% | Momentum: -12.3%,29.3309,-98.5054
76065,Midlothian,TX,456522,Bajo Potencial,99.5,Crecimiento24: -0.5% | Crecimiento25: 0.2% | Vacancia: 1.1% | Momentum: -15.1%,32.4757,-96.9936
76112,Fort Worth,TX,248836,Bajo Potencial,99.5,Crecimiento24: 0.9% | Crecimiento25: 0.6% | Vacancia: 4.6% | Momentum: -15.8%,32.7493,-97.2181
76226,Argyle,TX,598380,Bajo Potencial,99.5,Crecimiento24: -1.9% | Crecimiento25: -0.5% | Vacancia: 0.6% | Momentum: -19.6%,33.1062,-97.16
78717,Austin,TX,589958,Bajo Potencial,99.5,Crecimiento24: -6.5% | Crecimiento25: -1.0% | Vacancia: 1.0% | Momentum: -23.4%,30.506,-97.7472
76548,Harker Heights,TX,297414,Bajo Potencial,99.5,Crecimiento24: -2.6% | Crecimiento25: -1.2% | Vacancia: 2.5% | Momentum: -17.5%,31.0286,-97.6115
76020,Azle,TX,331517,Bajo Potencial,99.5,Crecimiento24: -1.6% | Crecimiento25: 0.4% | Vacancia: 4.0% | Momentum: -15.1%,32.9035,-97.5412
76705,Lacy-Lakeview,TX,209719,Bajo Potencial,99.5,Crecimiento24: -2.6% | Crecimiento25: 1.1% | Vacancia: 4.2% | Momentum: -15.6%,31.6403,-97.0963
78729,Austin,TX,447865,Bajo Potencial,99.5,Crecimiento24: -5.7% | Crecimiento25: -3.5% | Vacancia: 3.1% | Momentum: -21.3%,30.4521,-97.7688
78211,San Antonio,TX,126441,Bajo Potencial,99.5,Crecimiento24: -8.2% | Crecimiento25: -5.7% | Vacancia: 2.9% | Momentum: -15.0%,29.3499,-98.5638
77598,Houston,TX,260414,Bajo Potencial,99.5,Crecimiento24: 1.4% | Crecimiento25: -0.9% | Vacancia: 3.4% | Momentum: -12.4%,29.5564,-95.144
77545,Fresno,TX,285344,Bajo Potencial,99.5,Crecimiento24: -1.1% | Crecimiento25: -0.0% | Vacancia: 2.5% | Momentum: -15.1%,29.5293,-95.4626
76048,Granbury,TX,318793,Bajo Potencial,99.5,Crecimiento24: -1.1% | Crecimiento25: -1.1% | Vacancia: 8.2% | Momentum: -14.8%,32.425,-97.7742
77586,El Lago,TX,350231,Bajo Potencial,99.5,Crecimiento24: -0.2% | Crecimiento25: -0.2% | Vacancia: 3.2% | Momentum: -11.3%,29.5832,-95.037
78148,Universal City,TX,272241,Bajo Potencial,99.5,Crecimiento24: -1.4% | Crecimiento25: -0.6% | Vacancia: 1.2% | Momentum: -14.3%,29.5465,-98.2954
77303,Conroe,TX,272547,Bajo Potencial,99.5,Crecimiento24: -1.5% | Crecimiento25: -1.3% | Vacancia: 2.7% | Momentum: -14.9%,30.3814,-95.3749
75401,Greenville,TX,206744,Bajo Potencial,99.5,Crecimiento24: -0.4% | Crecimiento25: -0.3% | Vacancia: 4.1% | Momentum: -19.3%,33.1854,-96.1304
76067,Mineral Wells,TX,199283,Bajo Potencial,99.5,Crecimiento24: -4.9% | Crecimiento25: -0.4% | Vacancia: 4.9% | Momentum: -19.3%,32.8085,-98.1128
77318,Willis,TX,331446,Bajo Potencial,99.5,Crecimiento24: -1.9% | Crecimiento25: 0.8% | Vacancia: 5.6% | Momentum: -13.5%,30.4416,-95.5394
78070,Canyon Lake,TX,581845,Bajo Potencial,99.5,Crecimiento24: -0.8% | Crecimiento25: 0.9% | Vacancia: 2.3% | Momentum: -16.6%,29.9238,-98.3788
75236,Dallas,TX,278277,Bajo Potencial,99.5,Crecimiento24: 1.7% | Crecimiento25: -1.4% | Vacancia: 2.3% | Momentum: -16.3%,32.69,-96.9177
77372,Splendora,TX,241015,Bajo Potencial,99.5,Crecimiento24: -1.6% | Crecimiento25: -0.3% | Vacancia: 2.9% | Momentum: -11.8%,30.2326,-95.1993
78073,San Antonio,TX,242278,Bajo Potencial,99.5,Crecimiento24: -2.3% | Crecimiento25: -1.9% | Vacancia: 3.3% | Momentum: -9.8%,29.275,-98.6677
75835,Crockett,TX,185040,Bajo Potencial,99.5,Crecimiento24: -9.3% | Crecimiento25: -0.3% | Vacancia: 12.6% | Momentum: -14.7%,31.3208,-95.3928
75125,Ferris,TX,291028,Bajo Potencial,99.5,Crecimiento24: -3.9% | Crecimiento25: -0.4% | Vacancia: 1.5% | Momentum: -10.8%,32.5223,-96.6643
76249,Krum,TX,362482,Bajo Potencial,99.5,Crecimiento24: -1.3% | Crecimiento25: -1.0% | Vacancia: 1.0% | Momentum: -17.7%,33.2734,-97.2675
76258,Pilot Point,TX,363996,Bajo Potencial,99.5,Crecimiento24: -1.0% | Crecimiento25: -2.2% | Vacancia: 1.9% | Momentum: -18.0%,33.371,-96.9446
78839,Crystal City,TX,74046,Bajo Potencial,99.5,Crecimiento24: -5.5% | Crecimiento25: -4.3% | Vacancia: 5.3% | Momentum: -15.5%,28.687,-99.8264
75147,,TX,277075,Bajo Potencial,99.5,Crecimiento24: -2.0% | Crecimiento25: -0.7% | Vacancia: 5.2% | Momentum: -15.8%,32.3685,-96.0685
78203,San Antonio,TX,172406,Bajo Potencial,99.5,Crecimiento24: -6.7% | Crecimiento25: -8.6% | Vacancia: 12.0% | Momentum: -19.8%,29.4148,-98.4601
78370,Odem,TX,199633,Bajo Potencial,99.5,Crecimiento24: -3.1% | Crecimiento25: -1.5% | Vacancia: 3.3% | Momentum: -5.4%,27.9403,-97.5838
78383,Sandia,TX,225651,Bajo Potencial,99.5,Crecimiento24: -2.1% | Crecimiento25: -4.5% | Vacancia: 16.8% | Momentum: -11.7%,28.025,-97.8705
76834,Coleman,TX,118721,Bajo Potencial,99.5,Crecimiento24: -3.5% | Crecimiento25: -3.3% | Vacancia: 19.9% | Momentum: -8.6%,31.8287,-99.427
76255,Nocona,TX,224483,Bajo Potencial,99.5,Crecimiento24: -6.9% | Crecimiento25: -0.4% | Vacancia: 15.0% | Momentum: -16.9%,33.7982,-97.727
75656,Hughes Springs,TX,171286,Bajo Potencial,99.5,Crecimiento24: -5.1% | Crecimiento25: 0.9% | Vacancia: 6.7% | Momentum: -14.4%,33.0168,-94.6228
78140,Nixon,TX,213525,Bajo Potencial,99.5,Crecimiento24: -7.9% | Crecimiento25: -3.2% | Vacancia: 5.4% | Momentum: -12.3%,29.3016,-97.7529
78719,Austin,TX,391822,Bajo Potencial,99.5,Crecimiento24: -9.6% | Crecimiento25: -2.4% | Vacancia: 3.7% | Momentum: -22.2%,30.1802,-97.6667
76470,Strawn,TX,100220,Bajo Potencial,99.5,Crecimiento24: -11.7% | Crecimiento25: -2.5% | Vacancia: 12.2% | Momentum: -13.2%,32.4681,-98.6747
75938,Colmesneil,TX,177171,Bajo Potencial,99.5,Crecimiento24: -7.9% | Crecimiento25: 1.6% | Vacancia: 23.5% | Momentum: -11.7%,30.9007,-94.3916
76570,Rosebud,TX,147271,Bajo Potencial,99.5,Crecimiento24: -5.5% | Crecimiento25: -0.7% | Vacancia: 11.1% | Momentum: -6.4%,31.0922,-96.9755
75681,Mount Enterprise,TX,202380,Bajo Potencial,99.5,Crecimiento24: -2.5% | Crecimiento25: -0.7% | Vacancia: 10.0% | Momentum: -11.3%,31.9125,-94.6235
76530,Granger,TX,321436,Bajo Potencial,99.5,Crecimiento24: -6.8% | Crecimiento25: -0.2% | Vacancia: 4.5% | Momentum: -16.2%,30.7398,-97.4451
76511,Bartlett,TX,221233,Bajo Potencial,99.5,Crecimiento24: -4.4% | Crecimiento25: -2.7% | Vacancia: 4.8% | Momentum: -17.3%,30.7991,-97.4263
76471,Rising Star,TX,184371,Bajo Potencial,99.5,Crecimiento24: -5.6% | Crecimiento25: -5.7% | Vacancia: 21.6% | Momentum: -15.3%,32.128,-98.9859
78147,Floresville,TX,244036,Bajo Potencial,99.5,Crecimiento24: -4.8% | Crecimiento25: 0.1% | Vacancia: 4.4% | Momentum: -12.2%,29.0619,-98.0825
78130,New Braunfels,TX,319725,Bajo Potencial,99.5,Crecimiento24: -6.0% | Crecimiento25: -4.1% | Vacancia: 3.8% | Momentum: -20.0%,29.7229,-98.0742
75052,Grand Prairie,TX,330651,Bajo Potencial,99.5,Crecimiento24: 0.5% | Crecimiento25: -0.5% | Vacancia: 1.8% | Momentum: -16.0%,32.6605,-97.0311
77375,Tomball,TX,356204,Bajo Potencial,99.4,Crecimiento24: -1.3% | Crecimiento25: 0.7% | Vacancia: 1.5% | Momentum: -15.5%,30.0739,-95.6201
77339,Houston,TX,297909,Bajo Potencial,99.4,Crecimiento24: -0.5% | Crecimiento25: 0.9% | Vacancia: 3.4% | Momentum: -13.8%,30.0569,-95.1835
78412,Corpus Christi,TX,199399,Bajo Potencial,99.4,Crecimiento24: -1.4% | Crecimiento25: -1.2% | Vacancia: 3.4% | Momentum: -7.8%,27.7061,-97.3537
77017,Houston,TX,190323,Bajo Potencial,99.4,Crecimiento24: -1.1% | Crecimiento25: -1.6% | Vacancia: 3.1% | Momentum: -12.6%,29.6863,-95.2555
78724,Austin,TX,342557,Bajo Potencial,99.4,Crecimiento24: -8.2% | Crecimiento25: -4.4% | Vacancia: 0.7% | Momentum: -26.0%,30.296,-97.6396
75146,Lancaster,TX,290576,Bajo Potencial,99.4,Crecimiento24: -0.6% | Crecimiento25: -0.3% | Vacancia: 2.5% | Momentum: -17.5%,32.5914,-96.7728
78705,Austin,TX,349691,Bajo Potencial,99.4,Crecimiento24: -8.0% | Crecimiento25: -4.4% | Vacancia: 4.3% | Momentum: -11.1%,30.2896,-97.7396
78624,Fredericksburg,TX,525491,Bajo Potencial,99.4,Crecimiento24: -2.1% | Crecimiento25: -0.4% | Vacancia: 10.8% | Momentum: -16.8%,30.2817,-98.8799
79407,Lubbock,TX,217267,Bajo Potencial,99.4,Crecimiento24: -1.1% | Crecimiento25: -1.8% | Vacancia: 5.1% | Momentum: -12.7%,33.5684,-101.9423
78739,Austin,TX,804335,Bajo Potencial,99.4,Crecimiento24: -4.6% | Crecimiento25: -0.6% | Vacancia: 0.4% | Momentum: -23.5%,30.172,-97.8784
77445,,TX,282517,Bajo Potencial,99.4,Crecimiento24: -3.5% | Crecimiento25: 0.7% | Vacancia: 4.9% | Momentum: -11.8%,30.092,-96.0716
75233,Dallas,TX,291914,Bajo Potencial,99.4,Crecimiento24: 0.7% | Crecimiento25: -0.7% | Vacancia: 1.5% | Momentum: -15.1%,32.7046,-96.8725
75570,New Boston,TX,183641,Bajo Potencial,99.4,Crecimiento24: -1.1% | Crecimiento25: -4.2% | Vacancia: 3.3% | Momentum: -12.1%,33.4619,-94.4375
75210,Dallas,TX,151160,Bajo Potencial,99.4,Crecimiento24: -2.8% | Crecimiento25: -1.8% | Vacancia: 1.4% | Momentum: -17.9%,32.7699,-96.743
78957,Smithville,TX,342921,Bajo Potencial,99.4,Crecimiento24: -10.1% | Crecimiento25: 0.5% | Vacancia: 6.7% | Momentum: -22.7%,30.0178,-97.1494
78657,Horseshoe Bay,TX,664635,Bajo Potencial,99.4,Crecimiento24: -2.1% | Crecimiento25: -1.3% | Vacancia: 30.0% | Momentum: -20.3%,30.5443,-98.3739
75148,Malakoff,TX,297990,Bajo Potencial,99.4,Crecimiento24: -5.7% | Crecimiento25: 3.3% | Vacancia: 17.3% | Momentum: -16.3%,32.1705,-96.006
75860,Teague,TX,204812,Bajo Potencial,99.4,Crecimiento24: -0.8% | Crecimiento25: -2.8% | Vacancia: 11.1% | Momentum: -12.2%,31.6328,-96.2778
75572,Queen City,TX,160985,Bajo Potencial,99.4,Crecimiento24: -8.9% | Crecimiento25: 0.4% | Vacancia: 10.1% | Momentum: -17.4%,33.1557,-94.1537
77702,Beaumont,TX,147210,Bajo Potencial,99.4,Crecimiento24: -12.6% | Crecimiento25: -0.8% | Vacancia: 5.1% | Momentum: -10.6%,30.0871,-94.1254
78055,Medina,TX,381812,Bajo Potencial,99.4,Crecimiento24: -5.9% | Crecimiento25: 2.2% | Vacancia: 17.8% | Momentum: -17.8%,29.8475,-99.3215
78613,Cedar Park,TX,487295,Bajo Potencial,99.4,Crecimiento24: -5.9% | Crecimiento25: -1.4% | Vacancia: 0.6% | Momentum: -24.1%,30.5052,-97.8203
77386,Spring,TX,368818,Bajo Potencial,99.3,Crecimiento24: -0.7% | Crecimiento25: 0.9% | Vacancia: 1.5% | Momentum: -14.5%,30.1288,-95.4239
77471,Rosenberg,TX,283795,Bajo Potencial,99.3,Crecimiento24: 0.2% | Crecimiento25: 0.2% | Vacancia: 2.6% | Momentum: -14.5%,29.5497,-95.7982
75501,Texarkana,TX,156165,Bajo Potencial,99.3,Crecimiento24: -1.6% | Crecimiento25: -4.7% | Vacancia: 6.1% | Momentum: -9.8%,33.4113,-94.1774
77045,Houston,TX,204432,Bajo Potencial,99.3,Crecimiento24: 0.3% | Crecimiento25: -0.2% | Vacancia: 1.2% | Momentum: -12.8%,29.6297,-95.4382
77320,Huntsville,TX,239698,Bajo Potencial,99.3,Crecimiento24: -3.6% | Crecimiento25: 0.8% | Vacancia: 5.7% | Momentum: -11.8%,30.847,-95.597
77706,Beaumont,TX,226723,Bajo Potencial,99.3,Crecimiento24: -3.6% | Crecimiento25: 1.4% | Vacancia: 5.4% | Momentum: -6.9%,30.0948,-94.1648
75901,Lufkin,TX,186183,Bajo Potencial,99.3,Crecimiento24: 1.5% | Crecimiento25: -0.8% | Vacancia: 3.4% | Momentum: -9.4%,31.27,-94.6469
77033,Houston,TX,154582,Bajo Potencial,99.3,Crecimiento24: -3.0% | Crecimiento25: -2.4% | Vacancia: 2.9% | Momentum: -14.9%,29.6686,-95.3382
79415,Lubbock,TX,99700,Bajo Potencial,99.3,Crecimiento24: -6.8% | Crecimiento25: -0.4% | Vacancia: 4.2% | Momentum: -15.7%,33.6021,-101.876
77541,Freeport,TX,202604,Bajo Potencial,99.3,Crecimiento24: -3.0% | Crecimiento25: -2.6% | Vacancia: 17.7% | Momentum: -10.5%,29.0357,-95.3379
77336,,TX,292311,Bajo Potencial,99.3,Crecimiento24: -0.8% | Crecimiento25: -0.2% | Vacancia: 6.3% | Momentum: -12.1%,30.0565,-95.1051
78002,Atascosa,TX,272032,Bajo Potencial,99.3,Crecimiento24: -5.5% | Crecimiento25: 1.4% | Vacancia: 4.2% | Momentum: -10.5%,29.2705,-98.7421
78725,Austin,TX,295788,Bajo Potencial,99.3,Crecimiento24: -10.0% | Crecimiento25: -6.6% | Vacancia: 0.5% | Momentum: -31.2%,30.2562,-97.6243
76365,Henrietta,TX,182246,Bajo Potencial,99.3,Crecimiento24: -5.8% | Crecimiento25: 2.0% | Vacancia: 9.0% | Momentum: -14.3%,33.8196,-98.26
75226,Dallas,TX,292880,Bajo Potencial,99.3,Crecimiento24: -1.9% | Crecimiento25: -2.5% | Vacancia: 7.2% | Momentum: -13.3%,32.7887,-96.7676
78655,Martindale,TX,334909,Bajo Potencial,99.3,Crecimiento24: -4.4% | Crecimiento25: 0.7% | Vacancia: 1.9% | Momentum: -17.4%,29.8394,-97.8508
75202,Dallas,TX,294935,Bajo Potencial,99.3,Crecimiento24: -2.3% | Crecimiento25: -2.3% | Vacancia: 8.6% | Momentum: -10.6%,32.7781,-96.8054
75661,,TX,176489,Bajo Potencial,99.3,Crecimiento24: -3.4% | Crecimiento25: -3.7% | Vacancia: 21.1% | Momentum: -7.4%,32.6205,-94.2001
79041,Hale Center,TX,119318,Bajo Potencial,99.3,Crecimiento24: -3.6% | Crecimiento25: -1.0% | Vacancia: 10.8% | Momentum: -2.0%,34.0669,-101.8736
77650,Port Bolivar,TX,437582,Bajo Potencial,99.3,Crecimiento24: -7.1% | Crecimiento25: -6.0% | Vacancia: 68.0% | Momentum: -30.7%,29.4266,-94.6861
75217,Dallas,TX,206057,Bajo Potencial,99.3,Crecimiento24: -1.7% | Crecimiento25: 0.2% | Vacancia: 1.9% | Momentum: -17.1%,32.7244,-96.6755
78230,San Antonio,TX,358688,Bajo Potencial,99.2,Crecimiento24: 1.3% | Crecimiento25: -0.4% | Vacancia: 4.9% | Momentum: -11.7%,29.5407,-98.5521
75041,Garland,TX,259660,Bajo Potencial,99.2,Crecimiento24: 1.5% | Crecimiento25: -1.8% | Vacancia: 1.9% | Momentum: -15.8%,32.8794,-96.6411
76087,Weatherford,TX,444788,Bajo Potencial,99.2,Crecimiento24: -2.6% | Crecimiento25: 0.6% | Vacancia: 2.9% | Momentum: -15.4%,32.7495,-97.6894
77054,Houston,TX,147082,Bajo Potencial,99.2,Crecimiento24: 0.5% | Crecimiento25: -1.8% | Vacancia: 9.0% | Momentum: -7.4%,29.6852,-95.4017
76008,Aledo,TX,546183,Bajo Potencial,99.2,Crecimiento24: -1.1% | Crecimiento25: 0.8% | Vacancia: 1.1% | Momentum: -14.6%,32.7004,-97.6039
77029,Jacinto City,TX,162833,Bajo Potencial,99.2,Crecimiento24: -1.4% | Crecimiento25: -0.1% | Vacancia: 5.7% | Momentum: -13.3%,29.763,-95.2567
77563,Hitchcock,TX,264698,Bajo Potencial,99.2,Crecimiento24: -1.8% | Crecimiento25: -0.6% | Vacancia: 5.5% | Momentum: -11.2%,29.3398,-94.9926
78368,Mathis,TX,126825,Bajo Potencial,99.2,Crecimiento24: -8.3% | Crecimiento25: -5.9% | Vacancia: 12.9% | Momentum: -5.5%,28.0802,-97.8097
77957,Edna,TX,221230,Bajo Potencial,99.2,Crecimiento24: -2.2% | Crecimiento25: -0.6% | Vacancia: 9.4% | Momentum: -4.6%,28.9527,-96.6488
76569,Rogers,TX,283150,Bajo Potencial,99.2,Crecimiento24: -0.7% | Crecimiento25: 0.8% | Vacancia: 3.3% | Momentum: -12.0%,30.955,-97.2228
78071,Three Rivers,TX,223956,Bajo Potencial,99.2,Crecimiento24: -2.2% | Crecimiento25: 1.1% | Vacancia: 10.6% | Momentum: -2.6%,28.4756,-98.1782
75571,Omaha,TX,192772,Bajo Potencial,99.2,Crecimiento24: -4.2% | Crecimiento25: 1.4% | Vacancia: 8.1% | Momentum: -10.7%,33.1808,-94.7639
76005,Arlington,TX,561170,Bajo Potencial,99.2,Crecimiento24: -0.8% | Crecimiento25: 1.3% | Vacancia: 3.8% | Momentum: -14.3%,32.7714,-97.2915
78666,San Marcos,TX,326103,Bajo Potencial,99.2,Crecimiento24: -5.8% | Crecimiento25: -4.0% | Vacancia: 2.9% | Momentum: -21.1%,29.8754,-97.9404
77064,Houston,TX,275734,Bajo Potencial,99.1,Crecimiento24: -1.0% | Crecimiento25: 0.9% | Vacancia: 2.8% | Momentum: -14.5%,29.919,-95.5569
78232,San Antonio,TX,378832,Bajo Potencial,99.1,Crecimiento24: 0.5% | Crecimiento25: 0.7% | Vacancia: 2.3% | Momentum: -12.2%,29.5863,-98.4769
75119,Ennis,TX,265898,Bajo Potencial,99.1,Crecimiento24: -0.3% | Crecimiento25: -0.3% | Vacancia: 2.9% | Momentum: -11.7%,32.3321,-96.6224
76710,Waco,TX,245588,Bajo Potencial,99.1,Crecimiento24: -0.7% | Crecimiento25: 0.2% | Vacancia: 6.7% | Momentum: -15.9%,31.535,-97.1899
78411,Corpus Christi,TX,192940,Bajo Potencial,99.1,Crecimiento24: -1.0% | Crecimiento25: -0.9% | Vacancia: 5.1% | Momentum: -6.2%,27.7311,-97.3877
77068,Houston,TX,322865,Bajo Potencial,99.1,Crecimiento24: -1.1% | Crecimiento25: 0.8% | Vacancia: 3.5% | Momentum: -14.8%,30.0069,-95.4897
77836,Caldwell,TX,305202,Bajo Potencial,99.1,Crecimiento24: -4.6% | Crecimiento25: 0.3% | Vacancia: 7.1% | Momentum: -11.0%,30.5298,-96.7143
76643,Hewitt,TX,297439,Bajo Potencial,99.1,Crecimiento24: -0.1% | Crecimiento25: 0.6% | Vacancia: 1.4% | Momentum: -14.9%,31.4582,-97.1966
79070,Perryton,TX,121149,Bajo Potencial,99.1,Crecimiento24: -13.8% | Crecimiento25: -0.0% | Vacancia: 5.6% | Momentum: -4.3%,36.3748,-100.8156
77360,Onalaska,TX,180334,Bajo Potencial,99.1,Crecimiento24: -6.0% | Crecimiento25: 2.6% | Vacancia: 16.0% | Momentum: -12.7%,30.8225,-95.1056
75561,Hooks,TX,171691,Bajo Potencial,99.1,Crecimiento24: -1.5% | Crecimiento25: -3.4% | Vacancia: 9.2% | Momentum: -9.2%,33.5253,-94.2657
78659,Paige,TX,458041,Bajo Potencial,99.1,Crecimiento24: -8.2% | Crecimiento25: 2.2% | Vacancia: 7.8% | Momentum: -22.0%,30.1858,-97.1198
76561,Mc Gregor,TX,237492,Bajo Potencial,99.1,Crecimiento24: -4.0% | Crecimiento25: 0.7% | Vacancia: 9.8% | Momentum: -15.1%,31.4438,-97.5501
78660,Pflugerville,TX,396772,Bajo Potencial,99.0,Crecimiento24: -7.1% | Crecimiento25: -3.3% | Vacancia: 1.5% | Momentum: -26.3%,30.4421,-97.6299
76010,Arlington,TX,235575,Bajo Potencial,99.0,Crecimiento24: 0.4% | Crecimiento25: 0.1% | Vacancia: 3.2% | Momentum: -14.3%,32.7204,-97.0826
78132,New Braunfels,TX,584118,Bajo Potencial,99.0,Crecimiento24: -2.8% | Crecimiento25: -1.0% | Vacancia: 2.2% | Momentum: -19.4%,29.7565,-98.1983
77090,Houston,TX,254352,Bajo Potencial,99.0,Crecimiento24: -1.5% | Crecimiento25: 0.2% | Vacancia: 5.7% | Momentum: -16.3%,30.0167,-95.447
76126,Benbrook,TX,388224,Bajo Potencial,99.0,Crecimiento24: -0.7% | Crecimiento25: 0.8% | Vacancia: 3.5% | Momentum: -14.8%,32.64,-97.5448
76201,Denton,TX,281662,Bajo Potencial,99.0,Crecimiento24: -0.1% | Crecimiento25: 0.6% | Vacancia: 4.9% | Momentum: -14.1%,33.2289,-97.1314
76011,Arlington,TX,253939,Bajo Potencial,99.0,Crecimiento24: 0.8% | Crecimiento25: 0.9% | Vacancia: 7.0% | Momentum: -14.4%,32.7582,-97.1003
76120,Fort Worth,TX,321979,Bajo Potencial,99.0,Crecimiento24: -1.0% | Crecimiento25: 0.2% | Vacancia: 5.5% | Momentum: -17.4%,32.7639,-97.1781
78382,Rockport,TX,319326,Bajo Potencial,99.0,Crecimiento24: 0.0% | Crecimiento25: -3.0% | Vacancia: 16.5% | Momentum: -15.3%,28.0308,-97.0688
75686,Pittsburg,TX,222702,Bajo Potencial,99.0,Crecimiento24: 0.7% | Crecimiento25: -1.5% | Vacancia: 8.3% | Momentum: -13.7%,32.9623,-94.9603
75462,Paris,TX,265827,Bajo Potencial,99.0,Crecimiento24: -2.1% | Crecimiento25: 1.7% | Vacancia: 2.8% | Momentum: -14.8%,33.6805,-95.4905
77518,Bacliff,TX,215761,Bajo Potencial,99.0,Crecimiento24: -1.1% | Crecimiento25: -0.1% | Vacancia: 2.5% | Momentum: -11.8%,29.5055,-94.9893
77611,Bridge City,TX,200313,Bajo Potencial,99.0,Crecimiento24: -3.3% | Crecimiento25: 1.3% | Vacancia: 6.2% | Momentum: -4.3%,30.0192,-93.8326
77465,Palacios,TX,185580,Bajo Potencial,99.0,Crecimiento24: -3.3% | Crecimiento25: -0.3% | Vacancia: 12.9% | Momentum: -7.9%,28.715,-96.2154
79356,Post,TX,117527,Bajo Potencial,99.0,Crecimiento24: -7.9% | Crecimiento25: -2.8% | Vacancia: 8.9% | Momentum: -2.5%,33.2017,-101.3922
75948,Hemphill,TX,205594,Bajo Potencial,99.0,Crecimiento24: -1.4% | Crecimiento25: -0.1% | Vacancia: 42.9% | Momentum: -10.3%,31.3161,-93.7905
78024,Hunt,TX,571441,Bajo Potencial,99.0,Crecimiento24: -3.0% | Crecimiento25: 2.5% | Vacancia: 29.0% | Momentum: -16.5%,30.0027,-99.4823
76578,Thrall,TX,359904,Bajo Potencial,99.0,Crecimiento24: -6.6% | Crecimiento25: -0.1% | Vacancia: 5.3% | Momentum: -19.6%,30.592,-97.2893
77433,Cypress,TX,430954,Bajo Potencial,99.0,Crecimiento24: -0.5% | Crecimiento25: 0.5% | Vacancia: 0.9% | Momentum: -16.3%,29.8836,-95.7025
78245,San Antonio,TX,263834,Bajo Potencial,99.0,Crecimiento24: -3.8% | Crecimiento25: -2.3% | Vacancia: 2.0% | Momentum: -17.6%,29.4189,-98.6895
77354,,TX,395701,Bajo Potencial,98.9,Crecimiento24: 0.6% | Crecimiento25: 1.4% | Vacancia: 4.4% | Momentum: -11.9%,30.2333,-95.5502
78040,Laredo,TX,131443,Bajo Potencial,98.9,Crecimiento24: -4.7% | Crecimiento25: -1.9% | Vacancia: 5.9% | Momentum: -2.5%,27.5155,-99.4986
77021,Houston,TX,202957,Bajo Potencial,98.9,Crecimiento24: -1.9% | Crecimiento25: -2.6% | Vacancia: 7.3% | Momentum: -13.1%,29.6954,-95.3562
76006,Arlington,TX,385085,Bajo Potencial,98.9,Crecimiento24: -0.2% | Crecimiento25: 0.7% | Vacancia: 6.3% | Momentum: -15.5%,32.7785,-97.0834
76426,,TX,285020,Bajo Potencial,98.9,Crecimiento24: -1.1% | Crecimiento25: 0.6% | Vacancia: 5.8% | Momentum: -14.1%,33.187,-97.781
76711,Waco,TX,138645,Bajo Potencial,98.9,Crecimiento24: 1.3% | Crecimiento25: -0.2% | Vacancia: 4.0% | Momentum: -17.2%,31.5175,-97.1547
79081,Spearman,TX,130651,Bajo Potencial,98.9,Crecimiento24: -10.6% | Crecimiento25: 4.9% | Vacancia: 10.9% | Momentum: -4.2%,36.1927,-101.1952
75778,Murchison,TX,237231,Bajo Potencial,98.9,Crecimiento24: -1.5% | Crecimiento25: 2.0% | Vacancia: 15.7% | Momentum: -12.7%,32.3257,-95.7737
79086,Sunray,TX,130840,Bajo Potencial,98.9,Crecimiento24: -5.4% | Crecimiento25: 0.4% | Vacancia: 7.6% | Momentum: -2.8%,36.0097,-101.8123
77379,Spring,TX,365096,Bajo Potencial,98.9,Crecimiento24: -0.6% | Crecimiento25: 1.1% | Vacancia: 1.5% | Momentum: -14.9%,30.0377,-95.5326
77520,Baytown,TX,175460,Bajo Potencial,98.8,Crecimiento24: -1.7% | Crecimiento25: -1.7% | Vacancia: 4.3% | Momentum: -13.2%,29.7461,-94.9653
77038,Houston,TX,224668,Bajo Potencial,98.8,Crecimiento24: 1.0% | Crecimiento25: 0.2% | Vacancia: 1.1% | Momentum: -13.9%,29.9196,-95.4386
78102,Beeville,TX,165145,Bajo Potencial,98.8,Crecimiento24: -12.2% | Crecimiento25: 1.7% | Vacancia: 6.3% | Momentum: -8.1%,28.4222,-97.7616
76205,Denton,TX,369039,Bajo Potencial,98.8,Crecimiento24: -0.4% | Crecimiento25: 1.6% | Vacancia: 3.7% | Momentum: -15.3%,33.1903,-97.1282
78404,Corpus Christi,TX,156289,Bajo Potencial,98.8,Crecimiento24: -1.1% | Crecimiento25: 1.1% | Vacancia: 9.1% | Momentum: -2.0%,27.7683,-97.4013
77002,Houston,TX,259655,Bajo Potencial,98.8,Crecimiento24: 1.3% | Crecimiento25: -10.5% | Vacancia: 9.9% | Momentum: -9.4%,29.7594,-95.3594
77591,Texas City,TX,238606,Bajo Potencial,98.8,Crecimiento24: 0.1% | Crecimiento25: 0.6% | Vacancia: 3.8% | Momentum: -10.7%,29.3891,-94.9942
77612,Buna,TX,213055,Bajo Potencial,98.8,Crecimiento24: -2.0% | Crecimiento25: 0.5% | Vacancia: 5.7% | Momentum: -7.2%,30.4132,-93.9913
77995,Yoakum,TX,214582,Bajo Potencial,98.8,Crecimiento24: -3.3% | Crecimiento25: -0.8% | Vacancia: 7.9% | Momentum: -11.6%,29.284,-97.1306
79756,Southwest Sandhill,TX,189095,Bajo Potencial,98.8,Crecimiento24: -5.2% | Crecimiento25: -1.0% | Vacancia: 6.9% | Momentum: -0.6%,31.5813,-102.9003
78643,,TX,378789,Bajo Potencial,98.8,Crecimiento24: -1.9% | Crecimiento25: 0.7% | Vacancia: 16.2% | Momentum: -15.2%,30.7151,-98.6109
75158,Scurry,TX,341101,Bajo Potencial,98.8,Crecimiento24: -3.7% | Crecimiento25: 1.8% | Vacancia: 1.8% | Momentum: -16.4%,32.4818,-96.3925
78160,Stockdale,TX,335250,Bajo Potencial,98.8,Crecimiento24: -1.5% | Crecimiento25: 1.8% | Vacancia: 4.7% | Momentum: -8.0%,29.2319,-97.9351
78636,Johnson City,TX,653993,Bajo Potencial,98.8,Crecimiento24: -1.3% | Crecimiento25: 1.2% | Vacancia: 12.0% | Momentum: -20.1%,30.2948,-98.3691
75563,Linden,TX,159656,Bajo Potencial,98.8,Crecimiento24: -5.9% | Crecimiento25: 2.0% | Vacancia: 8.9% | Momentum: -16.4%,33.0048,-94.3605
79504,Baird,TX,184038,Bajo Potencial,98.8,Crecimiento24: -9.5% | Crecimiento25: 4.0% | Vacancia: 11.0% | Momentum: -5.8%,32.3916,-99.3777
75954,Joaquin,TX,240819,Bajo Potencial,98.8,Crecimiento24: -2.7% | Crecimiento25: 1.0% | Vacancia: 13.5% | Momentum: -2.8%,31.944,-94.0608
79511,Coahoma,TX,178633,Bajo Potencial,98.8,Crecimiento24: -3.1% | Crecimiento25: -8.0% | Vacancia: 7.8% | Momentum: -6.2%,32.2942,-101.3197
75057,Lewisville,TX,323455,Bajo Potencial,98.7,Crecimiento24: 1.5% | Crecimiento25: -0.4% | Vacancia: 3.1% | Momentum: -14.1%,33.0532,-96.9999
78065,Poteet,TX,226712,Bajo Potencial,98.7,Crecimiento24: -5.0% | Crecimiento25: 0.8% | Vacancia: 3.9% | Momentum: -8.0%,29.0994,-98.6241
78662,Red Rock,TX,482441,Bajo Potencial,98.7,Crecimiento24: -6.2% | Crecimiento25: 1.6% | Vacancia: 1.0% | Momentum: -24.5%,29.9906,-97.4081
75790,Van,TX,239067,Bajo Potencial,98.7,Crecimiento24: 1.3% | Crecimiento25: -1.7% | Vacancia: 6.5% | Momentum: -13.2%,32.5283,-95.6545
76035,Cresson,TX,493722,Bajo Potencial,98.7,Crecimiento24: -6.2% | Crecimiento25: 1.5% | Vacancia: 9.7% | Momentum: -14.7%,32.5343,-97.6158
77429,Cypress,TX,385195,Bajo Potencial,98.7,Crecimiento24: -0.2% | Crecimiento25: 1.0% | Vacancia: 0.9% | Momentum: -15.1%,29.9766,-95.6358
77081,Houston,TX,240134,Bajo Potencial,98.6,Crecimiento24: 1.4% | Crecimiento25: -1.1% | Vacancia: 3.6% | Momentum: -8.8%,29.7119,-95.4845
78213,Castle Hills,TX,208769,Bajo Potencial,98.6,Crecimiento24: -2.8% | Crecimiento25: -3.8% | Vacancia: 3.4% | Momentum: -12.6%,29.5234,-98.5273
75231,Dallas,TX,301655,Bajo Potencial,98.6,Crecimiento24: -0.2% | Crecimiento25: -5.3% | Vacancia: 10.1% | Momentum: -17.3%,32.8756,-96.7495
77506,Pasadena,TX,170146,Bajo Potencial,98.6,Crecimiento24: -0.7% | Crecimiento25: -1.7% | Vacancia: 4.2% | Momentum: -12.3%,29.7009,-95.1989
76031,Cleburne,TX,283708,Bajo Potencial,98.6,Crecimiento24: -0.7% | Crecimiento25: 1.7% | Vacancia: 3.5% | Momentum: -13.6%,32.3485,-97.3311
77069,Houston,TX,338662,Bajo Potencial,98.6,Crecimiento24: 0.1% | Crecimiento25: 0.8% | Vacancia: 2.7% | Momentum: -13.2%,29.9863,-95.5208
76682,Riesel,TX,256827,Bajo Potencial,98.6,Crecimiento24: -2.8% | Crecimiento25: 1.0% | Vacancia: 4.6% | Momentum: -15.8%,31.5002,-96.9476
76844,Goldthwaite,TX,347393,Bajo Potencial,98.6,Crecimiento24: -6.8% | Crecimiento25: 4.3% | Vacancia: 17.6% | Momentum: -6.9%,31.4458,-98.5744
78415,Corpus Christi,TX,176003,Bajo Potencial,98.5,Crecimiento24: -2.8% | Crecimiento25: -0.9% | Vacancia: 3.0% | Momentum: -3.5%,27.7262,-97.4078
77012,Houston,TX,176130,Bajo Potencial,98.5,Crecimiento24: -1.3% | Crecimiento25: -0.7% | Vacancia: 5.1% | Momentum: -10.1%,29.7149,-95.2819
77058,Houston,TX,248476,Bajo Potencial,98.5,Crecimiento24: 0.4% | Crecimiento25: -0.7% | Vacancia: 5.8% | Momentum: -11.4%,29.5716,-95.0998
75754,Ben Wheeler,TX,306362,Bajo Potencial,98.5,Crecimiento24: -0.6% | Crecimiento25: 0.9% | Vacancia: 4.2% | Momentum: -9.6%,32.4126,-95.6371
75956,Kirbyville,TX,170409,Bajo Potencial,98.5,Crecimiento24: -3.4% | Crecimiento25: 0.8% | Vacancia: 5.6% | Momentum: -8.7%,30.6583,-93.8984
78025,Ingram,TX,383319,Bajo Potencial,98.5,Crecimiento24: -1.4% | Crecimiento25: -0.3% | Vacancia: 11.0% | Momentum: -14.8%,30.0731,-99.269
77664,Warren,TX,194331,Bajo Potencial,98.5,Crecimiento24: -4.2% | Crecimiento25: 3.3% | Vacancia: 7.7% | Momentum: -7.6%,30.5978,-94.412
79042,Happy,TX,169774,Bajo Potencial,98.5,Crecimiento24: -6.0% | Crecimiento25: -0.3% | Vacancia: 10.6% | Momentum: -11.0%,34.7219,-101.8256
79245,Memphis,TX,62968,Bajo Potencial,98.5,Crecimiento24: -11.0% | Crecimiento25: -11.4% | Vacancia: 11.9% | Momentum: -12.6%,34.7122,-100.5347
75246,Dallas,TX,353835,Bajo Potencial,98.5,Crecimiento24: -1.4% | Crecimiento25: -4.3% | Vacancia: 10.9% | Momentum: -11.3%,32.7948,-96.7697
75933,Call,TX,130533,Bajo Potencial,98.5,Crecimiento24: -2.2% | Crecimiento25: -2.6% | Vacancia: 14.5% | Momentum: -8.5%,30.5741,-93.8334
77406,Richmond,TX,431051,Bajo Potencial,98.4,Crecimiento24: 0.5% | Crecimiento25: 0.8% | Vacancia: 1.5% | Momentum: -15.8%,29.6436,-95.798
76116,Fort Worth,TX,296556,Bajo Potencial,98.4,Crecimiento24: 0.3% | Crecimiento25: 0.1% | Vacancia: 7.0% | Momentum: -13.9%,32.723,-97.4483
77057,Houston,TX,282124,Bajo Potencial,98.4,Crecimiento24: 0.3% | Crecimiento25: -2.3% | Vacancia: 6.6% | Momentum: -7.4%,29.7422,-95.4903
78006,Boerne,TX,597758,Bajo Potencial,98.4,Crecimiento24: 0.2% | Crecimiento25: -0.5% | Vacancia: 2.4% | Momentum: -13.9%,29.8931,-98.6857
77365,Porter,TX,307725,Bajo Potencial,98.4,Crecimiento24: -1.0% | Crecimiento25: -0.1% | Vacancia: 2.1% | Momentum: -12.6%,30.1237,-95.2686
75904,Lufkin,TX,197370,Bajo Potencial,98.4,Crecimiento24: -0.0% | Crecimiento25: -0.1% | Vacancia: 5.1% | Momentum: -9.9%,31.3489,-94.8327
75032,Rockwall,TX,530000,Bajo Potencial,98.4,Crecimiento24: -0.8% | Crecimiento25: 0.9% | Vacancia: 1.3% | Momentum: -17.4%,32.886,-96.4095
79118,Amarillo,TX,252780,Bajo Potencial,98.4,Crecimiento24: 1.5% | Crecimiento25: 0.7% | Vacancia: 3.2% | Momentum: -11.2%,35.0763,-101.8349
77048,Houston,TX,221730,Bajo Potencial,98.4,Crecimiento24: 1.3% | Crecimiento25: 0.0% | Vacancia: 2.9% | Momentum: -10.9%,29.6321,-95.3416
77488,Wharton,TX,204922,Bajo Potencial,98.4,Crecimiento24: -3.8% | Crecimiento25: 2.0% | Vacancia: 6.1% | Momentum: -7.0%,29.3205,-96.0858
75935,Center,TX,216048,Bajo Potencial,98.4,Crecimiento24: -4.5% | Crecimiento25: 2.0% | Vacancia: 7.3% | Momentum: -3.3%,31.7865,-94.1869
75644,,TX,219072,Bajo Potencial,98.4,Crecimiento24: -0.1% | Crecimiento25: 1.4% | Vacancia: 5.1% | Momentum: -12.3%,32.7246,-94.9714
75684,,TX,182492,Bajo Potencial,98.4,Crecimiento24: -2.7% | Crecimiento25: 1.2% | Vacancia: 6.6% | Momentum: -9.3%,32.269,-94.9529
76527,Florence,TX,515204,Bajo Potencial,98.4,Crecimiento24: 0.3% | Crecimiento25: 0.6% | Vacancia: 1.5% | Momentum: -13.7%,30.8076,-97.7812
75567,,TX,208678,Bajo Potencial,98.4,Crecimiento24: 0.5% | Crecimiento25: -4.6% | Vacancia: 7.9% | Momentum: -10.4%,33.3409,-94.3175
78832,Brackettville,TX,121423,Bajo Potencial,98.4,Crecimiento24: -4.4% | Crecimiento25: 1.7% | Vacancia: 11.7% | Momentum: -5.9%,29.3096,-100.4155
77015,Houston,TX,205381,Bajo Potencial,98.3,Crecimiento24: 1.6% | Crecimiento25: -0.6% | Vacancia: 2.9% | Momentum: -13.4%,29.7853,-95.1852
75232,Dallas,TX,243898,Bajo Potencial,98.3,Crecimiento24: 1.4% | Crecimiento25: -1.1% | Vacancia: 0.7% | Momentum: -15.7%,32.6647,-96.8384
78418,Corpus Christi,TX,309354,Bajo Potencial,98.3,Crecimiento24: -0.3% | Crecimiento25: -1.5% | Vacancia: 12.4% | Momentum: -16.3%,27.6349,-97.3103
77568,La Marque,TX,257429,Bajo Potencial,98.3,Crecimiento24: -2.3% | Crecimiento25: 1.6% | Vacancia: 4.2% | Momentum: -9.5%,29.3676,-94.9742
75065,Lake Dallas,TX,406943,Bajo Potencial,98.3,Crecimiento24: 0.5% | Crecimiento25: 0.6% | Vacancia: 2.6% | Momentum: -15.8%,33.1219,-97.0237
78003,Bandera,TX,338135,Bajo Potencial,98.3,Crecimiento24: -3.4% | Crecimiento25: 1.9% | Vacancia: 11.1% | Momentum: -15.4%,29.7276,-99.0453
77418,Bellville,TX,430126,Bajo Potencial,98.3,Crecimiento24: -1.0% | Crecimiento25: 1.4% | Vacancia: 3.8% | Momentum: -11.8%,29.9658,-96.2531
75410,,TX,326742,Bajo Potencial,98.3,Crecimiento24: -0.9% | Crecimiento25: 0.7% | Vacancia: 13.7% | Momentum: -14.4%,32.7652,-95.5971
76476,Tolar,TX,408137,Bajo Potencial,98.3,Crecimiento24: -0.5% | Crecimiento25: 0.3% | Vacancia: 2.4% | Momentum: -9.0%,32.3772,-97.8802
78010,Center Point,TX,426085,Bajo Potencial,98.3,Crecimiento24: -0.6% | Crecimiento25: 0.4% | Vacancia: 7.8% | Momentum: -13.8%,29.9441,-99.0364
79325,Farwell,TX,180293,Bajo Potencial,98.3,Crecimiento24: -6.1% | Crecimiento25: 2.6% | Vacancia: 5.5% | Momentum: -10.5%,34.386,-102.9901
76453,Gordon,TX,369805,Bajo Potencial,98.3,Crecimiento24: -3.9% | Crecimiento25: 2.8% | Vacancia: 18.7% | Momentum: -13.8%,32.5478,-98.3632
78413,Corpus Christi,TX,259275,Bajo Potencial,98.2,Crecimiento24: -0.1% | Crecimiento25: -1.1% | Vacancia: 4.4% | Momentum: -8.3%,27.691,-97.3983
79606,Abilene,TX,274790,Bajo Potencial,98.2,Crecimiento24: 0.4% | Crecimiento25: 1.1% | Vacancia: 3.5% | Momentum: -10.7%,32.392,-99.7746
76105,Fort Worth,TX,178867,Bajo Potencial,98.2,Crecimiento24: -0.3% | Crecimiento25: 1.8% | Vacancia: 4.1% | Momentum: -14.4%,32.7233,-97.269
75020,Denison,TX,233584,Bajo Potencial,98.2,Crecimiento24: -1.2% | Crecimiento25: 1.7% | Vacancia: 4.6% | Momentum: -14.1%,33.745,-96.5496
78064,Pleasanton,TX,257594,Bajo Potencial,98.2,Crecimiento24: -1.5% | Crecimiento25: -0.6% | Vacancia: 3.5% | Momentum: -10.4%,28.9924,-98.4831
78256,San Antonio,TX,601624,Bajo Potencial,98.2,Crecimiento24: 1.1% | Crecimiento25: 0.4% | Vacancia: 9.1% | Momentum: -14.0%,29.6169,-98.6252
78016,Devine,TX,249129,Bajo Potencial,98.2,Crecimiento24: -4.7% | Crecimiento25: 1.8% | Vacancia: 3.7% | Momentum: -8.8%,29.1521,-98.909
75428,Commerce,TX,217612,Bajo Potencial,98.2,Crecimiento24: 0.5% | Crecimiento25: 1.3% | Vacancia: 6.5% | Momentum: -16.3%,33.2493,-95.9097
77362,Pinehurst,TX,407516,Bajo Potencial,98.2,Crecimiento24: 0.2% | Crecimiento25: 0.7% | Vacancia: 1.7% | Momentum: -13.6%,30.1581,-95.6814
78041,Laredo,TX,238887,Bajo Potencial,98.1,Crecimiento24: 0.4% | Crecimiento25: 0.2% | Vacancia: 2.1% | Momentum: -4.8%,27.5569,-99.4907
77590,Texas City,TX,191285,Bajo Potencial,98.1,Crecimiento24: -0.9% | Crecimiento25: 0.6% | Vacancia: 3.0% | Momentum: -10.0%,29.397,-94.9203
77316,Montgomery,TX,439125,Bajo Potencial,98.1,Crecimiento24: 0.8% | Crecimiento25: 0.6% | Vacancia: 2.4% | Momentum: -14.7%,30.3587,-95.6857
77023,Houston,TX,268008,Bajo Potencial,98.1,Crecimiento24: -0.5% | Crecimiento25: -1.0% | Vacancia: 6.5% | Momentum: -7.6%,29.7242,-95.3178
77713,Beaumont,TX,248671,Bajo Potencial,98.1,Crecimiento24: -4.7% | Crecimiento25: 0.8% | Vacancia: 5.9% | Momentum: -7.4%,30.085,-94.2607
76667,Mexia,TX,123178,Bajo Potencial,98.1,Crecimiento24: -5.2% | Crecimiento25: 3.0% | Vacancia: 8.4% | Momentum: -14.6%,31.6784,-96.4952
75691,,TX,240914,Bajo Potencial,98.1,Crecimiento24: -2.4% | Crecimiento25: 1.5% | Vacancia: 6.5% | Momentum: -11.0%,32.3266,-94.596
77521,Baytown,TX,254198,Bajo Potencial,98.0,Crecimiento24: -1.9% | Crecimiento25: 0.5% | Vacancia: 2.0% | Momentum: -12.5%,29.7705,-94.9695
77036,Houston,TX,172835,Bajo Potencial,98.0,Crecimiento24: 0.6% | Crecimiento25: -2.5% | Vacancia: 5.8% | Momentum: -13.7%,29.6984,-95.5405
77662,Vidor,TX,170903,Bajo Potencial,98.0,Crecimiento24: -10.6% | Crecimiento25: 2.5% | Vacancia: 7.4% | Momentum: -4.7%,30.1502,-94.0008
78114,Floresville,TX,363216,Bajo Potencial,98.0,Crecimiento24: -1.3% | Crecimiento25: 1.7% | Vacancia: 2.8% | Momentum: -10.4%,29.1693,-98.1936
77384,Conroe,TX,413041,Bajo Potencial,98.0,Crecimiento24: 0.9% | Crecimiento25: 0.8% | Vacancia: 4.7% | Momentum: -12.8%,30.2257,-95.4924
78612,Bastrop,TX,439830,Bajo Potencial,98.0,Crecimiento24: -4.9% | Crecimiento25: 1.5% | Vacancia: 1.3% | Momentum: -22.0%,30.0966,-97.4976
77078,Houston,TX,175641,Bajo Potencial,98.0,Crecimiento24: -0.9% | Crecimiento25: 0.4% | Vacancia: 4.0% | Momentum: -13.2%,29.8497,-95.2582
78336,Aransas Pass,TX,226081,Bajo Potencial,98.0,Crecimiento24: -0.8% | Crecimiento25: -0.7% | Vacancia: 15.5% | Momentum: -7.6%,27.9095,-97.1591
76531,Hamilton,TX,230726,Bajo Potencial,98.0,Crecimiento24: -1.2% | Crecimiento25: 1.3% | Vacancia: 15.1% | Momentum: -16.6%,31.6781,-98.1131
75449,Ladonia,TX,221938,Bajo Potencial,98.0,Crecimiento24: -1.1% | Crecimiento25: 1.8% | Vacancia: 13.2% | Momentum: -12.4%,33.4245,-95.9455
76053,Hurst,TX,303835,Bajo Potencial,97.9,Crecimiento24: 1.5% | Crecimiento25: 0.2% | Vacancia: 2.9% | Momentum: -13.2%,32.8211,-97.1756
76708,Waco,TX,227622,Bajo Potencial,97.9,Crecimiento24: 0.9% | Crecimiento25: -0.2% | Vacancia: 4.0% | Momentum: -16.5%,31.5765,-97.1786
77302,Conroe,TX,325688,Bajo Potencial,97.9,Crecimiento24: -0.0% | Crecimiento25: -0.6% | Vacancia: 1.5% | Momentum: -12.4%,30.2238,-95.3577
77707,Beaumont,TX,172626,Bajo Potencial,97.9,Crecimiento24: -6.3% | Crecimiento25: 1.9% | Vacancia: 5.3% | Momentum: -8.5%,30.0686,-94.1755
78629,Gonzales,TX,263258,Bajo Potencial,97.9,Crecimiento24: -0.3% | Crecimiento25: -2.0% | Vacancia: 5.4% | Momentum: -8.2%,29.5086,-97.4495
78152,Saint Hedwig,TX,277939,Bajo Potencial,97.9,Crecimiento24: -2.3% | Crecimiento25: -1.7% | Vacancia: 1.6% | Momentum: -14.2%,29.4353,-98.1952
78123,McQueeney,TX,434736,Bajo Potencial,97.9,Crecimiento24: -3.9% | Crecimiento25: -1.3% | Vacancia: 14.8% | Momentum: -14.5%,29.6023,-98.0492
77417,Beasley,TX,280904,Bajo Potencial,97.9,Crecimiento24: -0.7% | Crecimiento25: 0.7% | Vacancia: 1.7% | Momentum: -9.4%,29.479,-95.9681
75071,McKinney,TX,515870,Bajo Potencial,97.8,Crecimiento24: 0.3% | Crecimiento25: -0.2% | Vacancia: 1.5% | Momentum: -21.1%,33.1976,-96.6153
78550,Harlingen,TX,177896,Bajo Potencial,97.8,Crecimiento24: -0.2% | Crecimiento25: 1.3% | Vacancia: 5.0% | Momentum: -12.3%,26.1951,-97.689
77539,Dickinson,TX,287947,Bajo Potencial,97.8,Crecimiento24: -0.2% | Crecimiento25: 1.1% | Vacancia: 3.0% | Momentum: -10.5%,29.4585,-95.0345
76078,,TX,381146,Bajo Potencial,97.8,Crecimiento24: -0.3% | Crecimiento25: 1.8% | Vacancia: 2.9% | Momentum: -13.5%,33.054,-97.4817
75568,Naples,TX,169481,Bajo Potencial,97.8,Crecimiento24: -3.3% | Crecimiento25: 3.6% | Vacancia: 12.3% | Momentum: -7.8%,33.1912,-94.6891
78873,Leakey,TX,329653,Bajo Potencial,97.7,Crecimiento24: -0.1% | Crecimiento25: -1.4% | Vacancia: 35.1% | Momentum: -15.4%,29.769,-99.7479
75243,Dallas,TX,307341,Bajo Potencial,97.7,Crecimiento24: 1.4% | Crecimiento25: -1.4% | Vacancia: 6.6% | Momentum: -14.9%,32.9103,-96.7285
77630,,TX,143269,Bajo Potencial,97.7,Crecimiento24: -11.9% | Crecimiento25: 1.6% | Vacancia: 7.5% | Momentum: -5.3%,30.0709,-93.8659
76664,Mart,TX,161332,Bajo Potencial,97.7,Crecimiento24: -6.2% | Crecimiento25: 3.0% | Vacancia: 4.6% | Momentum: -16.0%,31.5458,-96.8381
75974,Tenaha,TX,235797,Bajo Potencial,97.7,Crecimiento24: -0.4% | Crecimiento25: 1.6% | Vacancia: 8.2% | Momentum: -4.0%,31.9408,-94.2488
78380,,TX,169259,Bajo Potencial,97.6,Crecimiento24: -6.7% | Crecimiento25: 1.0% | Vacancia: 4.8% | Momentum: -0.6%,27.7984,-97.6995
76550,Lampasas,TX,295600,Bajo Potencial,97.6,Crecimiento24: -3.2% | Crecimiento25: 2.7% | Vacancia: 7.2% | Momentum: -18.4%,31.068,-98.1834
77331,Coldspring,TX,265803,Bajo Potencial,97.6,Crecimiento24: -7.0% | Crecimiento25: 4.0% | Vacancia: 23.2% | Momentum: -13.9%,30.6027,-95.1086
75491,Whitewright,TX,353467,Bajo Potencial,97.6,Crecimiento24: -1.8% | Crecimiento25: 2.3% | Vacancia: 5.3% | Momentum: -15.4%,33.519,-96.451
75453,Lone Oak,TX,299259,Bajo Potencial,97.6,Crecimiento24: -0.7% | Crecimiento25: 1.2% | Vacancia: 6.9% | Momentum: -12.9%,32.9916,-95.9434
77833,Brenham,TX,336564,Bajo Potencial,97.5,Crecimiento24: -0.4% | Crecimiento25: 0.9% | Vacancia: 4.7% | Momentum: -11.1%,30.1774,-96.4028
76033,Cleburne,TX,277854,Bajo Potencial,97.5,Crecimiento24: -0.4% | Crecimiento25: 1.4% | Vacancia: 2.4% | Momentum: -14.6%,32.3509,-97.4103
75765,Hawkins,TX,258121,Bajo Potencial,97.5,Crecimiento24: 0.5% | Crecimiento25: 0.7% | Vacancia: 13.0% | Momentum: -15.2%,32.6439,-95.222
78417,Corpus Christi,TX,191354,Bajo Potencial,97.5,Crecimiento24: -0.3% | Crecimiento25: -0.1% | Vacancia: 3.6% | Momentum: -4.1%,27.729,-97.4494
77951,Victoria,TX,112737,Bajo Potencial,97.4,Crecimiento24: 0.0% | Crecimiento25: -4.9% | Vacancia: 9.7% | Momentum: -8.9%,28.6495,-96.8945
75006,Carrollton,TX,358413,Bajo Potencial,97.4,Crecimiento24: 2.4% | Crecimiento25: -0.6% | Vacancia: 1.7% | Momentum: -13.3%,32.9657,-96.8825
77071,Houston,TX,244768,Bajo Potencial,97.4,Crecimiento24: 1.3% | Crecimiento25: 1.1% | Vacancia: 3.6% | Momentum: -11.4%,29.6518,-95.5176
75831,Buffalo,TX,296898,Bajo Potencial,97.4,Crecimiento24: -5.8% | Crecimiento25: 4.4% | Vacancia: 14.3% | Momentum: -10.7%,31.4121,-95.9904
78358,Fulton,TX,258794,Bajo Potencial,97.4,Crecimiento24: 0.8% | Crecimiento25: -1.8% | Vacancia: 24.6% | Momentum: -10.7%,28.0614,-97.0411
77328,Cleveland,TX,260623,Bajo Potencial,97.3,Crecimiento24: -2.0% | Crecimiento25: 2.1% | Vacancia: 4.9% | Momentum: -9.9%,30.3963,-95.194
77619,Groves,TX,166632,Bajo Potencial,97.3,Crecimiento24: -4.4% | Crecimiento25: 2.4% | Vacancia: 4.4% | Momentum: -6.2%,29.9448,-93.9152
76022,Bedford,TX,319060,Bajo Potencial,97.3,Crecimiento24: 1.4% | Crecimiento25: 0.3% | Vacancia: 4.0% | Momentum: -13.7%,32.8297,-97.1454
75941,Diboll,TX,170578,Bajo Potencial,97.3,Crecimiento24: -0.4% | Crecimiento25: 1.3% | Vacancia: 4.0% | Momentum: -8.5%,31.195,-94.7729
76577,Thorndale,TX,381371,Bajo Potencial,97.3,Crecimiento24: -3.2% | Crecimiento25: -0.0% | Vacancia: 5.5% | Momentum: -18.1%,30.6082,-97.1764
75436,Detroit,TX,228464,Bajo Potencial,97.3,Crecimiento24: -0.6% | Crecimiento25: -1.8% | Vacancia: 5.8% | Momentum: -15.2%,33.6627,-95.2385
78953,Rosanky,TX,562652,Bajo Potencial,97.3,Crecimiento24: -10.8% | Crecimiento25: 2.3% | Vacancia: 12.2% | Momentum: -22.5%,29.9241,-97.3119
77901,Victoria,TX,148777,Bajo Potencial,97.2,Crecimiento24: 0.7% | Crecimiento25: 0.5% | Vacancia: 7.3% | Momentum: -9.6%,28.809,-96.9993
75069,McKinney,TX,449759,Bajo Potencial,97.2,Crecimiento24: 1.6% | Crecimiento25: -1.3% | Vacancia: 3.5% | Momentum: -16.8%,33.1976,-96.6153
77625,Kountze,TX,210748,Bajo Potencial,97.2,Crecimiento24: -6.3% | Crecimiento25: 4.2% | Vacancia: 5.8% | Momentum: -4.9%,30.3703,-94.3259
75859,Streetman,TX,378749,Bajo Potencial,97.2,Crecimiento24: -1.1% | Crecimiento25: 1.6% | Vacancia: 20.9% | Momentum: -16.6%,31.8885,-96.2988
78043,Laredo,TX,173742,Bajo Potencial,97.1,Crecimiento24: 0.7% | Crecimiento25: 0.1% | Vacancia: 3.4% | Momentum: -4.2%,27.5879,-99.2176
75223,Dallas,TX,266624,Bajo Potencial,97.1,Crecimiento24: 1.4% | Crecimiento25: -0.8% | Vacancia: 4.3% | Momentum: -12.9%,32.7942,-96.7475
75845,Groveton,TX,200201,Bajo Potencial,97.1,Crecimiento24: -3.4% | Crecimiento25: 3.7% | Vacancia: 24.6% | Momentum: -9.3%,31.0651,-95.0969
76861,Miles,TX,256294,Bajo Potencial,97.1,Crecimiento24: -1.2% | Crecimiento25: 1.5% | Vacancia: 3.9% | Momentum: -6.1%,31.6121,-100.1823
78597,,TX,409546,Bajo Potencial,97.1,Crecimiento24: 2.6% | Crecimiento25: -3.8% | Vacancia: 151.2% | Momentum: -25.3%,26.2393,-97.1936
77708,Beaumont,TX,164306,Bajo Potencial,97.0,Crecimiento24: -4.8% | Crecimiento25: 0.8% | Vacancia: 4.5% | Momentum: -6.5%,30.14,-94.1604
77954,Cuero,TX,214923,Bajo Potencial,97.0,Crecimiento24: 1.3% | Crecimiento25: -1.0% | Vacancia: 12.0% | Momentum: -6.0%,29.091,-97.2812
79830,Alpine,TX,244781,Bajo Potencial,97.0,Crecimiento24: -5.6% | Crecimiento25: 2.6% | Vacancia: 8.3% | Momentum: -11.8%,30.2631,-103.6541
79201,Childress,TX,99007,Bajo Potencial,97.0,Crecimiento24: -17.3% | Crecimiento25: 3.6% | Vacancia: 11.8% | Momentum: -15.3%,34.4104,-100.2364
77358,New Waverly,TX,368098,Bajo Potencial,97.0,Crecimiento24: -3.6% | Crecimiento25: 3.3% | Vacancia: 8.5% | Momentum: -9.9%,30.5354,-95.4532
75844,Grapeland,TX,253140,Bajo Potencial,97.0,Crecimiento24: -7.6% | Crecimiento25: 4.1% | Vacancia: 16.6% | Momentum: -13.4%,31.4972,-95.4447
76670,Italy,TX,254110,Bajo Potencial,97.0,Crecimiento24: -6.4% | Crecimiento25: 3.3% | Vacancia: 6.3% | Momentum: -8.5%,32.1482,-96.9612
77072,Houston,TX,206698,Bajo Potencial,96.9,Crecimiento24: 1.8% | Crecimiento25: 0.1% | Vacancia: 2.9% | Momentum: -14.8%,29.699,-95.5862
76380,Seymour,TX,127279,Bajo Potencial,96.9,Crecimiento24: -4.9% | Crecimiento25: 5.7% | Vacancia: 18.4% | Momentum: -2.9%,33.5914,-99.2587
76117,Haltom City,TX,240482,Bajo Potencial,96.8,Crecimiento24: 3.3% | Crecimiento25: -0.7% | Vacancia: 2.4% | Momentum: -13.8%,32.8087,-97.2709
77531,Clute,TX,210649,Bajo Potencial,96.8,Crecimiento24: 0.6% | Crecimiento25: 1.4% | Vacancia: 5.8% | Momentum: -5.0%,29.0325,-95.4026
79068,Panhandle,TX,195083,Bajo Potencial,96.8,Crecimiento24: -0.7% | Crecimiento25: 1.8% | Vacancia: 5.2% | Momentum: -7.8%,35.3808,-101.4304
79501,Anson,TX,146281,Bajo Potencial,96.8,Crecimiento24: 1.2% | Crecimiento25: -1.3% | Vacancia: 9.5% | Momentum: -7.9%,32.7489,-99.8953
79545,Roscoe,TX,138098,Bajo Potencial,96.8,Crecimiento24: -1.6% | Crecimiento25: 1.1% | Vacancia: 6.9% | Momentum: -5.5%,32.4276,-100.5391
77011,Houston,TX,209466,Bajo Potencial,96.7,Crecimiento24: 1.6% | Crecimiento25: -1.9% | Vacancia: 7.8% | Momentum: -7.3%,29.742,-95.3073
76230,Bowie,TX,243203,Bajo Potencial,96.7,Crecimiento24: 0.6% | Crecimiento25: 1.8% | Vacancia: 9.9% | Momentum: -12.8%,33.5568,-97.8373
75755,Big Sandy,TX,217147,Bajo Potencial,96.7,Crecimiento24: -0.8% | Crecimiento25: 1.9% | Vacancia: 9.3% | Momentum: -12.3%,32.6168,-95.088
76040,Fort Worth,TX,361066,Bajo Potencial,96.6,Crecimiento24: 1.6% | Crecimiento25: 0.6% | Vacancia: 3.8% | Momentum: -13.7%,32.8264,-97.0972
78410,Corpus Christi,TX,241177,Bajo Potencial,96.6,Crecimiento24: -0.2% | Crecimiento25: 0.3% | Vacancia: 2.7% | Momentum: -7.2%,27.8458,-97.596
78416,Corpus Christi,TX,105798,Bajo Potencial,96.6,Crecimiento24: 0.6% | Crecimiento25: -1.8% | Vacancia: 4.3% | Momentum: 0.3%,27.7536,-97.4347
79095,Wellington,TX,80077,Bajo Potencial,96.6,Crecimiento24: -17.4% | Crecimiento25: 6.3% | Vacancia: 13.8% | Momentum: -6.2%,34.8717,-100.2207
78407,Corpus Christi,TX,95845,Bajo Potencial,96.6,Crecimiento24: -5.9% | Crecimiento25: 0.1% | Vacancia: 12.4% | Momentum: 0.8%,27.8042,-97.4356
75042,Garland,TX,285962,Bajo Potencial,96.5,Crecimiento24: 2.4% | Crecimiento25: -0.9% | Vacancia: 1.1% | Momentum: -14.3%,32.9185,-96.6775
77880,Washington,TX,525913,Bajo Potencial,96.5,Crecimiento24: 0.3% | Crecimiento25: 1.6% | Vacancia: 9.7% | Momentum: -10.1%,30.3182,-96.2249
75473,Powderly,TX,262077,Bajo Potencial,96.5,Crecimiento24: -1.8% | Crecimiento25: 2.6% | Vacancia: 4.1% | Momentum: -14.5%,33.7779,-95.5307
76524,,TX,262568,Bajo Potencial,96.5,Crecimiento24: 1.0% | Crecimiento25: 1.3% | Vacancia: 3.4% | Momentum: -12.2%,31.3088,-97.2774
76539,Copperas Cove,TX,358630,Bajo Potencial,96.4,Crecimiento24: -2.1% | Crecimiento25: 2.4% | Vacancia: 6.1% | Momentum: -16.3%,31.0887,-98.0099
75692,Waskom,TX,192299,Bajo Potencial,96.4,Crecimiento24: 0.7% | Crecimiento25: 1.5% | Vacancia: 5.6% | Momentum: -3.7%,32.5184,-94.1355
76640,,TX,215589,Bajo Potencial,96.4,Crecimiento24: -0.4% | Crecimiento25: 1.4% | Vacancia: 2.7% | Momentum: -16.0%,31.6725,-97.1138
76693,Wortham,TX,200561,Bajo Potencial,96.4,Crecimiento24: 0.6% | Crecimiento25: -0.8% | Vacancia: 10.8% | Momentum: -14.0%,31.7865,-96.4202
79358,Ropesville,TX,257535,Bajo Potencial,96.3,Crecimiento24: -0.8% | Crecimiento25: 1.9% | Vacancia: 1.9% | Momentum: -9.3%,33.4575,-102.1584
77070,Houston,TX,299702,Bajo Potencial,96.2,Crecimiento24: -0.3% | Crecimiento25: 0.8% | Vacancia: 2.8% | Momentum: -13.8%,29.9781,-95.5803
77515,Angleton,TX,230264,Bajo Potencial,96.2,Crecimiento24: 0.3% | Crecimiento25: 0.5% | Vacancia: 3.8% | Momentum: -7.1%,29.181,-95.4467
75683,Ore City,TX,161792,Bajo Potencial,96.2,Crecimiento24: -0.0% | Crecimiento25: 0.4% | Vacancia: 7.5% | Momentum: -8.8%,32.7856,-94.7514
77377,Tomball,TX,405231,Bajo Potencial,96.1,Crecimiento24: -0.1% | Crecimiento25: 1.2% | Vacancia: 2.0% | Momentum: -14.5%,30.0615,-95.6821
76058,Burleson,TX,358687,Bajo Potencial,96.1,Crecimiento24: 0.6% | Crecimiento25: 1.6% | Vacancia: 2.7% | Momentum: -13.7%,32.4663,-97.4011
76690,Meridian,TX,244572,Bajo Potencial,96.1,Crecimiento24: -7.3% | Crecimiento25: 4.2% | Vacancia: 16.9% | Momentum: -8.1%,32.0593,-97.7514
76657,Mc Gregor,TX,327122,Bajo Potencial,96.0,Crecimiento24: 0.3% | Crecimiento25: 1.7% | Vacancia: 4.1% | Momentum: -13.8%,31.4431,-97.3943
78616,,TX,376716,Bajo Potencial,96.0,Crecimiento24: -2.7% | Crecimiento25: 2.6% | Vacancia: 2.9% | Momentum: -19.1%,29.9528,-97.581
75638,Daingerfield,TX,169323,Bajo Potencial,96.0,Crecimiento24: -3.7% | Crecimiento25: 4.2% | Vacancia: 4.2% | Momentum: -9.6%,33.0313,-94.7359
75416,Paris,TX,220225,Bajo Potencial,96.0,Crecimiento24: -3.9% | Crecimiento25: 2.6% | Vacancia: 3.1% | Momentum: -16.0%,33.6945,-95.3823
78205,San Antonio,TX,596665,Bajo Potencial,96.0,Crecimiento24: -0.4% | Crecimiento25: 0.3% | Vacancia: 30.7% | Momentum: -8.9%,29.4237,-98.4925
77088,Houston,TX,219243,Bajo Potencial,95.9,Crecimiento24: 1.9% | Crecimiento25: -0.2% | Vacancia: 2.0% | Momentum: -15.2%,29.8817,-95.4539
75074,Plano,TX,386113,Bajo Potencial,95.9,Crecimiento24: 2.7% | Crecimiento25: -0.7% | Vacancia: 1.3% | Momentum: -14.9%,33.0277,-96.6777
77632,Orange,TX,214554,Bajo Potencial,95.8,Crecimiento24: -4.9% | Crecimiento25: 3.6% | Vacancia: 5.5% | Momentum: -3.9%,30.1775,-93.8409
78374,Portland,TX,262050,Bajo Potencial,95.8,Crecimiento24: -0.0% | Crecimiento25: 1.0% | Vacancia: 5.7% | Momentum: -8.2%,27.8935,-97.3169
77009,Houston,TX,395243,Bajo Potencial,95.7,Crecimiento24: 2.3% | Crecimiento25: -1.0% | Vacancia: 7.3% | Momentum: -6.8%,29.7936,-95.3675
79720,Big Spring,TX,138012,Bajo Potencial,95.7,Crecimiento24: -0.6% | Crecimiento25: -10.7% | Vacancia: 6.5% | Momentum: -0.6%,32.2787,-101.4578
75975,Timpson,TX,274758,Bajo Potencial,95.7,Crecimiento24: -4.0% | Crecimiento25: 4.9% | Vacancia: 10.9% | Momentum: -4.4%,31.8841,-94.3967
77622,Hamshire,TX,245692,Bajo Potencial,95.7,Crecimiento24: -2.7% | Crecimiento25: 2.2% | Vacancia: 2.3% | Momentum: -3.4%,29.8668,-94.3187
79336,Levelland,TX,159541,Bajo Potencial,95.6,Crecimiento24: 1.1% | Crecimiento25: 0.2% | Vacancia: 5.1% | Momentum: -2.4%,33.5788,-102.3676
77562,Highlands,TX,226084,Bajo Potencial,95.6,Crecimiento24: 0.4% | Crecimiento25: -0.4% | Vacancia: 5.9% | Momentum: -13.0%,29.8296,-95.0393
77859,Hearne,TX,193348,Bajo Potencial,95.6,Crecimiento24: -7.1% | Crecimiento25: 5.9% | Vacancia: 5.3% | Momentum: -3.4%,30.8669,-96.5843
79403,Lubbock,TX,96880,Bajo Potencial,95.5,Crecimiento24: -7.8% | Crecimiento25: -2.9% | Vacancia: 4.8% | Momentum: -11.9%,33.6196,-101.8098
76431,Chico,TX,355520,Bajo Potencial,95.5,Crecimiento24: 0.2% | Crecimiento25: 1.9% | Vacancia: 3.3% | Momentum: -10.8%,33.3193,-97.8031
75435,Deport,TX,166224,Bajo Potencial,95.5,Crecimiento24: -7.1% | Crecimiento25: 2.3% | Vacancia: 15.1% | Momentum: -17.0%,33.5221,-95.3654
77514,Anahuac,TX,254176,Bajo Potencial,95.4,Crecimiento24: 0.6% | Crecimiento25: 1.9% | Vacancia: 12.0% | Momentum: -4.8%,29.662,-94.593
75208,Dallas,TX,414633,Bajo Potencial,95.3,Crecimiento24: 0.9% | Crecimiento25: 1.2% | Vacancia: 3.7% | Momentum: -10.2%,32.7492,-96.8389
76534,Holland,TX,347736,Bajo Potencial,95.3,Crecimiento24: 1.2% | Crecimiento25: 1.1% | Vacancia: 4.4% | Momentum: -11.7%,30.88,-97.3857
75932,Burkeville,TX,202178,Bajo Potencial,95.2,Crecimiento24: 1.8% | Crecimiento25: -1.4% | Vacancia: 39.7% | Momentum: -9.9%,31.0099,-93.6585
75152,,TX,317353,Bajo Potencial,95.2,Crecimiento24: -0.1% | Crecimiento25: 2.0% | Vacancia: 2.9% | Momentum: -11.4%,32.4387,-96.6794
77489,Missouri City,TX,238988,Bajo Potencial,95.1,Crecimiento24: 1.1% | Crecimiento25: 1.1% | Vacancia: 1.3% | Momentum: -12.6%,29.5962,-95.5115
79235,Floydada,TX,85847,Bajo Potencial,95.1,Crecimiento24: -12.9% | Crecimiento25: -0.8% | Vacancia: 14.3% | Momentum: 0.4%,33.9743,-101.3346
77364,Point Blank,TX,225507,Bajo Potencial,95.1,Crecimiento24: -5.2% | Crecimiento25: 4.5% | Vacancia: 22.4% | Momentum: -12.0%,30.7593,-95.2295
77065,Houston,TX,296488,Bajo Potencial,95.0,Crecimiento24: 0.5% | Crecimiento25: 1.2% | Vacancia: 3.2% | Momentum: -13.3%,29.9319,-95.6106
77627,Nederland,TX,203614,Bajo Potencial,95.0,Crecimiento24: -3.9% | Crecimiento25: 3.8% | Vacancia: 4.4% | Momentum: -5.6%,29.9716,-94.0012
79323,Denver City,TX,200619,Bajo Potencial,95.0,Crecimiento24: -5.4% | Crecimiento25: 3.2% | Vacancia: 4.0% | Momentum: -3.0%,32.9711,-102.8313
75630,Avinger,TX,157916,Bajo Potencial,95.0,Crecimiento24: -8.3% | Crecimiento25: 5.8% | Vacancia: 17.2% | Momentum: -9.2%,32.8485,-94.5795
77040,Houston,TX,267771,Bajo Potencial,94.9,Crecimiento24: 1.1% | Crecimiento25: 1.0% | Vacancia: 1.7% | Momentum: -12.7%,29.8744,-95.5278
79404,Lubbock,TX,97165,Bajo Potencial,94.9,Crecimiento24: -3.0% | Crecimiento25: 1.6% | Vacancia: 11.0% | Momentum: -10.1%,33.526,-101.8333
75969,Pollok,TX,220608,Bajo Potencial,94.9,Crecimiento24: -0.6% | Crecimiento25: 2.3% | Vacancia: 2.5% | Momentum: -8.8%,31.4291,-94.8254
77564,,TX,217686,Bajo Potencial,94.9,Crecimiento24: 1.2% | Crecimiento25: 1.5% | Vacancia: 10.2% | Momentum: -4.0%,30.1463,-94.6424
78058,Hunt,TX,490570,Bajo Potencial,94.9,Crecimiento24: 0.8% | Crecimiento25: 1.3% | Vacancia: 10.9% | Momentum: -13.4%,30.1725,-99.485
78372,Orange Grove,TX,199076,Bajo Potencial,94.8,Crecimiento24: -0.4% | Crecimiento25: -0.7% | Vacancia: 8.2% | Momentum: 0.6%,27.9487,-97.9838
75966,Newton,TX,138024,Bajo Potencial,94.8,Crecimiento24: 1.1% | Crecimiento25: -1.6% | Vacancia: 8.7% | Momentum: -7.2%,30.8351,-93.7497
75002,Allen,TX,481928,Bajo Potencial,94.7,Crecimiento24: 1.9% | Crecimiento25: -0.3% | Vacancia: 1.1% | Momentum: -18.9%,33.0934,-96.6454
79121,Amarillo,TX,288512,Bajo Potencial,94.7,Crecimiento24: 0.6% | Crecimiento25: 1.6% | Vacancia: 5.2% | Momentum: -10.7%,35.1697,-101.9266
76059,Cleburne,TX,262772,Bajo Potencial,94.7,Crecimiento24: 0.7% | Crecimiento25: 1.5% | Vacancia: 5.0% | Momentum: -12.9%,32.3937,-97.3287
77076,Houston,TX,200175,Bajo Potencial,94.6,Crecimiento24: 1.3% | Crecimiento25: 0.7% | Vacancia: 2.6% | Momentum: -12.3%,29.858,-95.3834
77013,Houston,TX,207612,Bajo Potencial,94.4,Crecimiento24: 1.9% | Crecimiento25: -1.8% | Vacancia: 6.4% | Momentum: -12.6%,29.7842,-95.2301
77979,Port Lavaca,TX,190093,Bajo Potencial,94.3,Crecimiento24: -3.8% | Crecimiento25: 4.2% | Vacancia: 6.7% | Momentum: -5.5%,28.6011,-96.6259
77089,Houston,TX,274960,Bajo Potencial,94.2,Crecimiento24: 1.1% | Crecimiento25: 1.1% | Vacancia: 2.1% | Momentum: -9.8%,29.594,-95.2218
75172,Wilmer,TX,218203,Bajo Potencial,94.2,Crecimiento24: 1.1% | Crecimiento25: 1.3% | Vacancia: 0.7% | Momentum: -15.2%,32.5981,-96.6838
79029,Dumas,TX,176301,Bajo Potencial,94.0,Crecimiento24: -2.8% | Crecimiento25: 3.9% | Vacancia: 4.2% | Momentum: -4.5%,35.8823,-101.968
78672,Tow,TX,256645,Bajo Potencial,94.0,Crecimiento24: -0.4% | Crecimiento25: 0.8% | Vacancia: 63.2% | Momentum: -21.2%,30.8609,-98.4596
77459,Missouri City,TX,403086,Bajo Potencial,93.9,Crecimiento24: 1.0% | Crecimiento25: 1.0% | Vacancia: 1.3% | Momentum: -13.3%,29.5704,-95.5423
75234,Farmers Branch,TX,358912,Bajo Potencial,93.9,Crecimiento24: 2.0% | Crecimiento25: -0.9% | Vacancia: 4.1% | Momentum: -11.8%,32.9245,-96.8938
77037,Houston,TX,204244,Bajo Potencial,93.9,Crecimiento24: 2.7% | Crecimiento25: -0.6% | Vacancia: 1.3% | Momentum: -12.7%,29.8892,-95.3935
77657,Lumberton,TX,268662,Bajo Potencial,93.9,Crecimiento24: 1.1% | Crecimiento25: 1.0% | Vacancia: 2.9% | Momentum: -5.0%,30.2818,-94.2191
78101,Adkins,TX,421977,Bajo Potencial,93.9,Crecimiento24: -2.4% | Crecimiento25: 2.3% | Vacancia: 1.7% | Momentum: -11.2%,29.3805,-98.265
78258,San Antonio,TX,506296,Bajo Potencial,93.8,Crecimiento24: 1.4% | Crecimiento25: 1.1% | Vacancia: 2.6% | Momentum: -13.8%,29.6562,-98.4967
77578,Manvel,TX,444294,Bajo Potencial,93.8,Crecimiento24: -0.1% | Crecimiento25: 1.6% | Vacancia: 2.5% | Momentum: -12.1%,29.4694,-95.3503
75418,Bonham,TX,234992,Bajo Potencial,93.8,Crecimiento24: -2.2% | Crecimiento25: 3.2% | Vacancia: 5.0% | Momentum: -14.9%,33.5806,-96.1836
79316,Brownfield,TX,119536,Bajo Potencial,93.8,Crecimiento24: -15.1% | Crecimiento25: 1.6% | Vacancia: 4.2% | Momentum: -2.0%,33.1698,-102.2762
75459,Howe,TX,324863,Bajo Potencial,93.8,Crecimiento24: 0.9% | Crecimiento25: 1.6% | Vacancia: 5.6% | Momentum: -14.2%,33.5311,-96.6777
77505,Pasadena,TX,316345,Bajo Potencial,93.7,Crecimiento24: 0.8% | Crecimiento25: 1.2% | Vacancia: 2.0% | Momentum: -9.4%,29.6518,-95.1464
76642,Groesbeck,TX,193077,Bajo Potencial,93.7,Crecimiento24: 1.7% | Crecimiento25: -0.3% | Vacancia: 8.5% | Momentum: -13.7%,31.5357,-96.5234
79745,Kermit,TX,118026,Bajo Potencial,93.7,Crecimiento24: -13.9% | Crecimiento25: 6.9% | Vacancia: 5.9% | Momentum: -3.6%,31.855,-103.0913
79526,Hermleigh,TX,188984,Bajo Potencial,93.6,Crecimiento24: -2.9% | Crecimiento25: 2.3% | Vacancia: 8.7% | Momentum: -2.6%,32.6294,-100.7547
77050,Houston,TX,188772,Bajo Potencial,93.6,Crecimiento24: 1.6% | Crecimiento25: -1.5% | Vacancia: 1.1% | Momentum: -13.2%,29.9015,-95.2848
75124,Eustace,TX,306862,Bajo Potencial,93.4,Crecimiento24: -1.8% | Crecimiento25: 2.6% | Vacancia: 7.5% | Momentum: -13.8%,32.2965,-96.0137
78332,Alice,TX,132288,Bajo Potencial,93.3,Crecimiento24: -5.6% | Crecimiento25: -1.3% | Vacancia: 6.6% | Momentum: 2.2%,27.7432,-98.0836
78409,Corpus Christi,TX,195590,Bajo Potencial,93.3,Crecimiento24: -0.5% | Crecimiento25: 1.9% | Vacancia: 4.5% | Momentum: -0.8%,27.8146,-97.527
77573,League City,TX,383144,Bajo Potencial,93.3,Crecimiento24: 0.8% | Crecimiento25: 1.0% | Vacancia: 1.2% | Momentum: -10.5%,29.5173,-95.0963
75946,Garrison,TX,233970,Bajo Potencial,93.1,Crecimiento24: 0.4% | Crecimiento25: 0.2% | Vacancia: 7.8% | Momentum: -9.4%,31.8111,-94.5266
75023,Plano,TX,435625,Bajo Potencial,93.0,Crecimiento24: 3.2% | Crecimiento25: -0.8% | Vacancia: 1.6% | Momentum: -14.9%,33.055,-96.7365
77437,El Campo,TX,221366,Bajo Potencial,93.0,Crecimiento24: -3.5% | Crecimiento25: 3.3% | Vacancia: 3.7% | Momentum: -6.5%,29.2008,-96.2743
78362,Ingleside,TX,218623,Bajo Potencial,93.0,Crecimiento24: 2.3% | Crecimiento25: -0.5% | Vacancia: 6.1% | Momentum: -8.1%,27.8682,-97.2069
75652,,TX,185621,Bajo Potencial,92.9,Crecimiento24: -1.8% | Crecimiento25: 1.8% | Vacancia: 5.6% | Momentum: -9.4%,32.2131,-94.7834
79735,Fort Stockton,TX,168181,Bajo Potencial,92.9,Crecimiento24: -0.7% | Crecimiento25: -5.4% | Vacancia: 4.7% | Momentum: 1.1%,30.8908,-102.8799
78861,Hondo,TX,268259,Bajo Potencial,92.9,Crecimiento24: -2.4% | Crecimiento25: 4.0% | Vacancia: 4.2% | Momentum: -7.0%,29.3475,-99.1414
76446,Dublin,TX,279415,Bajo Potencial,92.9,Crecimiento24: -2.9% | Crecimiento25: 2.8% | Vacancia: 8.7% | Momentum: -17.4%,32.0909,-98.3455
78638,Kingsbury,TX,361307,Bajo Potencial,92.9,Crecimiento24: 0.4% | Crecimiento25: 0.6% | Vacancia: 6.0% | Momentum: -7.9%,29.6726,-97.8306
79366,Ransom Canyon,TX,372339,Bajo Potencial,92.8,Crecimiento24: 1.3% | Crecimiento25: 1.3% | Vacancia: 6.4% | Momentum: -8.7%,33.5334,-101.6796
76651,Italy,TX,252210,Bajo Potencial,92.8,Crecimiento24: 1.7% | Crecimiento25: 0.0% | Vacancia: 4.2% | Momentum: -11.0%,32.1785,-96.8823
76449,Graford,TX,618139,Bajo Potencial,92.8,Crecimiento24: -3.7% | Crecimiento25: 5.6% | Vacancia: 84.3% | Momentum: -16.5%,32.9242,-98.337
75076,Pottsboro,TX,345686,Bajo Potencial,92.7,Crecimiento24: 1.3% | Crecimiento25: 1.1% | Vacancia: 14.4% | Momentum: -16.1%,33.8095,-96.6906
76093,Rio Vista,TX,291726,Bajo Potencial,92.7,Crecimiento24: 1.1% | Crecimiento25: 1.4% | Vacancia: 2.1% | Momentum: -12.3%,32.2532,-97.3678
76639,Dawson,TX,178082,Bajo Potencial,92.6,Crecimiento24: -5.4% | Crecimiento25: 3.4% | Vacancia: 6.5% | Momentum: -17.2%,31.8974,-96.7085
78046,Laredo,TX,185240,Bajo Potencial,92.3,Crecimiento24: 1.4% | Crecimiento25: 1.3% | Vacancia: 1.7% | Momentum: -5.8%,27.4047,-99.4743
75862,Trinity,TX,177323,Bajo Potencial,92.2,Crecimiento24: -2.9% | Crecimiento25: 2.6% | Vacancia: 14.0% | Momentum: -11.0%,30.942,-95.3403
77407,Richmond,TX,391929,Bajo Potencial,92.1,Crecimiento24: 0.3% | Crecimiento25: 1.1% | Vacancia: 0.7% | Momentum: -16.1%,29.6625,-95.7272
75051,Grand Prairie,TX,253179,Bajo Potencial,92.1,Crecimiento24: 2.3% | Crecimiento25: -0.4% | Vacancia: 2.2% | Momentum: -14.3%,32.7115,-97.0069
76633,China Spring,TX,396102,Bajo Potencial,92.1,Crecimiento24: 1.5% | Crecimiento25: 1.3% | Vacancia: 0.0% | Momentum: -13.5%,31.6673,-97.3002
76857,May,TX,120212,Bajo Potencial,92.1,Crecimiento24: -5.7% | Crecimiento25: 2.1% | Vacancia: 36.0% | Momentum: 1.3%,31.9571,-98.9656
77351,Livingston,TX,191833,Bajo Potencial,91.9,Crecimiento24: -5.7% | Crecimiento25: 4.7% | Vacancia: 14.3% | Momentum: -11.1%,30.6829,-94.8976
77983,Seadrift,TX,188345,Bajo Potencial,91.7,Crecimiento24: -2.8% | Crecimiento25: 3.9% | Vacancia: 11.0% | Momentum: -7.1%,28.4101,-96.7023
78260,San Antonio,TX,518371,Bajo Potencial,91.7,Crecimiento24: 0.4% | Crecimiento25: 1.8% | Vacancia: 1.6% | Momentum: -14.0%,29.7026,-98.4759
78266,,TX,592783,Bajo Potencial,91.7,Crecimiento24: 1.2% | Crecimiento25: -0.1% | Vacancia: 2.4% | Momentum: -14.5%,29.6643,-98.3118
75103,Canton,TX,294552,Bajo Potencial,91.3,Crecimiento24: 1.6% | Crecimiento25: 0.1% | Vacancia: 4.5% | Momentum: -11.2%,32.5143,-95.9047
75667,Laneville,TX,230322,Bajo Potencial,91.1,Crecimiento24: -0.5% | Crecimiento25: 1.7% | Vacancia: 4.6% | Momentum: -10.9%,31.9508,-94.866
75670,Marshall,TX,113676,Bajo Potencial,90.9,Crecimiento24: -7.8% | Crecimiento25: 3.0% | Vacancia: 6.1% | Momentum: 0.4%,32.5338,-94.3619
76634,Clifton,TX,234684,Bajo Potencial,90.9,Crecimiento24: -3.7% | Crecimiento25: 3.7% | Vacancia: 9.0% | Momentum: -14.7%,31.7918,-97.5203
76665,Meridian,TX,267955,Bajo Potencial,90.7,Crecimiento24: -7.5% | Crecimiento25: 4.8% | Vacancia: 10.7% | Momentum: -13.1%,31.929,-97.6443
77371,Shepherd,TX,205873,Bajo Potencial,90.6,Crecimiento24: -9.4% | Crecimiento25: 7.0% | Vacancia: 10.9% | Momentum: -9.1%,30.498,-94.9966
75141,Hutchins,TX,258240,Bajo Potencial,90.6,Crecimiento24: 2.3% | Crecimiento25: -1.0% | Vacancia: 0.7% | Momentum: -15.8%,32.6396,-96.707
77060,Houston,TX,196646,Bajo Potencial,90.5,Crecimiento24: 2.3% | Crecimiento25: -0.0% | Vacancia: 3.4% | Momentum: -13.6%,29.9335,-95.3981
77006,Houston,TX,566097,Bajo Potencial,90.5,Crecimiento24: 1.5% | Crecimiento25: 1.3% | Vacancia: 9.7% | Momentum: -3.8%,29.7409,-95.3923
75457,Mount Vernon,TX,281603,Bajo Potencial,90.5,Crecimiento24: -2.2% | Crecimiento25: 3.5% | Vacancia: 9.2% | Momentum: -14.2%,33.1702,-95.2181
79022,Dalhart,TX,177051,Bajo Potencial,90.1,Crecimiento24: -3.0% | Crecimiento25: 4.2% | Vacancia: 6.2% | Momentum: -11.3%,36.0732,-102.5177
79331,Lamesa,TX,99268,Bajo Potencial,89.8,Crecimiento24: -12.9% | Crecimiento25: 4.7% | Vacancia: 5.7% | Momentum: 0.2%,32.7367,-101.9569
76704,Waco,TX,127737,Bajo Potencial,89.8,Crecimiento24: -7.4% | Crecimiento25: 5.8% | Vacancia: 8.7% | Momentum: -18.1%,31.5773,-97.1241
76106,Fort Worth,TX,187466,Bajo Potencial,89.7,Crecimiento24: -0.8% | Crecimiento25: 2.3% | Vacancia: 2.3% | Momentum: -14.9%,32.7968,-97.356
77004,Houston,TX,368902,Bajo Potencial,89.6,Crecimiento24: 2.5% | Crecimiento25: -1.0% | Vacancia: 5.9% | Momentum: -6.5%,29.7247,-95.3625
75092,Sherman,TX,305757,Bajo Potencial,89.6,Crecimiento24: 0.6% | Crecimiento25: 1.8% | Vacancia: 3.9% | Momentum: -14.8%,33.6372,-96.6184
78231,San Antonio,TX,450728,Bajo Potencial,89.6,Crecimiento24: 1.2% | Crecimiento25: 1.2% | Vacancia: 1.4% | Momentum: -11.5%,29.5714,-98.5414
78801,Uvalde,TX,187809,Bajo Potencial,89.5,Crecimiento24: -2.5% | Crecimiento25: 4.2% | Vacancia: 5.1% | Momentum: -5.1%,29.2172,-99.7931
77091,Houston,TX,264287,Bajo Potencial,89.4,Crecimiento24: 1.8% | Crecimiento25: 0.4% | Vacancia: 5.1% | Momentum: -11.1%,29.8534,-95.4435
75751,Athens,TX,208169,Bajo Potencial,89.4,Crecimiento24: 1.0% | Crecimiento25: 1.6% | Vacancia: 6.1% | Momentum: -9.7%,32.1935,-95.8432
79109,Amarillo,TX,226492,Bajo Potencial,89.3,Crecimiento24: 1.6% | Crecimiento25: 1.4% | Vacancia: 5.2% | Momentum: -10.7%,35.1663,-101.8868
78402,Corpus Christi,TX,118334,Bajo Potencial,89.3,Crecimiento24: 6.8% | Crecimiento25: -7.9% | Vacancia: 132.9% | Momentum: -21.3%,27.8262,-97.3857
77083,Houston,TX,267731,Bajo Potencial,89.2,Crecimiento24: 1.3% | Crecimiento25: 0.7% | Vacancia: 1.7% | Momentum: -13.6%,29.6947,-95.6511
79602,Abilene,TX,247632,Bajo Potencial,89.1,Crecimiento24: 1.7% | Crecimiento25: 1.0% | Vacancia: 5.5% | Momentum: -9.8%,32.4178,-99.7214
78580,Raymondville,TX,101406,Bajo Potencial,89.1,Crecimiento24: -7.1% | Crecimiento25: 3.0% | Vacancia: 5.0% | Momentum: 0.9%,26.4792,-97.7967
79035,Friona,TX,145014,Bajo Potencial,89.1,Crecimiento24: -5.0% | Crecimiento25: 6.2% | Vacancia: 5.5% | Momentum: -5.3%,34.6417,-102.7241
79363,Shallowater,TX,284747,Bajo Potencial,89.0,Crecimiento24: 1.6% | Crecimiento25: 0.1% | Vacancia: 2.8% | Momentum: -6.8%,33.6919,-101.9836
75756,Brownsboro,TX,284121,Bajo Potencial,89.0,Crecimiento24: 0.7% | Crecimiento25: 1.9% | Vacancia: 5.9% | Momentum: -12.1%,32.304,-95.6
77061,Houston,TX,238249,Bajo Potencial,88.9,Crecimiento24: 0.1% | Crecimiento25: 1.3% | Vacancia: 4.7% | Momentum: -10.3%,29.6652,-95.279
78932,Burton,TX,672735,Bajo Potencial,88.8,Crecimiento24: -3.9% | Crecimiento25: 4.6% | Vacancia: 36.5% | Momentum: -11.8%,30.1404,-96.6861
77523,Baytown,TX,369261,Bajo Potencial,88.8,Crecimiento24: 0.0% | Crecimiento25: 2.0% | Vacancia: 2.2% | Momentum: -7.1%,29.77,-94.8608
75240,Dallas,TX,411432,Bajo Potencial,88.8,Crecimiento24: 4.7% | Crecimiento25: -1.0% | Vacancia: 5.5% | Momentum: -13.1%,32.9374,-96.7872
75833,Centerville,TX,310184,Bajo Potencial,88.6,Crecimiento24: -4.9% | Crecimiento25: 6.0% | Vacancia: 17.7% | Momentum: -7.3%,31.272,-95.9213
76360,Electra,TX,86333,Bajo Potencial,88.5,Crecimiento24: -2.7% | Crecimiento25: 2.6% | Vacancia: 15.1% | Momentum: -7.3%,34.0362,-98.9155
75495,Van Alstyne,TX,445753,Bajo Potencial,88.2,Crecimiento24: -0.5% | Crecimiento25: 2.4% | Vacancia: 4.9% | Momentum: -16.8%,33.4292,-96.5486
76182,North Richland Hills,TX,411931,Bajo Potencial,87.9,Crecimiento24: 2.0% | Crecimiento25: 0.0% | Vacancia: 1.1% | Momentum: -14.2%,32.8828,-97.2098
77484,,TX,381457,Bajo Potencial,87.9,Crecimiento24: -2.3% | Crecimiento25: 3.4% | Vacancia: 3.5% | Momentum: -11.2%,30.071,-95.9253
78263,San Antonio,TX,363087,Bajo Potencial,87.8,Crecimiento24: -2.0% | Crecimiento25: 2.7% | Vacancia: 0.6% | Momentum: -11.0%,29.3614,-98.3174
78343,Bishop,TX,142334,Bajo Potencial,87.8,Crecimiento24: -1.3% | Crecimiento25: 1.2% | Vacancia: 9.0% | Momentum: 1.7%,27.5886,-97.783
75852,Midway,TX,325007,Bajo Potencial,87.7,Crecimiento24: -1.6% | Crecimiento25: 3.0% | Vacancia: 4.3% | Momentum: -14.8%,30.9806,-95.7089
75117,Edgewood,TX,274823,Bajo Potencial,87.6,Crecimiento24: 2.8% | Crecimiento25: -0.7% | Vacancia: 4.7% | Momentum: -11.3%,32.7003,-95.878
79322,Crosbyton,TX,70216,Bajo Potencial,87.5,Crecimiento24: -5.1% | Crecimiento25: 2.2% | Vacancia: 9.3% | Momentum: 4.0%,33.6562,-101.2287
78946,Ledbetter,TX,465054,Bajo Potencial,87.5,Crecimiento24: -1.0% | Crecimiento25: 3.5% | Vacancia: 19.3% | Momentum: -4.5%,30.2383,-96.7613
75446,Honey Grove,TX,251050,Bajo Potencial,87.3,Crecimiento24: -2.0% | Crecimiento25: 2.5% | Vacancia: 7.1% | Momentum: -12.3%,33.5985,-95.9109
77577,,TX,253803,Bajo Potencial,87.3,Crecimiento24: 2.4% | Crecimiento25: -0.6% | Vacancia: 11.8% | Momentum: -5.4%,29.2667,-95.2889
75070,McKinney,TX,507325,Bajo Potencial,86.9,Crecimiento24: 2.1% | Crecimiento25: -0.8% | Vacancia: 2.2% | Momentum: -19.5%,33.1976,-96.6153
78872,La Pryor,TX,95127,Bajo Potencial,86.8,Crecimiento24: -7.1% | Crecimiento25: 5.4% | Vacancia: 8.1% | Momentum: -11.1%,28.9488,-99.8507
77063,Houston,TX,253862,Bajo Potencial,86.7,Crecimiento24: 2.7% | Crecimiento25: -2.3% | Vacancia: 6.5% | Momentum: -8.7%,29.7348,-95.522
78650,McDade,TX,469873,Bajo Potencial,86.7,Crecimiento24: -5.1% | Crecimiento25: 3.8% | Vacancia: 5.2% | Momentum: -17.0%,30.2968,-97.2386
76009,Alvarado,TX,322428,Bajo Potencial,86.5,Crecimiento24: 0.9% | Crecimiento25: 2.0% | Vacancia: 5.4% | Momentum: -13.5%,32.4395,-97.213
77003,Houston,TX,372213,Bajo Potencial,86.5,Crecimiento24: 1.9% | Crecimiento25: -1.1% | Vacancia: 8.5% | Momentum: -6.3%,29.7489,-95.3391
76115,Fort Worth,TX,185664,Bajo Potencial,86.3,Crecimiento24: -0.3% | Crecimiento25: 2.1% | Vacancia: 3.1% | Momentum: -15.7%,32.6796,-97.3336
77510,Santa Fe,TX,321897,Bajo Potencial,86.3,Crecimiento24: -0.6% | Crecimiento25: 2.5% | Vacancia: 3.5% | Momentum: -8.9%,29.4032,-95.0734
78059,Natalia,TX,314106,Bajo Potencial,86.3,Crecimiento24: -2.2% | Crecimiento25: 4.0% | Vacancia: 3.7% | Momentum: -6.8%,29.2117,-98.8552
78578,Port Isabel,TX,261784,Bajo Potencial,85.9,Crecimiento24: 8.3% | Crecimiento25: -1.4% | Vacancia: 20.5% | Momentum: -16.9%,26.0539,-97.3125
79339,Littlefield,TX,109667,Bajo Potencial,85.2,Crecimiento24: -4.0% | Crecimiento25: 6.1% | Vacancia: 8.9% | Momentum: -6.2%,33.9212,-102.3207
75840,Fairfield,TX,225556,Bajo Potencial,85.1,Crecimiento24: 3.4% | Crecimiento25: -0.8% | Vacancia: 9.1% | Momentum: -12.3%,31.7361,-96.1572
76107,Fort Worth,TX,365712,Bajo Potencial,84.9,Crecimiento24: 0.4% | Crecimiento25: 1.8% | Vacancia: 7.2% | Momentum: -10.5%,32.7392,-97.3852
77335,,TX,141119,Bajo Potencial,84.6,Crecimiento24: -9.5% | Crecimiento25: 8.4% | Vacancia: 11.8% | Momentum: -11.0%,30.6079,-94.9592
75219,Dallas,TX,416603,Bajo Potencial,84.2,Crecimiento24: 1.9% | Crecimiento25: -0.4% | Vacancia: 10.6% | Momentum: -8.3%,32.8132,-96.8142
75204,Dallas,TX,510000,Bajo Potencial,84.0,Crecimiento24: 2.6% | Crecimiento25: -0.6% | Vacancia: 7.7% | Momentum: -9.4%,32.8038,-96.7851
77422,Brazoria,TX,231345,Bajo Potencial,84.0,Crecimiento24: 0.3% | Crecimiento25: 2.2% | Vacancia: 7.9% | Momentum: -4.2%,29.0236,-95.5867
77964,Hallettsville,TX,335596,Bajo Potencial,83.8,Crecimiento24: -1.8% | Crecimiento25: 3.1% | Vacancia: 13.3% | Momentum: -9.0%,29.4426,-96.9234
77355,Magnolia,TX,376456,Bajo Potencial,83.6,Crecimiento24: -0.4% | Crecimiento25: 2.8% | Vacancia: 1.4% | Momentum: -10.7%,30.1598,-95.7402
77480,Sweeny,TX,232752,Bajo Potencial,83.6,Crecimiento24: -1.2% | Crecimiento25: 3.1% | Vacancia: 5.5% | Momentum: -7.2%,29.0415,-95.7004
79567,Winters,TX,83021,Bajo Potencial,83.6,Crecimiento24: 4.0% | Crecimiento25: -13.9% | Vacancia: 15.8% | Momentum: -4.8%,31.962,-99.9551
76301,Wichita Falls,TX,86549,Bajo Potencial,83.4,Crecimiento24: 3.8% | Crecimiento25: -0.5% | Vacancia: 8.9% | Momentum: -11.4%,33.9053,-98.4976
75169,Wills Point,TX,262781,Bajo Potencial,83.4,Crecimiento24: 1.8% | Crecimiento25: 0.5% | Vacancia: 4.4% | Momentum: -10.5%,32.7283,-96.0079
76119,Fort Worth,TX,198997,Bajo Potencial,83.0,Crecimiento24: -0.4% | Crecimiento25: 3.0% | Vacancia: 2.8% | Momentum: -13.8%,32.6914,-97.2675
75161,Terrell,TX,349590,Bajo Potencial,82.9,Crecimiento24: -0.7% | Crecimiento25: 3.3% | Vacancia: 1.4% | Momentum: -15.3%,32.7332,-96.195
77455,Louise,TX,341115,Bajo Potencial,82.3,Crecimiento24: -0.9% | Crecimiento25: 3.0% | Vacancia: 4.0% | Momentum: -4.4%,29.1114,-96.4033
78954,Round Top,TX,1212136,Bajo Potencial,82.2,Crecimiento24: -1.9% | Crecimiento25: 10.0% | Vacancia: 21.0% | Momentum: -18.6%,30.0411,-96.7341
79510,Clyde,TX,206396,Bajo Potencial,82.1,Crecimiento24: -2.4% | Crecimiento25: 4.0% | Vacancia: 7.6% | Momentum: -4.0%,32.3803,-99.5184
75009,Celina,TX,602567,Bajo Potencial,81.5,Crecimiento24: 1.8% | Crecimiento25: 0.1% | Vacancia: 1.9% | Momentum: -22.2%,33.3103,-96.7673
75980,Zavalla,TX,164014,Bajo Potencial,81.2,Crecimiento24: 2.2% | Crecimiento25: 0.4% | Vacancia: 36.8% | Momentum: -4.1%,31.1569,-94.3871
75432,Cooper,TX,181954,Bajo Potencial,81.1,Crecimiento24: -4.2% | Crecimiento25: 4.6% | Vacancia: 5.5% | Momentum: -20.6%,33.3812,-95.6623
78393,Woodsboro,TX,134703,Bajo Potencial,80.8,Crecimiento24: -8.5% | Crecimiento25: 6.4% | Vacancia: 11.7% | Momentum: 4.3%,28.2232,-97.3192
78950,New Ulm,TX,618300,Bajo Potencial,80.5,Crecimiento24: -2.8% | Crecimiento25: 4.9% | Vacancia: 14.3% | Momentum: -8.0%,29.9134,-96.4961
76132,Fort Worth,TX,449784,Bajo Potencial,80.4,Crecimiento24: -0.4% | Crecimiento25: 2.0% | Vacancia: 5.2% | Momentum: -13.7%,32.6711,-97.4056
77511,Alvin,TX,289183,Bajo Potencial,80.2,Crecimiento24: 0.9% | Crecimiento25: 2.1% | Vacancia: 4.8% | Momentum: -9.2%,29.412,-95.2515
78361,Hebbronville,TX,86005,Bajo Potencial,80.1,Crecimiento24: -7.2% | Crecimiento25: -0.8% | Vacancia: 14.2% | Momentum: 7.5%,27.2997,-98.6829
77640,Port Arthur,TX,125063,Bajo Potencial,79.7,Crecimiento24: -3.8% | Crecimiento25: 6.7% | Vacancia: 11.6% | Momentum: -2.7%,29.8709,-93.9643
75496,Wolfe City,TX,274647,Bajo Potencial,79.6,Crecimiento24: 1.2% | Crecimiento25: 1.5% | Vacancia: 4.1% | Momentum: -15.3%,33.3605,-96.0691
78113,,TX,401372,Bajo Potencial,79.4,Crecimiento24: -0.9% | Crecimiento25: 3.5% | Vacancia: 2.8% | Momentum: -5.8%,28.9814,-98.0156
75758,Chandler,TX,265214,Bajo Potencial,79.2,Crecimiento24: 1.1% | Crecimiento25: 2.0% | Vacancia: 8.4% | Momentum: -11.5%,32.2572,-95.5393
75750,,TX,247959,Bajo Potencial,79.2,Crecimiento24: 0.7% | Crecimiento25: 2.1% | Vacancia: 5.3% | Momentum: -9.2%,32.2418,-95.0639
77536,Deer Park,TX,280336,Bajo Potencial,79.1,Crecimiento24: 1.7% | Crecimiento25: 1.3% | Vacancia: 2.0% | Momentum: -8.6%,29.6826,-95.1222
77835,Burton,TX,557768,Bajo Potencial,79.1,Crecimiento24: -1.5% | Crecimiento25: 2.8% | Vacancia: 15.1% | Momentum: -12.6%,30.1767,-96.5925
77414,Bay City,TX,190602,Bajo Potencial,79.0,Crecimiento24: -2.3% | Crecimiento25: 4.8% | Vacancia: 9.8% | Momentum: -5.1%,28.8636,-95.9173
77485,,TX,326078,Bajo Potencial,79.0,Crecimiento24: -0.1% | Crecimiento25: 2.4% | Vacancia: 7.2% | Momentum: -6.1%,29.6397,-96.0456
77546,Friendswood,TX,395255,Bajo Potencial,78.4,Crecimiento24: 1.0% | Crecimiento25: 1.8% | Vacancia: 1.5% | Momentum: -10.7%,29.5224,-95.1879
75931,Brookeland,TX,255891,Bajo Potencial,77.4,Crecimiento24: 2.4% | Crecimiento25: 2.2% | Vacancia: 37.4% | Momentum: -10.5%,31.0922,-93.9684
79553,Stamford,TX,100996,Bajo Potencial,77.0,Crecimiento24: -9.0% | Crecimiento25: 7.5% | Vacancia: 8.1% | Momentum: 0.4%,32.9453,-99.7859
75455,Mount Pleasant,TX,229703,Bajo Potencial,76.6,Crecimiento24: 3.2% | Crecimiento25: -0.9% | Vacancia: 3.1% | Momentum: -11.2%,33.1733,-94.9695
77092,Houston,TX,279509,Bajo Potencial,76.3,Crecimiento24: 2.1% | Crecimiento25: 0.3% | Vacancia: 4.3% | Momentum: -8.9%,29.8324,-95.472
78606,Blanco,TX,575002,Bajo Potencial,76.3,Crecimiento24: 3.3% | Crecimiento25: -0.9% | Vacancia: 8.0% | Momentum: -14.7%,30.0874,-98.4107
77982,Port O Connor,TX,354400,Bajo Potencial,76.1,Crecimiento24: 1.8% | Crecimiento25: 2.7% | Vacancia: 115.5% | Momentum: -10.9%,28.4483,-96.4058
77053,Houston,TX,207125,Bajo Potencial,75.5,Crecimiento24: 1.9% | Crecimiento25: 0.8% | Vacancia: 0.9% | Momentum: -12.4%,29.5962,-95.4587
77651,Port Neches,TX,226943,Bajo Potencial,75.3,Crecimiento24: -0.5% | Crecimiento25: 3.4% | Vacancia: 5.7% | Momentum: -4.3%,29.977,-93.9626
79036,Fritch,TX,152780,Bajo Potencial,73.5,Crecimiento24: -3.9% | Crecimiento25: 6.5% | Vacancia: 13.7% | Momentum: -4.1%,35.6441,-101.5845
77457,,TX,287087,Bajo Potencial,72.2,Crecimiento24: 0.6% | Crecimiento25: 8.2% | Vacancia: 117.4% | Momentum: -5.9%,28.6908,-95.9675
77705,Beaumont,TX,139379,Bajo Potencial,72.0,Crecimiento24: -7.6% | Crecimiento25: 3.2% | Vacancia: 5.8% | Momentum: -1.1%,30.0211,-94.1157
75062,Irving,TX,305452,Bajo Potencial,71.5,Crecimiento24: 2.5% | Crecimiento25: -0.1% | Vacancia: 2.0% | Momentum: -11.5%,32.8479,-96.974
77856,Franklin,TX,360952,Bajo Potencial,70.7,Crecimiento24: 1.1% | Crecimiento25: 5.5% | Vacancia: 20.9% | Momentum: -2.8%,31.0001,-96.5171
76085,Weatherford,TX,456562,Bajo Potencial,70.6,Crecimiento24: -0.0% | Crecimiento25: 2.8% | Vacancia: 2.7% | Momentum: -12.1%,32.7676,-97.7516
76082,Springtown,TX,390425,Bajo Potencial,69.8,Crecimiento24: 0.1% | Crecimiento25: 2.1% | Vacancia: 3.4% | Momentum: -12.2%,32.966,-97.6836
75494,Winnsboro,TX,272942,Bajo Potencial,69.6,Crecimiento24: -1.3% | Crecimiento25: 4.2% | Vacancia: 9.2% | Momentum: -10.8%,32.9146,-95.2726
75235,Dallas,TX,277476,Bajo Potencial,67.7,Crecimiento24: 5.2% | Crecimiento25: -2.1% | Vacancia: 4.0% | Momentum: -10.7%,32.8252,-96.8388
78945,La Grange,TX,398258,Bajo Potencial,67.4,Crecimiento24: 0.1% | Crecimiento25: 2.8% | Vacancia: 11.4% | Momentum: -10.2%,29.904,-96.886
75654,,TX,216214,Bajo Potencial,66.6,Crecimiento24: -1.1% | Crecimiento25: 2.8% | Vacancia: 5.8% | Momentum: -10.4%,32.126,-94.7488
77435,East Bernard,TX,333726,Bajo Potencial,66.6,Crecimiento24: -0.6% | Crecimiento25: 3.5% | Vacancia: 3.4% | Momentum: -6.2%,29.4705,-96.1211
75792,Winona,TX,231878,Bajo Potencial,65.7,Crecimiento24: 2.2% | Crecimiento25: -0.1% | Vacancia: 6.2% | Momentum: -8.5%,32.4662,-95.1246
76023,Boyd,TX,387507,Bajo Potencial,65.6,Crecimiento24: -0.2% | Crecimiento25: 3.1% | Vacancia: 2.2% | Momentum: -10.6%,33.0594,-97.5868
76070,Nemo,TX,496023,Bajo Potencial,65.4,Crecimiento24: 1.3% | Crecimiento25: 1.8% | Vacancia: 1.7% | Momentum: -15.3%,32.2713,-97.6567
79410,Lubbock,TX,183249,Bajo Potencial,63.2,Crecimiento24: 2.8% | Crecimiento25: 0.2% | Vacancia: 3.0% | Momentum: -11.7%,33.5693,-101.8904
77062,Houston,TX,318310,Bajo Potencial,63.1,Crecimiento24: 2.4% | Crecimiento25: 0.6% | Vacancia: 1.9% | Momentum: -9.6%,29.5721,-95.1303
75708,Tyler,TX,189442,Bajo Potencial,62.6,Crecimiento24: 1.7% | Crecimiento25: 1.6% | Vacancia: 8.8% | Momentum: -10.4%,32.419,-95.2106
79007,Borger,TX,103891,Bajo Potencial,62.4,Crecimiento24: -2.7% | Crecimiento25: 5.0% | Vacancia: 14.3% | Momentum: -3.0%,35.6678,-101.3974
76374,Olney,TX,105335,Bajo Potencial,62.0,Crecimiento24: 10.2% | Crecimiento25: -1.0% | Vacancia: 6.9% | Momentum: -11.2%,33.3601,-98.7427
77482,Van Vleck,TX,211200,Bajo Potencial,60.7,Crecimiento24: -4.0% | Crecimiento25: 7.9% | Vacancia: 9.8% | Momentum: -4.2%,29.016,-95.8905
77642,Port Arthur,TX,120767,Bajo Potencial,60.3,Crecimiento24: -7.1% | Crecimiento25: 5.2% | Vacancia: 5.9% | Momentum: -0.9%,29.9212,-93.927
75452,Leonard,TX,348511,Bajo Potencial,58.9,Crecimiento24: -1.2% | Crecimiento25: 3.5% | Vacancia: 3.7% | Momentum: -15.2%,33.3796,-96.2475
77041,Houston,TX,307507,Bajo Potencial,58.7,Crecimiento24: 0.6% | Crecimiento25: 2.2% | Vacancia: 2.1% | Momentum: -13.2%,29.8602,-95.5817
77656,Silsbee,TX,171993,Bajo Potencial,58.7,Crecimiento24: -3.5% | Crecimiento25: 5.1% | Vacancia: 6.7% | Momentum: -2.4%,30.3244,-94.1907
77503,Pasadena,TX,213887,Bajo Potencial,58.3,Crecimiento24: 2.0% | Crecimiento25: 0.8% | Vacancia: 3.5% | Momentum: -10.5%,29.6877,-95.1572
76443,Cross Plains,TX,183762,Bajo Potencial,56.3,Crecimiento24: -8.3% | Crecimiento25: 10.6% | Vacancia: 17.4% | Momentum: 1.4%,32.1482,-99.1872
75021,Denison,TX,258592,Bajo Potencial,53.9,Crecimiento24: -0.9% | Crecimiento25: 3.5% | Vacancia: 4.7% | Momentum: -13.3%,33.7169,-96.5235
75480,Scroggins,TX,537107,Bajo Potencial,53.1,Crecimiento24: -0.1% | Crecimiento25: 4.4% | Vacancia: 26.7% | Momentum: -15.5%,33.0478,-95.1962
79605,Abilene,TX,160906,Bajo Potencial,51.3,Crecimiento24: 2.1% | Crecimiento25: 0.5% | Vacancia: 4.8% | Momentum: -8.9%,32.432,-99.7724
76701,Waco,TX,281602,Bajo Potencial,50.2,Crecimiento24: 5.9% | Crecimiento25: 0.5% | Vacancia: 9.3% | Momentum: -15.7%,31.5525,-97.1396
